{
  "type": "Feature",
  "properties": {
    "parcel_id": "010170015",
    "owner_name_raw": "UTAH TRANSIT AUTHORITY",
    "owner_class": "UTA",
    "epsg": "EPSG:4326"
  },
  "geometry": {
    "type": "Polygon",
    "coordinates": [
      [
        [
          -111.855343221282,
          40.3852676382983
        ],
        [
          -111.855330610732,
          40.3849810185532
        ],
        [
          -111.855381193968,
          40.3849799415372
        ],
        [
          -111.855381564972,
          40.3849883612834
        ],
        [
          -111.855393511667,
          40.3852665647082
        ],
        [
          -111.855343221282,
          40.3852676382983
        ]
      ]
    ]
  }
}