{
  "type": "Feature",
  "properties": {
    "parcel_id": "010300011",
    "owner_name_raw": "UTAH COUNTY",
    "owner_class": "UNCLASSIFIED",
    "epsg": "EPSG:4326"
  },
  "geometry": {
    "type": "Polygon",
    "coordinates": [
      [
        [
          -111.855196794993,
          40.3871495169318
        ],
        [
          -111.854549787003,
          40.3871622532263
        ],
        [
          -111.854549381862,
          40.3871529271443
        ],
        [
          -111.855196107782,
          40.3871357173381
        ],
        [
          -111.855196794993,
          40.3871495169318
        ]
      ]
    ]
  }
}