{
  "type": "Feature",
  "properties": {
    "parcel_id": "010500007",
    "owner_name_raw": "UTAH TRANSIT AUTHORITY",
    "owner_class": "UTA",
    "epsg": "EPSG:4326"
  },
  "geometry": {
    "type": "Polygon",
    "coordinates": [
      [
        [
          -111.857000404572,
          40.3914649425223
        ],
        [
          -111.856998245921,
          40.3915766272628
        ],
        [
          -111.856826725476,
          40.3914197770511
        ],
        [
          -111.856659369056,
          40.3912603384601
        ],
        [
          -111.856541371753,
          40.3911419143258
        ],
        [
          -111.856428588715,
          40.3910205785029
        ],
        [
          -111.856321143685,
          40.3908964641012
        ],
        [
          -111.856219154547,
          40.3907697072796
        ],
        [
          -111.856122733199,
          40.3906404470969
        ],
        [
          -111.856031985433,
          40.3905088253584
        ],
        [
          -111.855947010813,
          40.3903749864617
        ],
        [
          -111.85586790257,
          40.390239077237
        ],
        [
          -111.855794747499,
          40.3901012467871
        ],
        [
          -111.855727625863,
          40.3899616463233
        ],
        [
          -111.855666611306,
          40.3898204289997
        ],
        [
          -111.85561177077,
          40.3896777497452
        ],
        [
          -111.855563164425,
          40.3895337650937
        ],
        [
          -111.8555208456,
          40.3893886330121
        ],
        [
          -111.855484860726,
          40.3892425127271
        ],
        [
          -111.855455249283,
          40.389095564551
        ],
        [
          -111.8555239183,
          40.3890941694422
        ],
        [
          -111.855542300671,
          40.3892009191004
        ],
        [
          -111.855564107525,
          40.3893072939675
        ],
        [
          -111.855589325798,
          40.3894132303248
        ],
        [
          -111.855617940384,
          40.3895186647164
        ],
        [
          -111.855649934144,
          40.3896235339878
        ],
        [
          -111.855685287911,
          40.389727775323
        ],
        [
          -111.855723980509,
          40.3898313262824
        ],
        [
          -111.85576598876,
          40.3899341248404
        ],
        [
          -111.855811287499,
          40.3900361094222
        ],
        [
          -111.855859849593,
          40.390137218941
        ],
        [
          -111.855911645951,
          40.3902373928343
        ],
        [
          -111.855966645546,
          40.3903365711002
        ],
        [
          -111.856024815434,
          40.3904346943337
        ],
        [
          -111.856086120768,
          40.3905317037617
        ],
        [
          -111.856150524826,
          40.3906275412788
        ],
        [
          -111.856217989028,
          40.3907221494813
        ],
        [
          -111.856280586332,
          40.3906952872659
        ],
        [
          -111.85635823591,
          40.3907978030677
        ],
        [
          -111.856439535823,
          40.3908986637332
        ],
        [
          -111.85652442531,
          40.3909977938881
        ],
        [
          -111.856612840925,
          40.3910951194516
        ],
        [
          -111.856704716588,
          40.3911905676919
        ],
        [
          -111.856799983631,
          40.3912840672804
        ],
        [
          -111.856898570853,
          40.391375548345
        ],
        [
          -111.857000404572,
          40.3914649425223
        ]
      ]
    ]
  }
}