{
  "type": "Feature",
  "properties": {
    "parcel_id": "020380052",
    "owner_name_raw": "UTAH COUNTY",
    "owner_class": "UNCLASSIFIED",
    "epsg": "EPSG:4326"
  },
  "geometry": {
    "type": "Polygon",
    "coordinates": [
      [
        [
          -111.797167165554,
          40.3805970645102
        ],
        [
          -111.797166921213,
          40.3805970569829
        ],
        [
          -111.797167236521,
          40.3805893757304
        ],
        [
          -111.797428867255,
          40.3805976051061
        ],
        [
          -111.797428838508,
          40.380600267712
        ],
        [
          -111.797167165554,
          40.3805970645102
        ]
      ]
    ]
  }
}