{
  "type": "Feature",
  "properties": {
    "parcel_id": "030050123",
    "owner_name_raw": "UTAH DEPARTMENT OF TRANSPORTATION",
    "owner_class": "STATE",
    "epsg": "EPSG:4326"
  },
  "geometry": {
    "type": "Polygon",
    "coordinates": [
      [
        [
          -111.735746739374,
          40.3556800843677
        ],
        [
          -111.735742899675,
          40.3558541247845
        ],
        [
          -111.735683188658,
          40.3558684989616
        ],
        [
          -111.735683954347,
          40.3558436944675
        ],
        [
          -111.735686320831,
          40.3558189487252
        ],
        [
          -111.735690282379,
          40.3557943216907
        ],
        [
          -111.735695829391,
          40.3557698730322
        ],
        [
          -111.735702948427,
          40.3557456619858
        ],
        [
          -111.73571162224,
          40.3557217472123
        ],
        [
          -111.735721829814,
          40.3556981866542
        ],
        [
          -111.735733546417,
          40.3556750373963
        ],
        [
          -111.735734689074,
          40.3556511780268
        ],
        [
          -111.735741970817,
          40.3556369126472
        ],
        [
          -111.735747731713,
          40.3556355661333
        ],
        [
          -111.735746739374,
          40.3556800843677
        ]
      ]
    ]
  }
}