{
  "type": "Feature",
  "properties": {
    "parcel_id": "030290020",
    "owner_name_raw": "UTAH POWER & LIGHT COMPANY",
    "owner_class": "UNCLASSIFIED",
    "epsg": "EPSG:4326"
  },
  "geometry": {
    "type": "Polygon",
    "coordinates": [
      [
        [
          -111.727389511662,
          40.3635562908434
        ],
        [
          -111.72739036596,
          40.3638131958506
        ],
        [
          -111.727104922686,
          40.3638137502706
        ],
        [
          -111.727104230084,
          40.3636051853763
        ],
        [
          -111.727389511662,
          40.3635562908434
        ]
      ]
    ]
  }
}