{
  "type": "Feature",
  "properties": {
    "parcel_id": "040180020",
    "owner_name_raw": "JT REAL ESTATE UTAH LLC",
    "owner_class": "UNCLASSIFIED",
    "epsg": "EPSG:4326"
  },
  "geometry": {
    "type": "Polygon",
    "coordinates": [
      [
        [
          -111.665262258378,
          40.2277362324849
        ],
        [
          -111.66526183078,
          40.2275591940822
        ],
        [
          -111.665573331486,
          40.2275593765185
        ],
        [
          -111.665573757288,
          40.2277351680474
        ],
        [
          -111.665262258378,
          40.2277362324849
        ]
      ]
    ]
  }
}