{
  "type": "Feature",
  "properties": {
    "parcel_id": "040640013",
    "owner_name_raw": "UTAH COUNTY",
    "owner_class": "UNCLASSIFIED",
    "epsg": "EPSG:4326"
  },
  "geometry": {
    "type": "Polygon",
    "coordinates": [
      [
        [
          -111.66380537065,
          40.2343912925047
        ],
        [
          -111.663804962815,
          40.2344736225797
        ],
        [
          -111.663590115444,
          40.2344729978335
        ],
        [
          -111.66359052238,
          40.2343906663862
        ],
        [
          -111.66380537065,
          40.2343912925047
        ]
      ]
    ]
  }
}