{
  "type": "Feature",
  "properties": {
    "parcel_id": "041030013",
    "owner_name_raw": "PROVO CITY REDEVELOPMENT AGENCY",
    "owner_class": "CRA",
    "epsg": "EPSG:4326"
  },
  "geometry": {
    "type": "Polygon",
    "coordinates": [
      [
        [
          -111.661352901653,
          40.2378769841463
        ],
        [
          -111.66134962909,
          40.2384203624446
        ],
        [
          -111.661172369925,
          40.2384197343061
        ],
        [
          -111.661175643386,
          40.2378763573743
        ],
        [
          -111.661352901653,
          40.2378769841463
        ]
      ]
    ]
  }
}