{
  "type": "Feature",
  "properties": {
    "parcel_id": "041030017",
    "owner_name_raw": "PROVO CITY REDEVELOPMENT AGENCY",
    "owner_class": "CRA",
    "epsg": "EPSG:4326"
  },
  "geometry": {
    "type": "Polygon",
    "coordinates": [
      [
        [
          -111.660635980479,
          40.2380226645954
        ],
        [
          -111.660901869227,
          40.2380234292007
        ],
        [
          -111.660901265559,
          40.2381469234804
        ],
        [
          -111.660635375913,
          40.2381461588764
        ],
        [
          -111.660635980479,
          40.2380226645954
        ]
      ]
    ]
  }
}