{
  "type": "Feature",
  "properties": {
    "parcel_id": "041030012",
    "owner_name_raw": "PROVO CITY REDEVELOPMENT AGENCY",
    "owner_class": "CRA",
    "epsg": "EPSG:4326"
  },
  "geometry": {
    "type": "Polygon",
    "coordinates": [
      [
        [
          -111.661352847754,
          40.2378770033472
        ],
        [
          -111.661530104224,
          40.2378776314907
        ],
        [
          -111.66152683256,
          40.238421009098
        ],
        [
          -111.661349574293,
          40.238420382331
        ],
        [
          -111.661352847754,
          40.2378770033472
        ]
      ]
    ]
  }
}