{
  "type": "Feature",
  "properties": {
    "parcel_id": "050130024",
    "owner_name_raw": "UTAH DEPARTMENT OF TRANSPORTATION",
    "owner_class": "STATE",
    "epsg": "EPSG:4326"
  },
  "geometry": {
    "type": "Polygon",
    "coordinates": [
      [
        [
          -111.65777262207,
          40.2298020642231
        ],
        [
          -111.657820015388,
          40.229802443486
        ],
        [
          -111.658008978703,
          40.2298146066437
        ],
        [
          -111.658008229508,
          40.2298752818051
        ],
        [
          -111.657771744416,
          40.2298734060676
        ],
        [
          -111.65777262207,
          40.2298020642231
        ]
      ]
    ]
  }
}