{
  "type": "Feature",
  "properties": {
    "parcel_id": "050690007",
    "owner_name_raw": "BAHME- J UTAH LLC",
    "owner_class": "UNCLASSIFIED",
    "epsg": "EPSG:4326"
  },
  "geometry": {
    "type": "Polygon",
    "coordinates": [
      [
        [
          -111.651827716149,
          40.2407096004428
        ],
        [
          -111.652359510712,
          40.2407113023936
        ],
        [
          -111.652358869315,
          40.2408293087835
        ],
        [
          -111.651827072955,
          40.2408276082071
        ],
        [
          -111.651827716149,
          40.2407096004428
        ]
      ]
    ]
  }
}