{
  "type": "Feature",
  "properties": {
    "parcel_id": "060080022",
    "owner_name_raw": "UTAH DEPARTMENT OF TRANSPORTATION",
    "owner_class": "STATE",
    "epsg": "EPSG:4326"
  },
  "geometry": {
    "type": "Polygon",
    "coordinates": [
      [
        [
          -111.616572987871,
          40.1613270530685
        ],
        [
          -111.616572910615,
          40.1612809476853
        ],
        [
          -111.616930685339,
          40.1613272439213
        ],
        [
          -111.616930707796,
          40.1613331445678
        ],
        [
          -111.616572987871,
          40.1613270530685
        ]
      ]
    ]
  }
}