{
  "type": "Feature",
  "properties": {
    "parcel_id": "060070021",
    "owner_name_raw": "UTAH DEPARTMENT OF TRANSPORTATION",
    "owner_class": "STATE",
    "epsg": "EPSG:4326"
  },
  "geometry": {
    "type": "Polygon",
    "coordinates": [
      [
        [
          -111.616028172227,
          40.1612537703603
        ],
        [
          -111.616028141684,
          40.1612682367419
        ],
        [
          -111.615940429282,
          40.1612649579154
        ],
        [
          -111.615773121653,
          40.1612592110438
        ],
        [
          -111.615659278157,
          40.1612617628443
        ],
        [
          -111.615659291632,
          40.1612536412943
        ],
        [
          -111.616028172227,
          40.1612537703603
        ]
      ]
    ]
  }
}