{
  "type": "Feature",
  "properties": {
    "parcel_id": "071040038",
    "owner_name_raw": "UTAH COUNTY",
    "owner_class": "UNCLASSIFIED",
    "epsg": "EPSG:4326"
  },
  "geometry": {
    "type": "Polygon",
    "coordinates": [
      [
        [
          -111.642639925289,
          40.1167319732812
        ],
        [
          -111.642639938764,
          40.116736278532
        ],
        [
          -111.642180071407,
          40.1167393444859
        ],
        [
          -111.642180179205,
          40.1167325393458
        ],
        [
          -111.642639925289,
          40.1167319732812
        ]
      ]
    ]
  }
}