{
  "type": "Feature",
  "properties": {
    "parcel_id": "07213510010000",
    "owner_name_raw": "SALT LAKE CITY CORPORATION - DIRECTOR",
    "owner_class": "CITY",
    "epsg": "EPSG:4326"
  },
  "geometry": {
    "type": "Polygon",
    "coordinates": [
      [
        [
          -112.0812747614,
          40.8013789764568
        ],
        [
          -112.08127319384,
          40.8006201281505
        ],
        [
          -112.081816881199,
          40.8006205994001
        ],
        [
          -112.082263422049,
          40.8006209836079
        ],
        [
          -112.08226783098,
          40.8013156522184
        ],
        [
          -112.082268085203,
          40.8013756145066
        ],
        [
          -112.082268088796,
          40.8013763176329
        ],
        [
          -112.081829120745,
          40.8013774940435
        ],
        [
          -112.0812747614,
          40.8013789764568
        ]
      ]
    ]
  }
}