{
  "type": "Feature",
  "properties": {
    "parcel_id": "07362760120000",
    "owner_name_raw": "SALT LAKE CITY CORPORATION - SCOTT JOHNSON",
    "owner_class": "CITY",
    "epsg": "EPSG:4326"
  },
  "geometry": {
    "type": "Polygon",
    "coordinates": [
      [
        [
          -112.006033324879,
          40.7791870347306
        ],
        [
          -112.007828472329,
          40.7791785059636
        ],
        [
          -112.009269561386,
          40.7791716390061
        ],
        [
          -112.009291043698,
          40.7791889114945
        ],
        [
          -112.009317802713,
          40.7792056479547
        ],
        [
          -112.009347199183,
          40.7792195947748
        ],
        [
          -112.009354146753,
          40.7792223286315
        ],
        [
          -112.009372526284,
          40.77922839631
        ],
        [
          -112.009414879155,
          40.7792379773908
        ],
        [
          -112.009458734008,
          40.7792420934799
        ],
        [
          -112.009502880815,
          40.7792406309793
        ],
        [
          -112.009546098763,
          40.7792336286619
        ],
        [
          -112.009587192196,
          40.7792212817528
        ],
        [
          -112.00959219132,
          40.779219349891
        ],
        [
          -112.009609124563,
          40.7792120135768
        ],
        [
          -112.009616154779,
          40.7798800998452
        ],
        [
          -112.009616285933,
          40.7798924718002
        ],
        [
          -112.009616438646,
          40.7799069551744
        ],
        [
          -112.009617987342,
          40.7800944510533
        ],
        [
          -112.009618440991,
          40.7801493029427
        ],
        [
          -112.009580381169,
          40.7801494845625
        ],
        [
          -112.006046623539,
          40.7801662996865
        ],
        [
          -112.006033324879,
          40.7791870347306
        ]
      ]
    ]
  }
}