{
  "type": "Feature",
  "properties": {
    "parcel_id": "080220032",
    "owner_name_raw": "UTAH DEPARTMENT OF TRANSPORTATION",
    "owner_class": "STATE",
    "epsg": "EPSG:4326"
  },
  "geometry": {
    "type": "Polygon",
    "coordinates": [
      [
        [
          -111.73362620566,
          40.0434563273189
        ],
        [
          -111.733625927182,
          40.0435049319841
        ],
        [
          -111.733603787303,
          40.0435048515219
        ],
        [
          -111.733604065781,
          40.0434562454813
        ],
        [
          -111.73362620566,
          40.0434563273189
        ]
      ]
    ]
  }
}