{
  "type": "Feature",
  "properties": {
    "parcel_id": "081210004",
    "owner_name_raw": "SOUTH UTAH COUNTY APARTMENTS LLC",
    "owner_class": "UNCLASSIFIED",
    "epsg": "EPSG:4326"
  },
  "geometry": {
    "type": "Polygon",
    "coordinates": [
      [
        [
          -111.740990937515,
          40.0323243810815
        ],
        [
          -111.740990293423,
          40.0321404994595
        ],
        [
          -111.74151869505,
          40.0321394037536
        ],
        [
          -111.741519340938,
          40.0323232853786
        ],
        [
          -111.740990937515,
          40.0323243810815
        ]
      ]
    ]
  }
}