{
  "type": "Feature",
  "properties": {
    "parcel_id": "08142000030000",
    "owner_name_raw": "SALT LAKE COUNTY - REAL ESTATE DEPT # S3200",
    "owner_class": "COUNTY",
    "epsg": "EPSG:4326"
  },
  "geometry": {
    "type": "Polygon",
    "coordinates": [
      [
        [
          -111.919423155975,
          40.8188996541973
        ],
        [
          -111.919386016926,
          40.8193468833972
        ],
        [
          -111.919325927718,
          40.8201029098001
        ],
        [
          -111.919251762808,
          40.8210359877087
        ],
        [
          -111.919195680985,
          40.8218176272776
        ],
        [
          -111.917709236888,
          40.8218184729446
        ],
        [
          -111.917822350952,
          40.8203356757476
        ],
        [
          -111.918455455716,
          40.8193670265196
        ],
        [
          -111.918836645027,
          40.8189048358352
        ],
        [
          -111.919423155975,
          40.8188996541973
        ]
      ]
    ]
  }
}