{
  "type": "Feature",
  "properties": {
    "parcel_id": "08151000110000",
    "owner_name_raw": "SALT LAKE CITY CORPORATION",
    "owner_class": "CITY",
    "epsg": "EPSG:4326"
  },
  "geometry": {
    "type": "Polygon",
    "coordinates": [
      [
        [
          -111.94011748258,
          40.8217606779673
        ],
        [
          -111.94019205802,
          40.8215822275507
        ],
        [
          -111.940667697996,
          40.8203758566948
        ],
        [
          -111.941129935109,
          40.8203741265746
        ],
        [
          -111.94131277371,
          40.8203734413246
        ],
        [
          -111.941186926926,
          40.8205412260602
        ],
        [
          -111.941153247289,
          40.8205918909016
        ],
        [
          -111.941126437968,
          40.8206448684134
        ],
        [
          -111.941106772049,
          40.8206996242611
        ],
        [
          -111.94109444357,
          40.8207556050768
        ],
        [
          -111.941089583685,
          40.8208122425388
        ],
        [
          -111.94109223641,
          40.8208689656079
        ],
        [
          -111.941102377491,
          40.8209251984886
        ],
        [
          -111.941119903622,
          40.8209803728649
        ],
        [
          -111.941144636937,
          40.8210339312996
        ],
        [
          -111.941244748785,
          40.8212201492589
        ],
        [
          -111.941295550311,
          40.8213237157731
        ],
        [
          -111.941337787299,
          40.8214294799212
        ],
        [
          -111.941371295358,
          40.8215370317735
        ],
        [
          -111.941395948722,
          40.821645957324
        ],
        [
          -111.94141164768,
          40.8217558357714
        ],
        [
          -111.941210402599,
          40.8217565896666
        ],
        [
          -111.94011748258,
          40.8217606779673
        ]
      ]
    ]
  }
}