{
  "type": "Feature",
  "properties": {
    "parcel_id": "08153760090000",
    "owner_name_raw": "SALT LAKE CITY - PROPERTY MANAGEMENT",
    "owner_class": "CITY",
    "epsg": "EPSG:4326"
  },
  "geometry": {
    "type": "Polygon",
    "coordinates": [
      [
        [
          -111.940876028989,
          40.8143620189982
        ],
        [
          -111.940885049871,
          40.8142864653405
        ],
        [
          -111.940900917712,
          40.8142115649563
        ],
        [
          -111.940923554359,
          40.8141376768219
        ],
        [
          -111.940992459633,
          40.8139434279854
        ],
        [
          -111.941004882435,
          40.8139433817537
        ],
        [
          -111.941155017868,
          40.813942820175
        ],
        [
          -111.941157834087,
          40.8143764615403
        ],
        [
          -111.940997742625,
          40.8143776900707
        ],
        [
          -111.940874971672,
          40.8143786316947
        ],
        [
          -111.940874527904,
          40.8143765941156
        ],
        [
          -111.940874937536,
          40.8143697409961
        ],
        [
          -111.940875402863,
          40.814362887876
        ],
        [
          -111.940876028989,
          40.8143620189982
        ]
      ]
    ]
  }
}