{
  "type": "Feature",
  "properties": {
    "parcel_id": "08204000020000",
    "owner_name_raw": "SALT LAKE CITY - PROPERTY MANAGEMENT",
    "owner_class": "CITY",
    "epsg": "EPSG:4326"
  },
  "geometry": {
    "type": "Polygon",
    "coordinates": [
      [
        [
          -111.974573498976,
          40.8020426271334
        ],
        [
          -111.972679161349,
          40.8020445583314
        ],
        [
          -111.972657994346,
          40.7985349620533
        ],
        [
          -111.972664879933,
          40.7985349606932
        ],
        [
          -111.977403008865,
          40.7985341643719
        ],
        [
          -111.977392044028,
          40.8020396997363
        ],
        [
          -111.974573498976,
          40.8020426271334
        ]
      ]
    ]
  }
}