{
  "type": "Feature",
  "properties": {
    "parcel_id": "08212010180000",
    "owner_name_raw": "SALT LAKE CITY CORPORATION - PROPERTY MANAGEMENT",
    "owner_class": "CITY",
    "epsg": "EPSG:4326"
  },
  "geometry": {
    "type": "Polygon",
    "coordinates": [
      [
        [
          -111.956593206525,
          40.8129081679294
        ],
        [
          -111.956592859775,
          40.8119722581425
        ],
        [
          -111.956881844209,
          40.8119713300823
        ],
        [
          -111.956881740902,
          40.811696869823
        ],
        [
          -111.957062358868,
          40.8116962898679
        ],
        [
          -111.957062375038,
          40.8117415752978
        ],
        [
          -111.957062816111,
          40.8129066612976
        ],
        [
          -111.956593206525,
          40.8129081679294
        ]
      ]
    ]
  }
}