{
  "type": "Feature",
  "properties": {
    "parcel_id": "08224520070000",
    "owner_name_raw": "SALT LAKE CITY, CORP - PROPERTY MANAGEMENT",
    "owner_class": "CITY",
    "epsg": "EPSG:4326"
  },
  "geometry": {
    "type": "Polygon",
    "coordinates": [
      [
        [
          -111.935869741267,
          40.7991157164057
        ],
        [
          -111.935992072045,
          40.7988656739259
        ],
        [
          -111.936098227759,
          40.7988989383555
        ],
        [
          -111.93601533931,
          40.7991154593546
        ],
        [
          -111.935869741267,
          40.7991157164057
        ]
      ]
    ]
  }
}