{
  "type": "Feature",
  "properties": {
    "parcel_id": "08224510010000",
    "owner_name_raw": "SALT LAKE CITY - PROPERTY MANAGEMENT",
    "owner_class": "CITY",
    "epsg": "EPSG:4326"
  },
  "geometry": {
    "type": "Polygon",
    "coordinates": [
      [
        [
          -111.937677439079,
          40.8021764121012
        ],
        [
          -111.937673693104,
          40.8012904572836
        ],
        [
          -111.937668612233,
          40.8000885659758
        ],
        [
          -111.938889599672,
          40.8000861899882
        ],
        [
          -111.938867753543,
          40.8021749378657
        ],
        [
          -111.937677439079,
          40.8021764121012
        ]
      ]
    ]
  }
}