{
  "type": "Feature",
  "properties": {
    "parcel_id": "08223280080000",
    "owner_name_raw": "SALT LAKE CITY CORP - PROPERTY MANAGEMENT",
    "owner_class": "CITY",
    "epsg": "EPSG:4326"
  },
  "geometry": {
    "type": "Polygon",
    "coordinates": [
      [
        [
          -111.939811136407,
          40.8018735355715
        ],
        [
          -111.940013366042,
          40.8018734437714
        ],
        [
          -111.940013616672,
          40.8020825369604
        ],
        [
          -111.93981135829,
          40.802088165991
        ],
        [
          -111.939811136407,
          40.8018735355715
        ]
      ]
    ]
  }
}