{
  "type": "Feature",
  "properties": {
    "parcel_id": "08222760050000",
    "owner_name_raw": "SALT LAKE CITY CORPORATION",
    "owner_class": "CITY",
    "epsg": "EPSG:4326"
  },
  "geometry": {
    "type": "Polygon",
    "coordinates": [
      [
        [
          -111.93281268093,
          40.8055722784128
        ],
        [
          -111.932932005047,
          40.8055719343514
        ],
        [
          -111.934212939761,
          40.8055682244724
        ],
        [
          -111.934559590646,
          40.8060193791892
        ],
        [
          -111.934616361477,
          40.8066725462056
        ],
        [
          -111.934141308998,
          40.8066743868353
        ],
        [
          -111.934148539538,
          40.8073079629417
        ],
        [
          -111.934149546549,
          40.8073962667062
        ],
        [
          -111.932824669846,
          40.807403633224
        ],
        [
          -111.93281268093,
          40.8055722784128
        ]
      ]
    ]
  }
}