{
  "type": "Feature",
  "properties": {
    "parcel_id": "08233790010000",
    "owner_name_raw": "SALT LAKE CITY - PROPERTY MANAGEMENT",
    "owner_class": "CITY",
    "epsg": "EPSG:4326"
  },
  "geometry": {
    "type": "Polygon",
    "coordinates": [
      [
        [
          -111.92036256559,
          40.7995029395933
        ],
        [
          -111.920416161774,
          40.7995028219489
        ],
        [
          -111.920777329434,
          40.7995020310794
        ],
        [
          -111.920778373277,
          40.7997764914554
        ],
        [
          -111.920779416221,
          40.8000509534165
        ],
        [
          -111.920779937244,
          40.8001881839714
        ],
        [
          -111.920707703712,
          40.8001884423784
        ],
        [
          -111.920638636741,
          40.8000512628254
        ],
        [
          -111.920500600716,
          40.7997771007555
        ],
        [
          -111.920416568711,
          40.7996102005805
        ],
        [
          -111.92036256559,
          40.7995029395933
        ]
      ]
    ]
  }
}