{
  "type": "Feature",
  "properties": {
    "parcel_id": "08233530070000",
    "owner_name_raw": "SALT LAKE CITY CORP - PROPERTY MANAGEMENT",
    "owner_class": "CITY",
    "epsg": "EPSG:4326"
  },
  "geometry": {
    "type": "Polygon",
    "coordinates": [
      [
        [
          -111.924892527022,
          40.7986579245509
        ],
        [
          -111.924892268308,
          40.7985913988336
        ],
        [
          -111.924891861371,
          40.7985220685839
        ],
        [
          -111.925419744669,
          40.7985201638048
        ],
        [
          -111.925420350134,
          40.7986560190957
        ],
        [
          -111.924892527022,
          40.7986579245509
        ]
      ]
    ]
  }
}