{
  "type": "Feature",
  "properties": {
    "parcel_id": "08242000020000",
    "owner_name_raw": "STATE ROAD COMMISSION OF UTAH - UDOT RIGHT OF WAY",
    "owner_class": "STATE",
    "epsg": "EPSG:4326"
  },
  "geometry": {
    "type": "Polygon",
    "coordinates": [
      [
        [
          -111.891398657499,
          40.8075776688382
        ],
        [
          -111.89139798017,
          40.8071516650787
        ],
        [
          -111.891397747506,
          40.8070048398902
        ],
        [
          -111.892151626269,
          40.8070041483826
        ],
        [
          -111.89215254255,
          40.8075769773366
        ],
        [
          -111.891398657499,
          40.8075776688382
        ]
      ]
    ]
  }
}