{
  "type": "Feature",
  "properties": {
    "parcel_id": "08252000100000",
    "owner_name_raw": "SALT LAKE CITY CORP - PROPERTY MANAGEMENT",
    "owner_class": "CITY",
    "epsg": "EPSG:4326"
  },
  "geometry": {
    "type": "Polygon",
    "coordinates": [
      [
        [
          -111.89631841051,
          40.792378244806
        ],
        [
          -111.896113828187,
          40.7919347430589
        ],
        [
          -111.895079844838,
          40.7896931304411
        ],
        [
          -111.893736406245,
          40.7884949521967
        ],
        [
          -111.893161643465,
          40.7879823185844
        ],
        [
          -111.8942292274,
          40.7867755157039
        ],
        [
          -111.894520868152,
          40.7882226243509
        ],
        [
          -111.896190123003,
          40.7906682550188
        ],
        [
          -111.897073914325,
          40.7907172369421
        ],
        [
          -111.897669751582,
          40.7907502572127
        ],
        [
          -111.898265592432,
          40.7907832727062
        ],
        [
          -111.898861432383,
          40.7908162861428
        ],
        [
          -111.899200581437,
          40.7908350763381
        ],
        [
          -111.899254383336,
          40.7908991042901
        ],
        [
          -111.899846757588,
          40.7916040626288
        ],
        [
          -111.899947782124,
          40.7917220024666
        ],
        [
          -111.900051498014,
          40.7918385846078
        ],
        [
          -111.90015787651,
          40.7919537723339
        ],
        [
          -111.900266883476,
          40.7920675330072
        ],
        [
          -111.900378486574,
          40.7921798292295
        ],
        [
          -111.90058164327,
          40.7923743063566
        ],
        [
          -111.89631841051,
          40.792378244806
        ]
      ]
    ]
  }
}