{
  "type": "Feature",
  "properties": {
    "parcel_id": "08254820020000",
    "owner_name_raw": "SALT LAKE CITY - PROPERTY MANAGEMENT",
    "owner_class": "CITY",
    "epsg": "EPSG:4326"
  },
  "geometry": {
    "type": "Polygon",
    "coordinates": [
      [
        [
          -111.891979123683,
          40.7844116346982
        ],
        [
          -111.891979042835,
          40.78427440282
        ],
        [
          -111.891978961986,
          40.7841371699779
        ],
        [
          -111.892484392793,
          40.7841369985719
        ],
        [
          -111.892484474539,
          40.7842742314143
        ],
        [
          -111.892484556286,
          40.7844114632929
        ],
        [
          -111.891979123683,
          40.7844116346982
        ]
      ]
    ]
  }
}