{
  "type": "Feature",
  "properties": {
    "parcel_id": "08254280010000",
    "owner_name_raw": "SALT LAKE CITY CORPORATION - PROPERTY MANAGEMENT",
    "owner_class": "CITY",
    "epsg": "EPSG:4326"
  },
  "geometry": {
    "type": "Polygon",
    "coordinates": [
      [
        [
          -111.894599048531,
          40.7919397928224
        ],
        [
          -111.894668844934,
          40.7907426208813
        ],
        [
          -111.894564630479,
          40.7903753230479
        ],
        [
          -111.894421044663,
          40.7900159744954
        ],
        [
          -111.894233868995,
          40.789674860219
        ],
        [
          -111.894009915402,
          40.7893441447295
        ],
        [
          -111.893741656898,
          40.7890280674493
        ],
        [
          -111.893446762448,
          40.7887423356393
        ],
        [
          -111.893417575286,
          40.7887145922245
        ],
        [
          -111.893736406245,
          40.7884949521967
        ],
        [
          -111.895079844838,
          40.7896931304411
        ],
        [
          -111.896113828187,
          40.7919347430589
        ],
        [
          -111.894599048531,
          40.7919397928224
        ]
      ]
    ]
  }
}