{
  "type": "Feature",
  "properties": {
    "parcel_id": "08262050020000",
    "owner_name_raw": "STATE ROAD COMMISSION OF UTAH - UDOT RIGHT OF WAY",
    "owner_class": "STATE",
    "epsg": "EPSG:4326"
  },
  "geometry": {
    "type": "Polygon",
    "coordinates": [
      [
        [
          -111.917392112728,
          40.7975890671014
        ],
        [
          -111.916774732074,
          40.7967671515538
        ],
        [
          -111.917001539615,
          40.7967666095512
        ],
        [
          -111.918490211535,
          40.7967630399511
        ],
        [
          -111.918493529013,
          40.7975589785068
        ],
        [
          -111.918196657371,
          40.7975596918742
        ],
        [
          -111.918196772355,
          40.797587138494
        ],
        [
          -111.917585057376,
          40.7975886046708
        ],
        [
          -111.917392112728,
          40.7975890671014
        ]
      ]
    ]
  }
}