{
  "type": "Feature",
  "properties": {
    "parcel_id": "08261260150000",
    "owner_name_raw": "SALT LAKE CITY - PROPERTY MANAGEMENT",
    "owner_class": "CITY",
    "epsg": "EPSG:4326"
  },
  "geometry": {
    "type": "Polygon",
    "coordinates": [
      [
        [
          -111.920050896898,
          40.7981313014297
        ],
        [
          -111.920050339045,
          40.7979841387062
        ],
        [
          -111.920239431717,
          40.7979840822629
        ],
        [
          -111.920411500416,
          40.7979840312598
        ],
        [
          -111.920412056474,
          40.7981305112239
        ],
        [
          -111.920050896898,
          40.7981313014297
        ]
      ]
    ]
  }
}