{
  "type": "Feature",
  "properties": {
    "parcel_id": "08262030340000",
    "owner_name_raw": "STATE ROAD COMMISSION OF UTAH - UDOT RIGHT OF WAY",
    "owner_class": "STATE",
    "epsg": "EPSG:4326"
  },
  "geometry": {
    "type": "Polygon",
    "coordinates": [
      [
        [
          -111.917670200597,
          40.7949809912114
        ],
        [
          -111.917671683716,
          40.7953377918809
        ],
        [
          -111.917581396741,
          40.7953380074625
        ],
        [
          -111.917491109767,
          40.7953382244041
        ],
        [
          -111.91740082459,
          40.7953384406658
        ],
        [
          -111.917399341471,
          40.7949816406798
        ],
        [
          -111.917489629344,
          40.7949814237369
        ],
        [
          -111.917579914521,
          40.7949812074742
        ],
        [
          -111.917670200597,
          40.7949809912114
        ]
      ]
    ]
  }
}