{
  "type": "Feature",
  "properties": {
    "parcel_id": "08262070030000",
    "owner_name_raw": "STATE ROAD COMMISSION OF UTAH - UDOT RIGHT OF WAY",
    "owner_class": "STATE",
    "epsg": "EPSG:4326"
  },
  "geometry": {
    "type": "Polygon",
    "coordinates": [
      [
        [
          -111.916949390617,
          40.7953395212938
        ],
        [
          -111.91694791199,
          40.7949827206336
        ],
        [
          -111.917038198964,
          40.7949825043708
        ],
        [
          -111.91712848504,
          40.7949822887881
        ],
        [
          -111.917129964565,
          40.7953390894506
        ],
        [
          -111.917039677591,
          40.7953393043521
        ],
        [
          -111.916949390617,
          40.7953395212938
        ]
      ]
    ]
  }
}