{
  "type": "Feature",
  "properties": {
    "parcel_id": "08261260050000",
    "owner_name_raw": "SALT LAKE CITY CORP. - PROPERTY MANAGEMENT",
    "owner_class": "CITY",
    "epsg": "EPSG:4326"
  },
  "geometry": {
    "type": "Polygon",
    "coordinates": [
      [
        [
          -111.922363899753,
          40.7985379202065
        ],
        [
          -111.922363376035,
          40.7984006896399
        ],
        [
          -111.922869002675,
          40.7983995743799
        ],
        [
          -111.922869529087,
          40.7985368049487
        ],
        [
          -111.922363899753,
          40.7985379202065
        ]
      ]
    ]
  }
}