{
  "type": "Feature",
  "properties": {
    "parcel_id": "08262030230000",
    "owner_name_raw": "STATE ROAD COMMISSION OF UTAH - UDOT RIGHT OF WAY",
    "owner_class": "STATE",
    "epsg": "EPSG:4326"
  },
  "geometry": {
    "type": "Polygon",
    "coordinates": [
      [
        [
          -111.917982882588,
          40.7963525625367
        ],
        [
          -111.917982311259,
          40.7962153322129
        ],
        [
          -111.918314715762,
          40.7962145338236
        ],
        [
          -111.918487922627,
          40.7962141176275
        ],
        [
          -111.918488493956,
          40.7963513486339
        ],
        [
          -111.918354965677,
          40.7963516703011
        ],
        [
          -111.917982882588,
          40.7963525625367
        ]
      ]
    ]
  }
}