{
  "type": "Feature",
  "properties": {
    "parcel_id": "08261260060000",
    "owner_name_raw": "SALT LAKE CITY CORP. - PROPERTY MANAGEMENT",
    "owner_class": "CITY",
    "epsg": "EPSG:4326"
  },
  "geometry": {
    "type": "Polygon",
    "coordinates": [
      [
        [
          -111.922941235308,
          40.7983994145713
        ],
        [
          -111.922940709794,
          40.7982621830383
        ],
        [
          -111.923446334636,
          40.7982610650558
        ],
        [
          -111.923446861947,
          40.798398295911
        ],
        [
          -111.922941235308,
          40.7983994145713
        ]
      ]
    ]
  }
}