{
  "type": "Feature",
  "properties": {
    "parcel_id": "08261260010000",
    "owner_name_raw": "SALT LAKE CITY CORP - PROPERTY MANAGEMENT",
    "owner_class": "CITY",
    "epsg": "EPSG:4326"
  },
  "geometry": {
    "type": "Polygon",
    "coordinates": [
      [
        [
          -111.924889922806,
          40.7979837544832
        ],
        [
          -111.925142736575,
          40.7979836939595
        ],
        [
          -111.925417219505,
          40.7979836266355
        ],
        [
          -111.925420831631,
          40.7979836245953
        ],
        [
          -111.92542277289,
          40.7985017137621
        ],
        [
          -111.924894471875,
          40.7985031227958
        ],
        [
          -111.924889922806,
          40.7979837544832
        ]
      ]
    ]
  }
}