{
  "type": "Feature",
  "properties": {
    "parcel_id": "08274050040000",
    "owner_name_raw": "SALT LAKE CITY CORPORATION - ATTN: SUSAN A CALLAWAY",
    "owner_class": "CITY",
    "epsg": "EPSG:4326"
  },
  "geometry": {
    "type": "Polygon",
    "coordinates": [
      [
        [
          -111.935561492462,
          40.7900198144669
        ],
        [
          -111.935522263932,
          40.7898859845948
        ],
        [
          -111.935520883221,
          40.789881872566
        ],
        [
          -111.935520424182,
          40.7898806741877
        ],
        [
          -111.935520416097,
          40.7898793016977
        ],
        [
          -111.935519495324,
          40.7898765607983
        ],
        [
          -111.935519487239,
          40.7898751883082
        ],
        [
          -111.935519026403,
          40.7898738178584
        ],
        [
          -111.935519018318,
          40.7898724453683
        ],
        [
          -111.935518558381,
          40.7898710755986
        ],
        [
          -111.9355185485,
          40.7898697024283
        ],
        [
          -111.935518087664,
          40.7898683326585
        ],
        [
          -111.935518070596,
          40.789865587678
        ],
        [
          -111.935517610658,
          40.7898642165479
        ],
        [
          -111.935517574726,
          40.7898587272664
        ],
        [
          -111.935517114788,
          40.7898573574964
        ],
        [
          -111.935517061788,
          40.7898491232331
        ],
        [
          -111.935517505556,
          40.7898477493822
        ],
        [
          -111.935517479504,
          40.78984363191
        ],
        [
          -111.935517921475,
          40.789842258059
        ],
        [
          -111.935517905306,
          40.7898396851487
        ],
        [
          -111.935518347277,
          40.7898383106175
        ],
        [
          -111.935518330209,
          40.7898355669959
        ],
        [
          -111.935519214151,
          40.7898328186134
        ],
        [
          -111.935519206066,
          40.7898314468025
        ],
        [
          -111.935519648936,
          40.7898300722711
        ],
        [
          -111.935519639953,
          40.78982869978
        ],
        [
          -111.935520524793,
          40.7898259527575
        ],
        [
          -111.935520516708,
          40.7898245795862
        ],
        [
          -111.935520960476,
          40.7898233771261
        ],
        [
          -111.935522730157,
          40.78981788104
        ],
        [
          -111.935523173925,
          40.78981667926
        ],
        [
          -111.935524501635,
          40.789812557025
        ],
        [
          -111.935524946301,
          40.7898113545647
        ],
        [
          -111.935526274909,
          40.7898074044009
        ],
        [
          -111.935527168733,
          40.7898060285088
        ],
        [
          -111.935527612501,
          40.7898048260483
        ],
        [
          -111.935528054472,
          40.7898034521965
        ],
        [
          -111.935528950092,
          40.7898022490559
        ],
        [
          -111.935529392962,
          40.7898008745239
        ],
        [
          -111.935529835831,
          40.7897996713833
        ],
        [
          -111.935530730553,
          40.7897982961712
        ],
        [
          -111.935531173423,
          40.7897970943907
        ],
        [
          -111.935532068145,
          40.7897957184984
        ],
        [
          -111.935532511014,
          40.7897945153577
        ],
        [
          -111.935533406634,
          40.7897933115368
        ],
        [
          -111.935534300458,
          40.7897919349642
        ],
        [
          -111.935534744226,
          40.7897907331837
        ],
        [
          -111.935535638948,
          40.7897895286827
        ],
        [
          -111.93553653367,
          40.7897881534702
        ],
        [
          -111.935536977438,
          40.7897869516896
        ],
        [
          -111.935546822973,
          40.7897737062569
        ],
        [
          -111.935547719492,
          40.7897726738272
        ],
        [
          -111.935549509834,
          40.7897702648244
        ],
        [
          -111.935550857307,
          40.7897692310344
        ],
        [
          -111.935552647649,
          40.7897668220315
        ],
        [
          -111.93555354327,
          40.7897657896017
        ],
        [
          -111.935554889844,
          40.78976458442
        ],
        [
          -111.935555786363,
          40.7897635519902
        ],
        [
          -111.935557133836,
          40.7897625175199
        ],
        [
          -111.935558028558,
          40.7897613130183
        ],
        [
          -111.935558925077,
          40.7897602805884
        ],
        [
          -111.93556027255,
          40.7897592467982
        ],
        [
          -111.935561167272,
          40.7897580429768
        ],
        [
          -111.935563863116,
          40.789755974036
        ],
        [
          -111.935564758736,
          40.7897549422861
        ],
        [
          -111.935566106209,
          40.7897539078157
        ],
        [
          -111.935567003626,
          40.7897528753857
        ],
        [
          -111.935571045146,
          40.7897497726545
        ],
        [
          -111.935571942563,
          40.7897489109358
        ],
        [
          -111.935574638408,
          40.7897468426749
        ],
        [
          -111.935575986779,
          40.7897459802761
        ],
        [
          -111.935578681725,
          40.7897439120151
        ],
        [
          -111.935579578243,
          40.7897430502964
        ],
        [
          -111.935580928411,
          40.7897421885776
        ],
        [
          -111.935582275884,
          40.789741154107
        ],
        [
          -111.935584972627,
          40.7897394286291
        ],
        [
          -111.9355863201,
          40.7897383941584
        ],
        [
          -111.935587668471,
          40.7897375310794
        ],
        [
          -111.935589468695,
          40.7897366673202
        ],
        [
          -111.935594863078,
          40.789733216364
        ],
        [
          -111.935596212347,
          40.7897325253566
        ],
        [
          -111.935598012571,
          40.7897316602371
        ],
        [
          -111.93560071111,
          40.7897299347588
        ],
        [
          -111.935602061278,
          40.7897292437514
        ],
        [
          -111.935606559143,
          40.7897269979772
        ],
        [
          -111.935611058804,
          40.7897247508426
        ],
        [
          -111.935612860825,
          40.7897240577948
        ],
        [
          -111.935614210094,
          40.7897233667872
        ],
        [
          -111.935616012115,
          40.7897226737394
        ],
        [
          -111.935617361384,
          40.7897219827319
        ],
        [
          -111.935619162506,
          40.7897212896839
        ],
        [
          -111.935620512674,
          40.7897205986764
        ],
        [
          -111.935623214807,
          40.7897195594446
        ],
        [
          -111.936378670113,
          40.7894085019412
        ],
        [
          -111.936450727575,
          40.7893750804073
        ],
        [
          -111.936518058102,
          40.7893363837727
        ],
        [
          -111.936579996941,
          40.789292793581
        ],
        [
          -111.93663593144,
          40.7892447437459
        ],
        [
          -111.936685309137,
          40.7891927069485
        ],
        [
          -111.936727638651,
          40.7891371987193
        ],
        [
          -111.936762505861,
          40.789078767916
        ],
        [
          -111.937108280888,
          40.7901331329742
        ],
        [
          -111.937108281787,
          40.7901333036847
        ],
        [
          -111.936042089342,
          40.7901374286203
        ],
        [
          -111.936041323079,
          40.7900180386671
        ],
        [
          -111.935561492462,
          40.7900198144669
        ]
      ]
    ]
  }
}