{
  "type": "Feature",
  "properties": {
    "parcel_id": "08273270210000",
    "owner_name_raw": "BOARD OF EDUCATION OF SALT LAK - ATTN: ADMINISTRATION",
    "owner_class": "SCHOOL_DISTRICT",
    "epsg": "EPSG:4326"
  },
  "geometry": {
    "type": "Polygon",
    "coordinates": [
      [
        [
          -111.941471845584,
          40.7901972915061
        ],
        [
          -111.941470677774,
          40.7900177666181
        ],
        [
          -111.941469393183,
          40.7898199084912
        ],
        [
          -111.941794395568,
          40.7898186897081
        ],
        [
          -111.941790078265,
          40.7891544958214
        ],
        [
          -111.942408046417,
          40.7891521758934
        ],
        [
          -111.942414827799,
          40.7901937514781
        ],
        [
          -111.941471845584,
          40.7901972915061
        ]
      ]
    ]
  }
}