{
  "type": "Feature",
  "properties": {
    "parcel_id": "08274540110000",
    "owner_name_raw": "SALT LAKE CITY CORP - PROPERTY MANAGEMENT",
    "owner_class": "CITY",
    "epsg": "EPSG:4326"
  },
  "geometry": {
    "type": "Polygon",
    "coordinates": [
      [
        [
          -111.936165776577,
          40.7869777277235
        ],
        [
          -111.935814924271,
          40.7868875943847
        ],
        [
          -111.935560830403,
          40.7868228347986
        ],
        [
          -111.935143519835,
          40.7867161346847
        ],
        [
          -111.935127255837,
          40.7867137935867
        ],
        [
          -111.934711601761,
          40.7866540873973
        ],
        [
          -111.934704848227,
          40.7866106205939
        ],
        [
          -111.93468908998,
          40.7865685235998
        ],
        [
          -111.93466472767,
          40.7865288649463
        ],
        [
          -111.934632381133,
          40.7864926546732
        ],
        [
          -111.934592873227,
          40.786460811681
        ],
        [
          -111.934547209166,
          40.786434148766
        ],
        [
          -111.934496547777,
          40.7864133413329
        ],
        [
          -111.93444217994,
          40.7863989185512
        ],
        [
          -111.934385486364,
          40.7863912483916
        ],
        [
          -111.934327909744,
          40.786390526062
        ],
        [
          -111.934124349704,
          40.7863906022399
        ],
        [
          -111.933938065165,
          40.7861100310373
        ],
        [
          -111.933896619593,
          40.7860476077336
        ],
        [
          -111.933876579077,
          40.7860174234466
        ],
        [
          -111.933681499133,
          40.7857387809794
        ],
        [
          -111.933065372528,
          40.785407139221
        ],
        [
          -111.932766394337,
          40.7852342969911
        ],
        [
          -111.932731529822,
          40.7852344214625
        ],
        [
          -111.93272135191,
          40.7852344588719
        ],
        [
          -111.932660430862,
          40.7852346772069
        ],
        [
          -111.932660322166,
          40.7850574195235
        ],
        [
          -111.932761960252,
          40.7850570556309
        ],
        [
          -111.933194729929,
          40.7845779357552
        ],
        [
          -111.933194267296,
          40.7841662382599
        ],
        [
          -111.931657852615,
          40.7841717395751
        ],
        [
          -111.931618134503,
          40.784171881053
        ],
        [
          -111.931175804955,
          40.7841734611166
        ],
        [
          -111.931174914725,
          40.7833604824821
        ],
        [
          -111.93117505037,
          40.7833604818019
        ],
        [
          -111.931680601551,
          40.7833586860985
        ],
        [
          -111.931680765943,
          40.7833586854183
        ],
        [
          -111.93230301277,
          40.7833564720778
        ],
        [
          -111.93230317806,
          40.7833564707174
        ],
        [
          -111.932891572775,
          40.7833543743696
        ],
        [
          -111.932891738065,
          40.7833543736894
        ],
        [
          -111.932891524266,
          40.7833224230826
        ],
        [
          -111.932889053899,
          40.7829549828576
        ],
        [
          -111.932887782783,
          40.7827656544409
        ],
        [
          -111.932955319922,
          40.7827654136513
        ],
        [
          -111.93315698811,
          40.7827646946833
        ],
        [
          -111.93315990494,
          40.782765509559
        ],
        [
          -111.93318314795,
          40.7827721142692
        ],
        [
          -111.933206345145,
          40.7827788142063
        ],
        [
          -111.933229492934,
          40.78278560869
        ],
        [
          -111.933252592213,
          40.7827924990808
        ],
        [
          -111.933275642983,
          40.7827994833379
        ],
        [
          -111.933298641651,
          40.782806563502
        ],
        [
          -111.933321590911,
          40.7828137375324
        ],
        [
          -111.933344488968,
          40.7828210061093
        ],
        [
          -111.933367335821,
          40.7828283685524
        ],
        [
          -111.933390128774,
          40.7828358255421
        ],
        [
          -111.933412866931,
          40.7828433743573
        ],
        [
          -111.933435552985,
          40.7828510183991
        ],
        [
          -111.933458183344,
          40.7828587556268
        ],
        [
          -111.933480758905,
          40.7828665853602
        ],
        [
          -111.933503277873,
          40.7828745075994
        ],
        [
          -111.933525741145,
          40.7828825230244
        ],
        [
          -111.933548146026,
          40.7828906302748
        ],
        [
          -111.933570492517,
          40.7828988286703
        ],
        [
          -111.933592781516,
          40.7829071202517
        ],
        [
          -111.933615011226,
          40.7829155029782
        ],
        [
          -111.933637178952,
          40.7829239775299
        ],
        [
          -111.933659288288,
          40.7829325425465
        ],
        [
          -111.93368133564,
          40.7829411987082
        ],
        [
          -111.93370332011,
          40.7829499453346
        ],
        [
          -111.933725243495,
          40.7829587817455
        ],
        [
          -111.9337471022,
          40.7829677086213
        ],
        [
          -111.933768897126,
          40.7829767246012
        ],
        [
          -111.933790628271,
          40.7829858310458
        ],
        [
          -111.933812294737,
          40.7829950259145
        ],
        [
          -111.933833894728,
          40.7830043112478
        ],
        [
          -111.933855426447,
          40.7830136836446
        ],
        [
          -111.933876894386,
          40.7830231458256
        ],
        [
          -111.933898293154,
          40.7830326950703
        ],
        [
          -111.933919622752,
          40.7830423334188
        ],
        [
          -111.933940885875,
          40.7830520581507
        ],
        [
          -111.933962077133,
          40.7830618706261
        ],
        [
          -111.933983200118,
          40.7830717701648
        ],
        [
          -111.93400425034,
          40.7830817567668
        ],
        [
          -111.934025229595,
          40.7830918297519
        ],
        [
          -111.934046137884,
          40.7831019884398
        ],
        [
          -111.93406697251,
          40.7831122335107
        ],
        [
          -111.934087734373,
          40.7831225636042
        ],
        [
          -111.934108422574,
          40.7831329787202
        ],
        [
          -111.934129036215,
          40.7831434795388
        ],
        [
          -111.934149574397,
          40.7831540646998
        ],
        [
          -111.934170037121,
          40.7831647342028
        ],
        [
          -111.934190423488,
          40.7831754873679
        ],
        [
          -111.9342107326,
          40.7831863248751
        ],
        [
          -111.934230965355,
          40.7831972460442
        ],
        [
          -111.934251119058,
          40.7832082488345
        ],
        [
          -111.934271195507,
          40.7832193346065
        ],
        [
          -111.934291191107,
          40.7832305040402
        ],
        [
          -111.934311107655,
          40.7832417544149
        ],
        [
          -111.934330944253,
          40.7832530877711
        ],
        [
          -111.934350698206,
          40.7832645027484
        ],
        [
          -111.934370373107,
          40.783275997306
        ],
        [
          -111.934389964465,
          40.7832875728045
        ],
        [
          -111.93440947228,
          40.7832992292437
        ],
        [
          -111.934428899246,
          40.7833109659435
        ],
        [
          -111.934448240873,
          40.7833227822235
        ],
        [
          -111.934467497159,
          40.7833346767234
        ],
        [
          -111.934486670801,
          40.7833466521638
        ],
        [
          -111.934505756407,
          40.7833587058241
        ],
        [
          -111.934524757572,
          40.7833708370238
        ],
        [
          -111.9345436716,
          40.7833830471234
        ],
        [
          -111.93456249939,
          40.7833953340823
        ],
        [
          -111.934581237349,
          40.7834076985806
        ],
        [
          -111.934610133457,
          40.7834270323036
        ],
        [
          -111.934938868342,
          40.7836177831486
        ],
        [
          -111.935262244776,
          40.7838137559144
        ],
        [
          -111.935580118131,
          40.7840148621307
        ],
        [
          -111.935892349167,
          40.7842210153677
        ],
        [
          -111.935946765514,
          40.784252605046
        ],
        [
          -111.935966691045,
          40.7842638477656
        ],
        [
          -111.935986723476,
          40.7842749802939
        ],
        [
          -111.936006860112,
          40.7842860019507
        ],
        [
          -111.93602710185,
          40.7842969127363
        ],
        [
          -111.936047445996,
          40.7843077112902
        ],
        [
          -111.936067894347,
          40.7843183989729
        ],
        [
          -111.936088441512,
          40.7843289730636
        ],
        [
          -111.936109091086,
          40.7843394335625
        ],
        [
          -111.936129837677,
          40.7843497818299
        ],
        [
          -111.93615068488,
          40.7843600137849
        ],
        [
          -111.936171626406,
          40.7843701314681
        ],
        [
          -111.93619266495,
          40.7843801348794
        ],
        [
          -111.936206596023,
          40.7843866516858
        ],
        [
          -111.936364622258,
          40.7870094548418
        ],
        [
          -111.936221067883,
          40.7869973052624
        ],
        [
          -111.93622103195,
          40.7869918157439
        ],
        [
          -111.936165776577,
          40.7869777277235
        ]
      ]
    ]
  }
}