{
  "type": "Feature",
  "properties": {
    "parcel_id": "08274020030000",
    "owner_name_raw": "SALT LAKE CITY - PROPERTY MANAGEMENT",
    "owner_class": "CITY",
    "epsg": "EPSG:4326"
  },
  "geometry": {
    "type": "Polygon",
    "coordinates": [
      [
        [
          -111.934727116565,
          40.7905797548887
        ],
        [
          -111.934727142616,
          40.7905468188678
        ],
        [
          -111.934727196515,
          40.790478203182
        ],
        [
          -111.934727249515,
          40.7904095881054
        ],
        [
          -111.934727303414,
          40.7903409715976
        ],
        [
          -111.934727358211,
          40.790272355019
        ],
        [
          -111.934727411212,
          40.7902037397296
        ],
        [
          -111.934727466009,
          40.7901351236893
        ],
        [
          -111.93472751901,
          40.790066507578
        ],
        [
          -111.934958633075,
          40.7900656764689
        ],
        [
          -111.934989148845,
          40.7900655669693
        ],
        [
          -111.93501624383,
          40.7901340837838
        ],
        [
          -111.935043339714,
          40.7902026032481
        ],
        [
          -111.935070436496,
          40.7902711219616
        ],
        [
          -111.93509753238,
          40.7903396392441
        ],
        [
          -111.935124629163,
          40.7904081578162
        ],
        [
          -111.935151562451,
          40.7904762668866
        ],
        [
          -111.935174173047,
          40.7905452110711
        ],
        [
          -111.935184960017,
          40.7905781076459
        ],
        [
          -111.934727116565,
          40.7905797548887
        ]
      ]
    ]
  }
}