{
  "type": "Feature",
  "properties": {
    "parcel_id": "08284000050000",
    "owner_name_raw": "UNITED STATES OF AMERICA - BUREAU OF RECLAMATION",
    "owner_class": "UNCLASSIFIED",
    "epsg": "EPSG:4326"
  },
  "geometry": {
    "type": "Polygon",
    "coordinates": [
      [
        [
          -111.950475166502,
          40.7871716582817
        ],
        [
          -111.950472013415,
          40.7849238204322
        ],
        [
          -111.95047193616,
          40.7848688935854
        ],
        [
          -111.95119411697,
          40.7848691894616
        ],
        [
          -111.951197024816,
          40.7869276541149
        ],
        [
          -111.953363631026,
          40.7869285158702
        ],
        [
          -111.953363988555,
          40.787175531065
        ],
        [
          -111.950475166502,
          40.7871716582817
        ]
      ]
    ]
  }
}