{
  "type": "Feature",
  "properties": {
    "parcel_id": "08292510020000",
    "owner_name_raw": "SALT LAKE CITY - PROPERTY MANAGEMENT",
    "owner_class": "CITY",
    "epsg": "EPSG:4326"
  },
  "geometry": {
    "type": "Polygon",
    "coordinates": [
      [
        [
          -111.972671885894,
          40.7948713112063
        ],
        [
          -111.972612548576,
          40.7948713071258
        ],
        [
          -111.972614578769,
          40.7912076377226
        ],
        [
          -111.975005579645,
          40.7912083089914
        ],
        [
          -111.975006170736,
          40.7948714540215
        ],
        [
          -111.972671885894,
          40.7948713112063
        ]
      ]
    ]
  }
}