{
  "type": "Feature",
  "properties": {
    "parcel_id": "08294000090000",
    "owner_name_raw": "SALT LAKE CITY CORP. - PROPERTY MANAGEMENT",
    "owner_class": "CITY",
    "epsg": "EPSG:4326"
  },
  "geometry": {
    "type": "Polygon",
    "coordinates": [
      [
        [
          -111.971419077432,
          40.7912072840652
        ],
        [
          -111.971422368859,
          40.7875982384942
        ],
        [
          -111.97261657752,
          40.787598856068
        ],
        [
          -111.972614578769,
          40.7912076377226
        ],
        [
          -111.971419077432,
          40.7912072840652
        ]
      ]
    ]
  }
}