{
  "type": "Feature",
  "properties": {
    "parcel_id": "08293510010000",
    "owner_name_raw": "SALT LAKE CITY CORP - PROPERTY MANAGEMENT",
    "owner_class": "CITY",
    "epsg": "EPSG:4326"
  },
  "geometry": {
    "type": "Polygon",
    "coordinates": [
      [
        [
          -111.982170210872,
          40.7875872119458
        ],
        [
          -111.982161666097,
          40.7838868772322
        ],
        [
          -111.983354544353,
          40.7838876472019
        ],
        [
          -111.984547424405,
          40.7838884062886
        ],
        [
          -111.986933181815,
          40.7838898863718
        ],
        [
          -111.986937289811,
          40.7849877357337
        ],
        [
          -111.986946881123,
          40.7875504166427
        ],
        [
          -111.986947023057,
          40.7875881797956
        ],
        [
          -111.982170210872,
          40.7875872119458
        ]
      ]
    ]
  }
}