{
  "type": "Feature",
  "properties": {
    "parcel_id": "08313530090000",
    "owner_name_raw": "SALT LAKE CITY CORPORATION",
    "owner_class": "CITY",
    "epsg": "EPSG:4326"
  },
  "geometry": {
    "type": "Polygon",
    "coordinates": [
      [
        [
          -112.003545623956,
          40.7710401619769
        ],
        [
          -112.003538417671,
          40.7709867475602
        ],
        [
          -112.003523751776,
          40.7709342249972
        ],
        [
          -112.003501795154,
          40.7708831916098
        ],
        [
          -112.003472798435,
          40.7708342317954
        ],
        [
          -112.003437093995,
          40.7707879047811
        ],
        [
          -112.003436664601,
          40.7705129293118
        ],
        [
          -112.004086692727,
          40.7699903615515
        ],
        [
          -112.004208129682,
          40.7700590215355
        ],
        [
          -112.004564265878,
          40.7702988764642
        ],
        [
          -112.005071231007,
          40.7709296947601
        ],
        [
          -112.005122032533,
          40.771037725082
        ],
        [
          -112.003545623956,
          40.7710401619769
        ]
      ]
    ]
  }
}