{
  "type": "Feature",
  "properties": {
    "parcel_id": "08311540040000",
    "owner_name_raw": "SALT LAKE CITY CORP",
    "owner_class": "CITY",
    "epsg": "EPSG:4326"
  },
  "geometry": {
    "type": "Polygon",
    "coordinates": [
      [
        [
          -112.001825761616,
          40.779302598123
        ],
        [
          -112.003600212779,
          40.7792942312661
        ],
        [
          -112.005617713923,
          40.7792846862457
        ],
        [
          -112.00561785945,
          40.7793021961057
        ],
        [
          -112.005625093583,
          40.7801712850434
        ],
        [
          -112.001929106501,
          40.7801887450135
        ],
        [
          -112.001825761616,
          40.779302598123
        ]
      ]
    ]
  }
}