{
  "type": "Feature",
  "properties": {
    "parcel_id": "08323000246001",
    "owner_name_raw": "SALT LAKE CITY CORP - FEDERAL EXPRESS TAX DEPT",
    "owner_class": "CITY",
    "epsg": "EPSG:4326"
  },
  "geometry": {
    "type": "Polygon",
    "coordinates": [
      [
        [
          -111.979537434726,
          40.7740408560846
        ],
        [
          -111.979534299606,
          40.7740406601622
        ],
        [
          -111.979531255215,
          40.7740400547075
        ],
        [
          -111.979528395877,
          40.7740390546869
        ],
        [
          -111.979525808729,
          40.7740376927541
        ],
        [
          -111.979523571924,
          40.7740360110868
        ],
        [
          -111.979521753734,
          40.7740340586655
        ],
        [
          -111.979520408956,
          40.7740318960357
        ],
        [
          -111.979519578015,
          40.7740295891851
        ],
        [
          -111.979519287859,
          40.7740272075031
        ],
        [
          -111.979519544777,
          40.7740248230998
        ],
        [
          -111.979520342481,
          40.7740225094461
        ],
        [
          -111.979521657615,
          40.7740203366117
        ],
        [
          -111.979523447957,
          40.7740183699039
        ],
        [
          -111.979525661406,
          40.7740166691881
        ],
        [
          -111.979528228791,
          40.7740152875265
        ],
        [
          -111.979531073755,
          40.7740142643758
        ],
        [
          -111.979534108264,
          40.77401363307
        ],
        [
          -111.979537241588,
          40.7740134119769
        ],
        [
          -111.979540377607,
          40.7740136078994
        ],
        [
          -111.979543421099,
          40.7740142140346
        ],
        [
          -111.979546279538,
          40.7740152133753
        ],
        [
          -111.979548866686,
          40.7740165753086
        ],
        [
          -111.979551105288,
          40.7740182569764
        ],
        [
          -111.979552921681,
          40.7740202087178
        ],
        [
          -111.979554267358,
          40.7740223720283
        ],
        [
          -111.979555097401,
          40.7740246795594
        ],
        [
          -111.979555388455,
          40.7740270605613
        ],
        [
          -111.979555130639,
          40.7740294442842
        ],
        [
          -111.979554332935,
          40.7740317579376
        ],
        [
          -111.979553018699,
          40.7740339321322
        ],
        [
          -111.979551227459,
          40.7740358988395
        ],
        [
          -111.979549015807,
          40.7740375995549
        ],
        [
          -111.979546447523,
          40.7740389805358
        ],
        [
          -111.979543602559,
          40.774040003686
        ],
        [
          -111.979540567151,
          40.7740406356719
        ],
        [
          -111.979537434726,
          40.7740408560846
        ]
      ]
    ]
  }
}