{
  "type": "Feature",
  "properties": {
    "parcel_id": "08323000100000",
    "owner_name_raw": "UTAH STATE ROAD COMMISSION - UDOT RIGHT OF WAY",
    "owner_class": "STATE",
    "epsg": "EPSG:4326"
  },
  "geometry": {
    "type": "Polygon",
    "coordinates": [
      [
        [
          -111.985270691278,
          40.769455094668
        ],
        [
          -111.985297939876,
          40.769455041602
        ],
        [
          -111.98685323445,
          40.7694518950616
        ],
        [
          -111.987466304088,
          40.7694506493717
        ],
        [
          -111.987463666635,
          40.769471881884
        ],
        [
          -111.987400923804,
          40.7699771489084
        ],
        [
          -111.987412204847,
          40.7709619493069
        ],
        [
          -111.986861608545,
          40.770964470564
        ],
        [
          -111.98634491017,
          40.7709668360283
        ],
        [
          -111.985832535386,
          40.7709732568653
        ],
        [
          -111.985801920801,
          40.7709734922551
        ],
        [
          -111.985777474947,
          40.7707990388876
        ],
        [
          -111.985744223807,
          40.7706254293406
        ],
        [
          -111.985702216788,
          40.7704529207826
        ],
        [
          -111.98565151767,
          40.770281766303
        ],
        [
          -111.985592199217,
          40.7701122203543
        ],
        [
          -111.98552435126,
          40.7699445346703
        ],
        [
          -111.985448072614,
          40.7697789555443
        ],
        [
          -111.985363478264,
          40.7696157285918
        ],
        [
          -111.985270691278,
          40.769455094668
        ]
      ]
    ]
  }
}