{
  "type": "Feature",
  "properties": {
    "parcel_id": "08323000180000",
    "owner_name_raw": "SALT LAKE CITY CORP - PROPERTY MANAGEMENT",
    "owner_class": "CITY",
    "epsg": "EPSG:4326"
  },
  "geometry": {
    "type": "Polygon",
    "coordinates": [
      [
        [
          -111.982116982997,
          40.7766729308766
        ],
        [
          -111.982090945328,
          40.7724687031047
        ],
        [
          -111.983535783953,
          40.7724627776722
        ],
        [
          -111.983533851677,
          40.772191060312
        ],
        [
          -111.983529947599,
          40.7716421375938
        ],
        [
          -111.985614719083,
          40.7716179579878
        ],
        [
          -111.985398673358,
          40.7725417375875
        ],
        [
          -111.98564810497,
          40.7725418015358
        ],
        [
          -111.985697744076,
          40.7723584926963
        ],
        [
          -111.985739185157,
          40.7721740111852
        ],
        [
          -111.985772378805,
          40.7719885672076
        ],
        [
          -111.985797290884,
          40.7718023736922
        ],
        [
          -111.985813887259,
          40.7716156462913
        ],
        [
          -111.986865147009,
          40.7716034374302
        ],
        [
          -111.986865224264,
          40.7716176362007
        ],
        [
          -111.98689320409,
          40.77667083976
        ],
        [
          -111.982116982997,
          40.7766729308766
        ]
      ]
    ]
  }
}