{
  "type": "Feature",
  "properties": {
    "parcel_id": "08322000010000",
    "owner_name_raw": "SALT LAKE CITY CORP - PROPERTY MANAGEMENT",
    "owner_class": "CITY",
    "epsg": "EPSG:4326"
  },
  "geometry": {
    "type": "Polygon",
    "coordinates": [
      [
        [
          -111.967847122538,
          40.7838766948578
        ],
        [
          -111.967788353854,
          40.77668233886
        ],
        [
          -111.967747512847,
          40.7716818146604
        ],
        [
          -111.967744243878,
          40.7712814182131
        ],
        [
          -111.967731506666,
          40.7697217948954
        ],
        [
          -111.967729526779,
          40.7694793675863
        ],
        [
          -111.972511011999,
          40.7694730350483
        ],
        [
          -111.977291386004,
          40.7694665106557
        ],
        [
          -111.977303232986,
          40.7711961652452
        ],
        [
          -111.977306284563,
          40.7716417545789
        ],
        [
          -111.977340761005,
          40.7766748294799
        ],
        [
          -111.977360920997,
          40.7796173612336
        ],
        [
          -111.977362058264,
          40.7797832430307
        ],
        [
          -111.977365455693,
          40.7802792554439
        ],
        [
          -111.977390152176,
          40.7838836776406
        ],
        [
          -111.967847122538,
          40.7838766948578
        ]
      ]
    ]
  }
}