{
  "type": "Feature",
  "properties": {
    "parcel_id": "08323000242000",
    "owner_name_raw": "SALT LAKE CITY CORP - PROPERTY MANAGEMENT",
    "owner_class": "CITY",
    "epsg": "EPSG:4326"
  },
  "geometry": {
    "type": "Polygon",
    "coordinates": [
      [
        [
          -111.981779985408,
          40.7766730710101
        ],
        [
          -111.981756230359,
          40.776468629012
        ],
        [
          -111.981747904772,
          40.7763969811382
        ],
        [
          -111.981746101854,
          40.7763496246838
        ],
        [
          -111.981751661527,
          40.7763024382615
        ],
        [
          -111.981764509232,
          40.7762560817269
        ],
        [
          -111.981784465306,
          40.7762111999722
        ],
        [
          -111.981811248576,
          40.7761684222446
        ],
        [
          -111.981844486242,
          40.7761283478616
        ],
        [
          -111.981883712975,
          40.7760915346454
        ],
        [
          -111.981829785312,
          40.7760413868436
        ],
        [
          -111.981528362805,
          40.7762711985389
        ],
        [
          -111.981445489627,
          40.7763344561897
        ],
        [
          -111.981366390271,
          40.7764004463926
        ],
        [
          -111.981291221045,
          40.7764690398898
        ],
        [
          -111.98122487058,
          40.7765351537664
        ],
        [
          -111.981162171766,
          40.7766032954319
        ],
        [
          -111.981103231504,
          40.7766733499163
        ],
        [
          -111.978803166186,
          40.7766742682661
        ],
        [
          -111.978718540394,
          40.7760198013317
        ],
        [
          -111.978140565239,
          40.7760578894051
        ],
        [
          -111.9782160893,
          40.7766744954727
        ],
        [
          -111.977340761005,
          40.7766748294799
        ],
        [
          -111.977306284563,
          40.7716417545789
        ],
        [
          -111.982085863559,
          40.7716480590175
        ],
        [
          -111.982090945328,
          40.7724687031047
        ],
        [
          -111.982116982997,
          40.7766729308766
        ],
        [
          -111.981779985408,
          40.7766730710101
        ]
      ]
    ]
  }
}