{
  "type": "Feature",
  "properties": {
    "parcel_id": "08333000120000",
    "owner_name_raw": "SALT LAKE CITY CORP - PROPERTY MANAGEMENT",
    "owner_class": "CITY",
    "epsg": "EPSG:4326"
  },
  "geometry": {
    "type": "Polygon",
    "coordinates": [
      [
        [
          -111.959396019381,
          40.7694872199871
        ],
        [
          -111.962244116312,
          40.7694863927025
        ],
        [
          -111.96293126013,
          40.7694855259586
        ],
        [
          -111.962931303249,
          40.7694911597938
        ],
        [
          -111.959396163112,
          40.7695061407179
        ],
        [
          -111.959396019381,
          40.7694872199871
        ]
      ]
    ]
  }
}