{
  "type": "Feature",
  "properties": {
    "parcel_id": "08342030070000",
    "owner_name_raw": "SALT LAKE CITY CORPORATION - PROPERTY MANAGEMENT",
    "owner_class": "CITY",
    "epsg": "EPSG:4326"
  },
  "geometry": {
    "type": "Polygon",
    "coordinates": [
      [
        [
          -111.937057199986,
          40.7808154438874
        ],
        [
          -111.937057173935,
          40.7807248709274
        ],
        [
          -111.937100720667,
          40.7807218711674
        ],
        [
          -111.937271810203,
          40.7807402445249
        ],
        [
          -111.937271972798,
          40.78082807279
        ],
        [
          -111.937057199986,
          40.7808154438874
        ]
      ]
    ]
  }
}