{
  "type": "Feature",
  "properties": {
    "parcel_id": "08342520430000",
    "owner_name_raw": "SALT LAKE CITY CORPORATION - PROPERTY MANAGEMENT",
    "owner_class": "CITY",
    "epsg": "EPSG:4326"
  },
  "geometry": {
    "type": "Polygon",
    "coordinates": [
      [
        [
          -111.936219666511,
          40.7786024361679
        ],
        [
          -111.935990405671,
          40.778535180865
        ],
        [
          -111.935913489221,
          40.7785038646451
        ],
        [
          -111.935911500351,
          40.7781937232751
        ],
        [
          -111.935958332222,
          40.7782316985422
        ],
        [
          -111.936011092973,
          40.7782648780757
        ],
        [
          -111.936068939986,
          40.7782927312936
        ],
        [
          -111.936130947995,
          40.7783148126438
        ],
        [
          -111.936196126159,
          40.7783307711271
        ],
        [
          -111.936263431533,
          40.7783403496165
        ],
        [
          -111.936331788835,
          40.7783433943799
        ],
        [
          -111.93640010661,
          40.7783398591619
        ],
        [
          -111.936467290712,
          40.778329799061
        ],
        [
          -111.936532267653,
          40.7783133759719
        ],
        [
          -111.936534419118,
          40.7786482196644
        ],
        [
          -111.936392304742,
          40.7786530806516
        ],
        [
          -111.936219666511,
          40.7786024361679
        ]
      ]
    ]
  }
}