{
  "type": "Feature",
  "properties": {
    "parcel_id": "08344040030000",
    "owner_name_raw": "STATE OF UTAH DEPT OF ADM SERV",
    "owner_class": "STATE",
    "epsg": "EPSG:4326"
  },
  "geometry": {
    "type": "Polygon",
    "coordinates": [
      [
        [
          -111.934084730407,
          40.7767313936828
        ],
        [
          -111.93408431808,
          40.7766733737254
        ],
        [
          -111.934083818617,
          40.7766032886293
        ],
        [
          -111.934083273339,
          40.7762355051158
        ],
        [
          -111.934119377529,
          40.7762354792658
        ],
        [
          -111.934119363156,
          40.7762255426542
        ],
        [
          -111.934130048616,
          40.7762270746081
        ],
        [
          -111.934140722398,
          40.7762284752711
        ],
        [
          -111.934151422232,
          40.7762297528063
        ],
        [
          -111.934162147218,
          40.776230905173
        ],
        [
          -111.934172894662,
          40.7762319337317
        ],
        [
          -111.934183660072,
          40.7762328364415
        ],
        [
          -111.934194441652,
          40.7762336153434
        ],
        [
          -111.9342052403,
          40.776234267036
        ],
        [
          -111.93421604883,
          40.7762347949206
        ],
        [
          -111.934226866342,
          40.7762351955959
        ],
        [
          -111.93423769194,
          40.7762354711026
        ],
        [
          -111.934248522029,
          40.7762356214409
        ],
        [
          -111.934258085493,
          40.7762356493317
        ],
        [
          -111.934258055849,
          40.7762273834478
        ],
        [
          -111.935084021719,
          40.776225671224
        ],
        [
          -111.935084594844,
          40.776602560071
        ],
        [
          -111.935084795168,
          40.7767329249448
        ],
        [
          -111.935085345835,
          40.777095628963
        ],
        [
          -111.93421913095,
          40.7767869578584
        ],
        [
          -111.934084730407,
          40.7767313936828
        ]
      ]
    ]
  }
}