{
  "type": "Feature",
  "properties": {
    "parcel_id": "08343760130000",
    "owner_name_raw": "SALT LAKE CITY - CITY RECORDER'S OFFICE",
    "owner_class": "CITY",
    "epsg": "EPSG:4326"
  },
  "geometry": {
    "type": "Polygon",
    "coordinates": [
      [
        [
          -111.940897220246,
          40.7717362680316
        ],
        [
          -111.940896993871,
          40.7717072024737
        ],
        [
          -111.941384057723,
          40.7717068160576
        ],
        [
          -111.941384202352,
          40.7717359265162
        ],
        [
          -111.940897220246,
          40.7717362680316
        ]
      ]
    ]
  }
}