{
  "type": "Feature",
  "properties": {
    "parcel_id": "08342030100000",
    "owner_name_raw": "SALT LAKE CITY - PROPERTY MANAGEMENT",
    "owner_class": "CITY",
    "epsg": "EPSG:4326"
  },
  "geometry": {
    "type": "Polygon",
    "coordinates": [
      [
        [
          -111.936335981272,
          40.7808878331926
        ],
        [
          -111.936395231453,
          40.7808744968766
        ],
        [
          -111.936455911752,
          40.7808656220962
        ],
        [
          -111.936517441858,
          40.7808612945605
        ],
        [
          -111.936536368463,
          40.7808604857834
        ],
        [
          -111.936536385531,
          40.7809219385333
        ],
        [
          -111.936336027086,
          40.7810487789028
        ],
        [
          -111.936335981272,
          40.7808878331926
        ]
      ]
    ]
  }
}