{
  "type": "Feature",
  "properties": {
    "parcel_id": "08354570280000",
    "owner_name_raw": "SALT LAKE CITY - CITY RECORDER'S OFFICE",
    "owner_class": "CITY",
    "epsg": "EPSG:4326"
  },
  "geometry": {
    "type": "Polygon",
    "coordinates": [
      [
        [
          -111.914638187087,
          40.7713414293957
        ],
        [
          -111.914638155646,
          40.7713185660879
        ],
        [
          -111.914965660738,
          40.7713191423138
        ],
        [
          -111.914965815248,
          40.7713412361866
        ],
        [
          -111.914638187087,
          40.7713414293957
        ]
      ]
    ]
  }
}