{
  "type": "Feature",
  "properties": {
    "parcel_id": "08354280260000",
    "owner_name_raw": "BOARD OF EDUCATION S L CITY",
    "owner_class": "CITY",
    "epsg": "EPSG:4326"
  },
  "geometry": {
    "type": "Polygon",
    "coordinates": [
      [
        [
          -111.91132083271,
          40.7749111267895
        ],
        [
          -111.911320745574,
          40.7747751569271
        ],
        [
          -111.911358654479,
          40.7747751412806
        ],
        [
          -111.911954588754,
          40.774774900462
        ],
        [
          -111.91195467589,
          40.7749108444744
        ],
        [
          -111.911358741615,
          40.7749111104628
        ],
        [
          -111.91132083271,
          40.7749111267895
        ]
      ]
    ]
  }
}