{
  "type": "Feature",
  "properties": {
    "parcel_id": "08353020040000",
    "owner_name_raw": "SALT LAKE COUNTY - REAL ESTATE DEPT # S3200",
    "owner_class": "COUNTY",
    "epsg": "EPSG:4326"
  },
  "geometry": {
    "type": "Polygon",
    "coordinates": [
      [
        [
          -111.926563203906,
          40.7766329567961
        ],
        [
          -111.926486085336,
          40.7764957673485
        ],
        [
          -111.926447097554,
          40.7764277276119
        ],
        [
          -111.926405763373,
          40.7763671121887
        ],
        [
          -111.926359552238,
          40.7763085660698
        ],
        [
          -111.926262253913,
          40.7762077755237
        ],
        [
          -111.926203318142,
          40.7761467245304
        ],
        [
          -111.926203264243,
          40.7760995712969
        ],
        [
          -111.926206084953,
          40.7761014291007
        ],
        [
          -111.926214050315,
          40.7761070079537
        ],
        [
          -111.926221787504,
          40.7761127691173
        ],
        [
          -111.92622929203,
          40.7761187071492
        ],
        [
          -111.926236552214,
          40.7761248172876
        ],
        [
          -111.926243563565,
          40.7761310927297
        ],
        [
          -111.926250319795,
          40.7761375280335
        ],
        [
          -111.926255671059,
          40.7761429300147
        ],
        [
          -111.926262185641,
          40.77614968096
        ],
        [
          -111.926420126536,
          40.7763133245085
        ],
        [
          -111.926426402167,
          40.7763200366615
        ],
        [
          -111.926432558321,
          40.7763268107178
        ],
        [
          -111.926438595,
          40.7763336480377
        ],
        [
          -111.926444510406,
          40.7763405438596
        ],
        [
          -111.92645030454,
          40.7763475015847
        ],
        [
          -111.926455975604,
          40.7763545171313
        ],
        [
          -111.926461522701,
          40.7763615891389
        ],
        [
          -111.926466943135,
          40.7763687169274
        ],
        [
          -111.926472238704,
          40.7763759004965
        ],
        [
          -111.926477406712,
          40.776383136445
        ],
        [
          -111.926482448956,
          40.7763904234124
        ],
        [
          -111.926487359147,
          40.7763977627592
        ],
        [
          -111.926492141777,
          40.776405151084
        ],
        [
          -111.926496792356,
          40.7764125870264
        ],
        [
          -111.926501312678,
          40.7764200692257
        ],
        [
          -111.926506293836,
          40.7764264970186
        ],
        [
          -111.926513440833,
          40.7764326839982
        ],
        [
          -111.92652048093,
          40.7764389424047
        ],
        [
          -111.926527409635,
          40.7764452708776
        ],
        [
          -111.926534225154,
          40.7764516694168
        ],
        [
          -111.926540927484,
          40.7764581380223
        ],
        [
          -111.926547515728,
          40.7764646726125
        ],
        [
          -111.92655398809,
          40.7764712752282
        ],
        [
          -111.92656034367,
          40.7764779431483
        ],
        [
          -111.926566581572,
          40.776484674332
        ],
        [
          -111.926572699997,
          40.776491468099
        ],
        [
          -111.926576417226,
          40.7764957163289
        ],
        [
          -111.926578698947,
          40.7764983244494
        ],
        [
          -111.926584575725,
          40.7765052413422
        ],
        [
          -111.926590329435,
          40.7765122167368
        ],
        [
          -111.926595960973,
          40.7765192513134
        ],
        [
          -111.926601466748,
          40.7765263409903
        ],
        [
          -111.926606849453,
          40.7765334864477
        ],
        [
          -111.9266121028,
          40.7765406870056
        ],
        [
          -111.926617230384,
          40.7765479399427
        ],
        [
          -111.926622229509,
          40.7765552445788
        ],
        [
          -111.926627099276,
          40.7765625981928
        ],
        [
          -111.926631840584,
          40.7765700021453
        ],
        [
          -111.926636450738,
          40.7765774530349
        ],
        [
          -111.926640927941,
          40.7765849508616
        ],
        [
          -111.926645272194,
          40.7765924935847
        ],
        [
          -111.926649485293,
          40.7766000791632
        ],
        [
          -111.926653561847,
          40.7766077062367
        ],
        [
          -111.926657505452,
          40.7766153761657
        ],
        [
          -111.92666131341,
          40.7766230848686
        ],
        [
          -111.926664984825,
          40.776630830985
        ],
        [
          -111.926665923564,
          40.7766328982938
        ],
        [
          -111.926563203906,
          40.7766329567961
        ]
      ]
    ]
  }
}