{
  "type": "Feature",
  "properties": {
    "parcel_id": "08354280280000",
    "owner_name_raw": "BOARD OF EDUCATION OF SALT LAK",
    "owner_class": "SCHOOL_DISTRICT",
    "epsg": "EPSG:4326"
  },
  "geometry": {
    "type": "Polygon",
    "coordinates": [
      [
        [
          -111.912550521232,
          40.7747746555617
        ],
        [
          -111.911954588754,
          40.774774900462
        ],
        [
          -111.911954193495,
          40.7741634387651
        ],
        [
          -111.911954003052,
          40.773869074778
        ],
        [
          -111.911953994069,
          40.7738567234704
        ],
        [
          -111.912549909479,
          40.7738564948937
        ],
        [
          -111.913145823092,
          40.773856264276
        ],
        [
          -111.913145832974,
          40.7738686149034
        ],
        [
          -111.913146456405,
          40.7747744086206
        ],
        [
          -111.912550521232,
          40.7747746555617
        ]
      ]
    ]
  }
}