{
  "type": "Feature",
  "properties": {
    "parcel_id": "08364030030000",
    "owner_name_raw": "SALT LAKE CITY BOARD OF ED",
    "owner_class": "CITY",
    "epsg": "EPSG:4326"
  },
  "geometry": {
    "type": "Polygon",
    "coordinates": [
      [
        [
          -111.898961617894,
          40.7753689864555
        ],
        [
          -111.89878290256,
          40.7753686565233
        ],
        [
          -111.898783225055,
          40.7752327991622
        ],
        [
          -111.898783262784,
          40.7752177032025
        ],
        [
          -111.899438553241,
          40.7752186902801
        ],
        [
          -111.899438517308,
          40.7752337855594
        ],
        [
          -111.899438192118,
          40.775369864007
        ],
        [
          -111.898961617894,
          40.7753689864555
        ]
      ]
    ]
  }
}