{
  "type": "Feature",
  "properties": {
    "parcel_id": "08363530220000",
    "owner_name_raw": "SALT LAKE CITY CORP - PROPERTY MANAGEMENT",
    "owner_class": "CITY",
    "epsg": "EPSG:4326"
  },
  "geometry": {
    "type": "Polygon",
    "coordinates": [
      [
        [
          -111.909067343243,
          40.7695242035441
        ],
        [
          -111.908991620655,
          40.7695456095177
        ],
        [
          -111.908918591215,
          40.7695718696523
        ],
        [
          -111.908848786728,
          40.7696027886871
        ],
        [
          -111.908782721927,
          40.7696381407457
        ],
        [
          -111.90873312594,
          40.7696636749307
        ],
        [
          -111.908679823504,
          40.7696844454304
        ],
        [
          -111.908623597951,
          40.7697001474613
        ],
        [
          -111.908565282916,
          40.7697105456325
        ],
        [
          -111.908505738087,
          40.769715488233
        ],
        [
          -111.90849729572,
          40.76971609985
        ],
        [
          -111.908495884467,
          40.7695237790168
        ],
        [
          -111.908793720899,
          40.7695239987641
        ],
        [
          -111.909067343243,
          40.7695242035441
        ]
      ]
    ]
  }
}