{
  "type": "Feature",
  "properties": {
    "parcel_id": "08364010020000",
    "owner_name_raw": "BOARD OF EDUCATION OF SALT LAK",
    "owner_class": "SCHOOL_DISTRICT",
    "epsg": "EPSG:4326"
  },
  "geometry": {
    "type": "Polygon",
    "coordinates": [
      [
        [
          -111.900335371034,
          40.776322013505
        ],
        [
          -111.900335269524,
          40.776047548009
        ],
        [
          -111.900876831469,
          40.7760472684199
        ],
        [
          -111.900877511494,
          40.7763217332368
        ],
        [
          -111.900335371034,
          40.776322013505
        ]
      ]
    ]
  }
}