{
  "type": "Feature",
  "properties": {
    "parcel_id": "08361510300000",
    "owner_name_raw": "SALT LAKE CITY CORP - PROPERTY MANAGEMENT",
    "owner_class": "CITY",
    "epsg": "EPSG:4326"
  },
  "geometry": {
    "type": "Polygon",
    "coordinates": [
      [
        [
          -111.908978576218,
          40.7800291542679
        ],
        [
          -111.908978353436,
          40.7796895124041
        ],
        [
          -111.909157077754,
          40.7796894566254
        ],
        [
          -111.909157307722,
          40.7800290991697
        ],
        [
          -111.908978576218,
          40.7800291542679
        ]
      ]
    ]
  }
}