{
  "type": "Feature",
  "properties": {
    "parcel_id": "08364010010000",
    "owner_name_raw": "SALT LAKE CITY SCHOOL DISTRICT - JANET M ROBERTS",
    "owner_class": "SCHOOL_DISTRICT",
    "epsg": "EPSG:4326"
  },
  "geometry": {
    "type": "Polygon",
    "coordinates": [
      [
        [
          -111.900516012356,
          40.7766361846277
        ],
        [
          -111.899920283795,
          40.7766364927852
        ],
        [
          -111.899920235286,
          40.7765006298537
        ],
        [
          -111.899920214625,
          40.7764457368567
        ],
        [
          -111.9001548959,
          40.7764456164504
        ],
        [
          -111.900154850086,
          40.7763221067011
        ],
        [
          -111.900335371034,
          40.776322013505
        ],
        [
          -111.900877511494,
          40.7763217332368
        ],
        [
          -111.90111219187,
          40.7763216114698
        ],
        [
          -111.901112284397,
          40.776500012857
        ],
        [
          -111.901112353567,
          40.7766358737491
        ],
        [
          -111.900516012356,
          40.7766361846277
        ]
      ]
    ]
  }
}