{
  "type": "Feature",
  "properties": {
    "parcel_id": "08361770250000",
    "owner_name_raw": "SALT LAKE CITY CORP - PROPERTY MANAGEMENT",
    "owner_class": "CITY",
    "epsg": "EPSG:4326"
  },
  "geometry": {
    "type": "Polygon",
    "coordinates": [
      [
        [
          -111.901103845623,
          40.7797600187062
        ],
        [
          -111.901293409013,
          40.77975997041
        ],
        [
          -111.901293592269,
          40.7800316874249
        ],
        [
          -111.901104027083,
          40.780031739122
        ],
        [
          -111.901103845623,
          40.7797600187062
        ]
      ]
    ]
  }
}