{
  "type": "Feature",
  "properties": {
    "parcel_id": "08364010030000",
    "owner_name_raw": "BOARD OF EDUCATION OF SALT LAK",
    "owner_class": "SCHOOL_DISTRICT",
    "epsg": "EPSG:4326"
  },
  "geometry": {
    "type": "Polygon",
    "coordinates": [
      [
        [
          -111.900154850086,
          40.7763221067011
        ],
        [
          -111.900154812356,
          40.7762205549603
        ],
        [
          -111.900154747678,
          40.7760476405251
        ],
        [
          -111.900335269524,
          40.776047548009
        ],
        [
          -111.900335371034,
          40.776322013505
        ],
        [
          -111.900154850086,
          40.7763221067011
        ]
      ]
    ]
  }
}