{
  "type": "Feature",
  "properties": {
    "parcel_id": "08365030510000",
    "owner_name_raw": "UTAH TRANSIT AUTHORITY - PROPERTY MANAGEMENT",
    "owner_class": "UTA",
    "epsg": "EPSG:4326"
  },
  "geometry": {
    "type": "Polygon",
    "coordinates": [
      [
        [
          -111.905059817725,
          40.7800305310428
        ],
        [
          -111.905060632497,
          40.7795711927149
        ],
        [
          -111.905061342166,
          40.7791175311657
        ],
        [
          -111.905056192125,
          40.7786638923674
        ],
        [
          -111.905051125627,
          40.7782177215839
        ],
        [
          -111.905161258182,
          40.7782180324551
        ],
        [
          -111.905188446593,
          40.7782181093226
        ],
        [
          -111.905190546854,
          40.7786709430418
        ],
        [
          -111.905193028899,
          40.7791238580229
        ],
        [
          -111.905195418417,
          40.7795766910095
        ],
        [
          -111.905198864355,
          40.7800304915898
        ],
        [
          -111.905149779509,
          40.7800305058745
        ],
        [
          -111.905059817725,
          40.7800305310428
        ]
      ]
    ]
  }
}