{
  "type": "Feature",
  "properties": {
    "parcel_id": "08363760290000",
    "owner_name_raw": "SALT LAKE CITY CORPORATION - PROPERTY MANAGEMENT",
    "owner_class": "CITY",
    "epsg": "EPSG:4326"
  },
  "geometry": {
    "type": "Polygon",
    "coordinates": [
      [
        [
          -111.904469212257,
          40.7717157199543
        ],
        [
          -111.904455569543,
          40.7717157682563
        ],
        [
          -111.904318255763,
          40.7717125952908
        ],
        [
          -111.903963240665,
          40.7717043914328
        ],
        [
          -111.903773186795,
          40.7716999979905
        ],
        [
          -111.903756695523,
          40.7716996176971
        ],
        [
          -111.903366759316,
          40.7717004320283
        ],
        [
          -111.903366762909,
          40.771698265921
        ],
        [
          -111.90377316793,
          40.7716968563185
        ],
        [
          -111.903963253241,
          40.7716961977783
        ],
        [
          -111.904559741776,
          40.7716941255537
        ],
        [
          -111.904889306705,
          40.7716929799114
        ],
        [
          -111.904898264705,
          40.7716929520187
        ],
        [
          -111.904934394047,
          40.7716928390872
        ],
        [
          -111.904934479387,
          40.7717346863116
        ],
        [
          -111.904791458611,
          40.7717351781755
        ],
        [
          -111.904791350813,
          40.771714566829
        ],
        [
          -111.90455970764,
          40.7717153961268
        ],
        [
          -111.904469212257,
          40.7717157199543
        ]
      ]
    ]
  }
}