{
  "type": "Feature",
  "properties": {
    "parcel_id": "08363510320000",
    "owner_name_raw": "UTAH DEPARTMENT OF TRANSPORTAT - UDOT RIGHT OF WAY",
    "owner_class": "STATE",
    "epsg": "EPSG:4326"
  },
  "geometry": {
    "type": "Polygon",
    "coordinates": [
      [
        [
          -111.909676845672,
          40.7725979372667
        ],
        [
          -111.909675825186,
          40.7722977034843
        ],
        [
          -111.90987223284,
          40.7721721172155
        ],
        [
          -111.909866254551,
          40.7722179677316
        ],
        [
          -111.909841313726,
          40.7724505744092
        ],
        [
          -111.909828918771,
          40.772597881482
        ],
        [
          -111.909821716978,
          40.7726834768832
        ],
        [
          -111.909807469697,
          40.7729166023587
        ],
        [
          -111.909798574579,
          40.7731498828039
        ],
        [
          -111.90979530561,
          40.7735035312945
        ],
        [
          -111.909676961555,
          40.7735037700769
        ],
        [
          -111.909676845672,
          40.7725979372667
        ]
      ]
    ]
  }
}