{
  "type": "Feature",
  "properties": {
    "parcel_id": "08362020180000",
    "owner_name_raw": "SALT LAKE COUNTY - REAL ESTATE DEPT # S3200",
    "owner_class": "COUNTY",
    "epsg": "EPSG:4326"
  },
  "geometry": {
    "type": "Polygon",
    "coordinates": [
      [
        [
          -111.898818556693,
          40.7829090254787
        ],
        [
          -111.89881705471,
          40.7825659463319
        ],
        [
          -111.898824276267,
          40.7825659368091
        ],
        [
          -111.898825779148,
          40.7829090166362
        ],
        [
          -111.898818556693,
          40.7829090254787
        ]
      ]
    ]
  }
}