{
  "type": "Feature",
  "properties": {
    "parcel_id": "08364030010000",
    "owner_name_raw": "SALT LAKE CITY BOARD OF ED",
    "owner_class": "CITY",
    "epsg": "EPSG:4326"
  },
  "geometry": {
    "type": "Polygon",
    "coordinates": [
      [
        [
          -111.89878214528,
          40.7756858797608
        ],
        [
          -111.89878290256,
          40.7753686565233
        ],
        [
          -111.898961617894,
          40.7753689864555
        ],
        [
          -111.898961302585,
          40.7755008870812
        ],
        [
          -111.899437877708,
          40.7755016047673
        ],
        [
          -111.899437434839,
          40.7756868654709
        ],
        [
          -111.89878214528,
          40.7756858797608
        ]
      ]
    ]
  }
}