{
  "type": "Feature",
  "properties": {
    "parcel_id": "08364520240000",
    "owner_name_raw": "BOARD OF EDUCATION OF SLC",
    "owner_class": "SCHOOL_DISTRICT",
    "epsg": "EPSG:4326"
  },
  "geometry": {
    "type": "Polygon",
    "coordinates": [
      [
        [
          -111.898612553236,
          40.773512002285
        ],
        [
          -111.898612291826,
          40.7730591354406
        ],
        [
          -111.898846960524,
          40.7730590524445
        ],
        [
          -111.898846969507,
          40.7730741488948
        ],
        [
          -111.898847036881,
          40.7731928543182
        ],
        [
          -111.898742700256,
          40.7731928903738
        ],
        [
          -111.898742883512,
          40.7735119573858
        ],
        [
          -111.898612553236,
          40.773512002285
        ]
      ]
    ]
  }
}