{
  "type": "Feature",
  "properties": {
    "parcel_id": "08364320190000",
    "owner_name_raw": "SALT LAKE CITY",
    "owner_class": "CITY",
    "epsg": "EPSG:4326"
  },
  "geometry": {
    "type": "Polygon",
    "coordinates": [
      [
        [
          -111.89468207083,
          40.7758970193568
        ],
        [
          -111.8946809668,
          40.7757039551928
        ],
        [
          -111.894680298454,
          40.7755946372234
        ],
        [
          -111.894680015484,
          40.7755492883561
        ],
        [
          -111.894681440212,
          40.7755622271027
        ],
        [
          -111.894690221244,
          40.7755976773508
        ],
        [
          -111.894705918406,
          40.7756317194215
        ],
        [
          -111.894728175963,
          40.7756635778097
        ],
        [
          -111.894756488166,
          40.7756925280319
        ],
        [
          -111.894790208227,
          40.7757179081903
        ],
        [
          -111.894828569883,
          40.775739141421
        ],
        [
          -111.894870696378,
          40.7757557454177
        ],
        [
          -111.894862682507,
          40.7757537712784
        ],
        [
          -111.894854350633,
          40.7757528243445
        ],
        [
          -111.894845928029,
          40.7757529277453
        ],
        [
          -111.894837641969,
          40.7757540780795
        ],
        [
          -111.894829715235,
          40.7757562460953
        ],
        [
          -111.894822362524,
          40.7757593719292
        ],
        [
          -111.894815784161,
          40.7757633712276
        ],
        [
          -111.894810156216,
          40.7757681371883
        ],
        [
          -111.894805630504,
          40.775773537839
        ],
        [
          -111.894802330992,
          40.7757794310036
        ],
        [
          -111.894800347512,
          40.775785654778
        ],
        [
          -111.894799731267,
          40.7757920411359
        ],
        [
          -111.894800830805,
          40.7758855752224
        ],
        [
          -111.894801604255,
          40.775892160889
        ],
        [
          -111.894803746737,
          40.7758985676447
        ],
        [
          -111.894807198962,
          40.775904636307
        ],
        [
          -111.894811877388,
          40.7759102097344
        ],
        [
          -111.89481766164,
          40.7759151471119
        ],
        [
          -111.894824404395,
          40.77591932259
        ],
        [
          -111.894831934074,
          40.7759226307277
        ],
        [
          -111.894840060234,
          40.7759249864917
        ],
        [
          -111.894848576263,
          40.7759263313792
        ],
        [
          -111.89485726387,
          40.7759266293361
        ],
        [
          -111.894865903866,
          40.7759258742399
        ],
        [
          -111.894800304392,
          40.7759340354002
        ],
        [
          -111.894734151557,
          40.7759389754969
        ],
        [
          -111.894667717548,
          40.7759406693609
        ],
        [
          -111.894622975159,
          40.775940712898
        ],
        [
          -111.89468207083,
          40.7758970193568
        ]
      ]
    ]
  }
}