{
  "type": "Feature",
  "properties": {
    "parcel_id": "091120023",
    "owner_name_raw": "UTAH COUNTY",
    "owner_class": "UNCLASSIFIED",
    "epsg": "EPSG:4326"
  },
  "geometry": {
    "type": "Polygon",
    "coordinates": [
      [
        [
          -111.779993857571,
          39.9811083406527
        ],
        [
          -111.779990488888,
          39.9813278931574
        ],
        [
          -111.77996908473,
          39.9813276990462
        ],
        [
          -111.779972453412,
          39.9811081458525
        ],
        [
          -111.779993857571,
          39.9811083406527
        ]
      ]
    ]
  }
}