{
  "type": "Feature",
  "properties": {
    "parcel_id": "09283540180000",
    "owner_name_raw": "SALT LAKE CITY CORPORATION - PROPERTY MANAGEMENT",
    "owner_class": "CITY",
    "epsg": "EPSG:4326"
  },
  "geometry": {
    "type": "Polygon",
    "coordinates": [
      [
        [
          -111.850618172719,
          40.7846549291619
        ],
        [
          -111.850750287948,
          40.7844875787814
        ],
        [
          -111.851124064362,
          40.784672447809
        ],
        [
          -111.851079475584,
          40.7847315443011
        ],
        [
          -111.850991194548,
          40.784839427028
        ],
        [
          -111.850618172719,
          40.7846549291619
        ]
      ]
    ]
  }
}