{
  "type": "Feature",
  "properties": {
    "parcel_id": "09313030020000",
    "owner_name_raw": "STATE OF UTAH, THE - FAC CONST MANAGEMENT",
    "owner_class": "STATE",
    "epsg": "EPSG:4326"
  },
  "geometry": {
    "type": "Polygon",
    "coordinates": [
      [
        [
          -111.888770032468,
          40.7760421535029
        ],
        [
          -111.889167236045,
          40.776042058946
        ],
        [
          -111.889268380956,
          40.7762181264186
        ],
        [
          -111.888889323348,
          40.7762182168937
        ],
        [
          -111.888770032468,
          40.7760421535029
        ]
      ]
    ]
  }
}