{
  "type": "Feature",
  "properties": {
    "parcel_id": "09314870080000",
    "owner_name_raw": "STATE OF UTAH",
    "owner_class": "STATE",
    "epsg": "EPSG:4326"
  },
  "geometry": {
    "type": "Polygon",
    "coordinates": [
      [
        [
          -111.873208089203,
          40.7699888301341
        ],
        [
          -111.873208199696,
          40.769535754906
        ],
        [
          -111.873565607008,
          40.7695357011598
        ],
        [
          -111.873565480345,
          40.7699887661834
        ],
        [
          -111.873208089203,
          40.7699888301341
        ]
      ]
    ]
  }
}