{
  "type": "Feature",
  "properties": {
    "parcel_id": "09312080060000",
    "owner_name_raw": "SALT LAKE CITY CORPORATION - PROPERTY MANAGEMENT",
    "owner_class": "CITY",
    "epsg": "EPSG:4326"
  },
  "geometry": {
    "type": "Polygon",
    "coordinates": [
      [
        [
          -111.877407824547,
          40.7834836152438
        ],
        [
          -111.877408065296,
          40.7831090848963
        ],
        [
          -111.877678875015,
          40.7831096004828
        ],
        [
          -111.877678635164,
          40.7834839410545
        ],
        [
          -111.877409516075,
          40.7834836179645
        ],
        [
          -111.877407824547,
          40.7834836152438
        ]
      ]
    ]
  }
}