{
  "type": "Feature",
  "properties": {
    "parcel_id": "09314870020000",
    "owner_name_raw": "STATE OF UTAH DIVISION OF FACI",
    "owner_class": "STATE",
    "epsg": "EPSG:4326"
  },
  "geometry": {
    "type": "Polygon",
    "coordinates": [
      [
        [
          -111.874002473002,
          40.7703285249957
        ],
        [
          -111.874002460425,
          40.770215310803
        ],
        [
          -111.874399566087,
          40.7702152182788
        ],
        [
          -111.874399578663,
          40.7703284372339
        ],
        [
          -111.874002473002,
          40.7703285249957
        ]
      ]
    ]
  }
}