{
  "type": "Feature",
  "properties": {
    "parcel_id": "09321810020000",
    "owner_name_raw": "SALT LAKE CITY CORP - PROPERTY MANAGEMENT",
    "owner_class": "CITY",
    "epsg": "EPSG:4326"
  },
  "geometry": {
    "type": "Polygon",
    "coordinates": [
      [
        [
          -111.864081275087,
          40.7796132227203
        ],
        [
          -111.864079237707,
          40.7784821282397
        ],
        [
          -111.864254885295,
          40.778482451354
        ],
        [
          -111.865451543661,
          40.7784846505719
        ],
        [
          -111.865451503237,
          40.7785973248488
        ],
        [
          -111.865451338845,
          40.7790500893199
        ],
        [
          -111.865451173555,
          40.779502856827
        ],
        [
          -111.865451132233,
          40.7796160511125
        ],
        [
          -111.864256925369,
          40.7796135866428
        ],
        [
          -111.864081275087,
          40.7796132227203
        ]
      ]
    ]
  }
}