{
  "type": "Feature",
  "properties": {
    "parcel_id": "09321290020000",
    "owner_name_raw": "BOARD OF EDUCATION OF SALT LAK",
    "owner_class": "SCHOOL_DISTRICT",
    "epsg": "EPSG:4326"
  },
  "geometry": {
    "type": "Polygon",
    "coordinates": [
      [
        [
          -111.864944915401,
          40.7819928845301
        ],
        [
          -111.865161560301,
          40.781993339587
        ],
        [
          -111.865161554013,
          40.7822952484228
        ],
        [
          -111.864944909112,
          40.7822947940481
        ],
        [
          -111.864944915401,
          40.7819928845301
        ]
      ]
    ]
  }
}