{
  "type": "Feature",
  "properties": {
    "parcel_id": "09331030060000",
    "owner_name_raw": "SALT LAKE CITY CORP - PROPERTY MANAGEMENT",
    "owner_class": "CITY",
    "epsg": "EPSG:4326"
  },
  "geometry": {
    "type": "Polygon",
    "coordinates": [
      [
        [
          -111.848861156059,
          40.7826613067346
        ],
        [
          -111.848976118855,
          40.7826767220562
        ],
        [
          -111.848975499916,
          40.7826794258419
        ],
        [
          -111.848860509272,
          40.7826640064398
        ],
        [
          -111.848861156059,
          40.7826613067346
        ]
      ]
    ]
  }
}