{
  "type": "Feature",
  "properties": {
    "parcel_id": "110270095",
    "owner_name_raw": "UTAH COUNTY",
    "owner_class": "UNCLASSIFIED",
    "epsg": "EPSG:4326"
  },
  "geometry": {
    "type": "Polygon",
    "coordinates": [
      [
        [
          -111.797336510562,
          40.4469921717197
        ],
        [
          -111.797349749145,
          40.446956931578
        ],
        [
          -111.79736493016,
          40.4469221479757
        ],
        [
          -111.797382026559,
          40.446887882889
        ],
        [
          -111.797401007881,
          40.4468541973703
        ],
        [
          -111.797421840304,
          40.4468211514394
        ],
        [
          -111.797444486712,
          40.4467888039765
        ],
        [
          -111.797468906755,
          40.4467572126177
        ],
        [
          -111.797495056921,
          40.4467264336515
        ],
        [
          -111.797385370828,
          40.4469197854957
        ],
        [
          -111.797236893685,
          40.4475007469035
        ],
        [
          -111.797104673353,
          40.4476602226246
        ],
        [
          -111.797114896181,
          40.4476325443353
        ],
        [
          -111.797336510562,
          40.4469921717197
        ]
      ]
    ]
  }
}