{
  "type": "Feature",
  "properties": {
    "parcel_id": "110230503",
    "owner_name_raw": "STATE ROAD COMMISSION OF UTAH",
    "owner_class": "UNCLASSIFIED",
    "epsg": "EPSG:4326"
  },
  "geometry": {
    "type": "Polygon",
    "coordinates": [
      [
        [
          -111.777978801641,
          40.4475985371034
        ],
        [
          -111.778037484985,
          40.4474983398824
        ],
        [
          -111.77837848367,
          40.4476149008556
        ],
        [
          -111.778261119677,
          40.4478152948007
        ],
        [
          -111.777920119195,
          40.4476987334914
        ],
        [
          -111.777978801641,
          40.4475985371034
        ]
      ]
    ]
  }
}