{
  "type": "Feature",
  "properties": {
    "parcel_id": "110290048",
    "owner_name_raw": "UTAH DEPARTMENT OF TRANSPORTATION",
    "owner_class": "STATE",
    "epsg": "EPSG:4326"
  },
  "geometry": {
    "type": "Polygon",
    "coordinates": [
      [
        [
          -111.838454160916,
          40.4317287881891
        ],
        [
          -111.839037376843,
          40.4317273549884
        ],
        [
          -111.839604700674,
          40.4317197821356
        ],
        [
          -111.840162389175,
          40.4317363398438
        ],
        [
          -111.843166658217,
          40.4319062258656
        ],
        [
          -111.843170866825,
          40.4325727617168
        ],
        [
          -111.839742146505,
          40.4324678418536
        ],
        [
          -111.839212663307,
          40.4323742546715
        ],
        [
          -111.838513042788,
          40.4323327387326
        ],
        [
          -111.838454160916,
          40.4317287881891
        ]
      ]
    ]
  }
}