{
  "type": "Feature",
  "properties": {
    "parcel_id": "110230125",
    "owner_name_raw": "UTAH DEPARTMENT OF TRANSPORTATION",
    "owner_class": "STATE",
    "epsg": "EPSG:4326"
  },
  "geometry": {
    "type": "Polygon",
    "coordinates": [
      [
        [
          -111.783050649311,
          40.4453472803708
        ],
        [
          -111.783116991691,
          40.445421354144
        ],
        [
          -111.783056031045,
          40.4454658198639
        ],
        [
          -111.782994035189,
          40.4455094487449
        ],
        [
          -111.782931023954,
          40.445552226833
        ],
        [
          -111.782867017497,
          40.4455941404462
        ],
        [
          -111.782805791921,
          40.4456323961328
        ],
        [
          -111.78274271312,
          40.4455619609154
        ],
        [
          -111.783050649311,
          40.4453472803708
        ]
      ]
    ]
  }
}