{
  "type": "Feature",
  "properties": {
    "parcel_id": "110380088",
    "owner_name_raw": "UTAH COUNTY",
    "owner_class": "UNCLASSIFIED",
    "epsg": "EPSG:4326"
  },
  "geometry": {
    "type": "Polygon",
    "coordinates": [
      [
        [
          -111.786034912872,
          40.426664531062
        ],
        [
          -111.785980564797,
          40.4266668779682
        ],
        [
          -111.785950732645,
          40.42666629808
        ],
        [
          -111.785925129761,
          40.4266661503726
        ],
        [
          -111.785925708276,
          40.4266606790449
        ],
        [
          -111.785950736238,
          40.4266608240169
        ],
        [
          -111.785971819959,
          40.4266611407744
        ],
        [
          -111.785992886339,
          40.4266618645552
        ],
        [
          -111.786013921823,
          40.4266629948936
        ],
        [
          -111.786034912872,
          40.426664531062
        ]
      ]
    ]
  }
}