{
  "type": "Feature",
  "properties": {
    "parcel_id": "110380091",
    "owner_name_raw": "UTAH COUNTY",
    "owner_class": "UNCLASSIFIED",
    "epsg": "EPSG:4326"
  },
  "geometry": {
    "type": "Polygon",
    "coordinates": [
      [
        [
          -111.78615512183,
          40.4266869046238
        ],
        [
          -111.786114955459,
          40.426679719619
        ],
        [
          -111.786116373898,
          40.4266651861716
        ],
        [
          -111.786157581417,
          40.4266635990011
        ],
        [
          -111.78615512183,
          40.4266869046238
        ]
      ]
    ]
  }
}