{
  "type": "Feature",
  "properties": {
    "parcel_id": "110340705",
    "owner_name_raw": "UTAH DEPARTMENT OF TRANSPORTATION",
    "owner_class": "STATE",
    "epsg": "EPSG:4326"
  },
  "geometry": {
    "type": "Polygon",
    "coordinates": [
      [
        [
          -111.849788420451,
          40.4320862805659
        ],
        [
          -111.849791004904,
          40.432025994118
        ],
        [
          -111.849852755097,
          40.4320321433149
        ],
        [
          -111.85005922478,
          40.4320557041768
        ],
        [
          -111.850059020862,
          40.4320930533604
        ],
        [
          -111.849788420451,
          40.4320862805659
        ]
      ]
    ]
  }
}