{
  "type": "Feature",
  "properties": {
    "parcel_id": "110360521",
    "owner_name_raw": "UTAH DEPARTMENT OF TRANSPORTATION",
    "owner_class": "STATE",
    "epsg": "EPSG:4326"
  },
  "geometry": {
    "type": "Polygon",
    "coordinates": [
      [
        [
          -111.813361609018,
          40.4314969805609
        ],
        [
          -111.812781877656,
          40.4314993102039
        ],
        [
          -111.812693285802,
          40.431533461653
        ],
        [
          -111.812532222364,
          40.4315341064584
        ],
        [
          -111.812532179244,
          40.4314968390182
        ],
        [
          -111.813361562305,
          40.4314901687308
        ],
        [
          -111.813361609018,
          40.4314969805609
        ]
      ]
    ]
  }
}