{
  "type": "Feature",
  "properties": {
    "parcel_id": "110360270",
    "owner_name_raw": "NORTH UTAH COUNTY WATER CONSERVANCY DISTRICT",
    "owner_class": "SPECIAL_DISTRICT",
    "epsg": "EPSG:4326"
  },
  "geometry": {
    "type": "Polygon",
    "coordinates": [
      [
        [
          -111.817010100374,
          40.4314706426661
        ],
        [
          -111.815281680682,
          40.4314804727098
        ],
        [
          -111.817284370404,
          40.4308794390717
        ],
        [
          -111.820349809327,
          40.4283972407928
        ],
        [
          -111.821176902582,
          40.4281327667611
        ],
        [
          -111.821184664924,
          40.4292443660733
        ],
        [
          -111.821098101467,
          40.4293504630045
        ],
        [
          -111.8209664866,
          40.4293297389789
        ],
        [
          -111.820647467893,
          40.4296139263772
        ],
        [
          -111.820529848778,
          40.4298150071824
        ],
        [
          -111.82035287887,
          40.430177690846
        ],
        [
          -111.820281255294,
          40.4303479821919
        ],
        [
          -111.820100157628,
          40.4303956787896
        ],
        [
          -111.819955861244,
          40.4304692315774
        ],
        [
          -111.819865108942,
          40.4305056318559
        ],
        [
          -111.819675385653,
          40.4305124998565
        ],
        [
          -111.819488369885,
          40.4306050352247
        ],
        [
          -111.819459781001,
          40.4306946452141
        ],
        [
          -111.819303696924,
          40.4307661757115
        ],
        [
          -111.818366788219,
          40.4308399086141
        ],
        [
          -111.818215395144,
          40.4309261424335
        ],
        [
          -111.817909283431,
          40.4312480440336
        ],
        [
          -111.817267881827,
          40.4311900317851
        ],
        [
          -111.817010100374,
          40.4314706426661
        ]
      ]
    ]
  }
}