{
  "type": "Feature",
  "properties": {
    "parcel_id": "110390147",
    "owner_name_raw": "UTAH DEPARTMENT OF TRANSPORTATION",
    "owner_class": "STATE",
    "epsg": "EPSG:4326"
  },
  "geometry": {
    "type": "Polygon",
    "coordinates": [
      [
        [
          -111.792348713761,
          40.4316801673833
        ],
        [
          -111.792330564199,
          40.4310811691083
        ],
        [
          -111.792352068071,
          40.430702875304
        ],
        [
          -111.792432472679,
          40.430702485544
        ],
        [
          -111.792441144116,
          40.431748792824
        ],
        [
          -111.792259978178,
          40.4317503545747
        ],
        [
          -111.792277632542,
          40.4317488384012
        ],
        [
          -111.792294551335,
          40.4317447112559
        ],
        [
          -111.792310074888,
          40.4317381340577
        ],
        [
          -111.792323597927,
          40.4317293632539
        ],
        [
          -111.792334593185,
          40.4317187408216
        ],
        [
          -111.792342631951,
          40.4317066809335
        ],
        [
          -111.79234740079,
          40.4316936538096
        ],
        [
          -111.792348713761,
          40.4316801673833
        ]
      ]
    ]
  }
}