{
  "type": "Feature",
  "properties": {
    "parcel_id": "110320216",
    "owner_name_raw": "UTAH DEPARTMENT OF TRANSPORTATION",
    "owner_class": "STATE",
    "epsg": "EPSG:4326"
  },
  "geometry": {
    "type": "Polygon",
    "coordinates": [
      [
        [
          -111.878485087829,
          40.4315871486942
        ],
        [
          -111.878484903675,
          40.4315528256434
        ],
        [
          -111.880854848939,
          40.4315491414325
        ],
        [
          -111.880855016924,
          40.4315794616343
        ],
        [
          -111.878485087829,
          40.4315871486942
        ]
      ]
    ]
  }
}