{
  "type": "Feature",
  "properties": {
    "parcel_id": "110310135",
    "owner_name_raw": "UTAH DEPARTMENT OF TRANSPORTATION",
    "owner_class": "STATE",
    "epsg": "EPSG:4326"
  },
  "geometry": {
    "type": "Polygon",
    "coordinates": [
      [
        [
          -111.873673606963,
          40.4324054647726
        ],
        [
          -111.873691845458,
          40.4324112576896
        ],
        [
          -111.873756532243,
          40.4324326747941
        ],
        [
          -111.873338741076,
          40.4324926477102
        ],
        [
          -111.87291913987,
          40.432550823047
        ],
        [
          -111.872498607779,
          40.4326049640731
        ],
        [
          -111.872077211748,
          40.4326550621797
        ],
        [
          -111.871655018858,
          40.4327011094009
        ],
        [
          -111.871652754205,
          40.4326914662047
        ],
        [
          -111.871798049515,
          40.432671453645
        ],
        [
          -111.873427637458,
          40.4324403535512
        ],
        [
          -111.873673606963,
          40.4324054647726
        ]
      ]
    ]
  }
}