{
  "type": "Feature",
  "properties": {
    "parcel_id": "110590034",
    "owner_name_raw": "UNITED STATES OF AMERICA",
    "owner_class": "UNCLASSIFIED",
    "epsg": "EPSG:4326"
  },
  "geometry": {
    "type": "Polygon",
    "coordinates": [
      [
        [
          -111.715148488188,
          40.4283714494183
        ],
        [
          -111.715158941883,
          40.4356243255785
        ],
        [
          -111.70569451034,
          40.4356385699193
        ],
        [
          -111.696230076102,
          40.435652049153
        ],
        [
          -111.696219975445,
          40.4283987062037
        ],
        [
          -111.696209876585,
          40.4211453448071
        ],
        [
          -111.696529296838,
          40.421144916694
        ],
        [
          -111.705673953293,
          40.4211323201858
        ],
        [
          -111.715138033594,
          40.4211185446542
        ],
        [
          -111.715148488188,
          40.4283714494183
        ]
      ]
    ]
  }
}