{
  "type": "Feature",
  "properties": {
    "parcel_id": "110550344",
    "owner_name_raw": "UNITED STATES OF AMERICA",
    "owner_class": "UNCLASSIFIED",
    "epsg": "EPSG:4326"
  },
  "geometry": {
    "type": "Polygon",
    "coordinates": [
      [
        [
          -111.769301786564,
          40.4318990557777
        ],
        [
          -111.766902704444,
          40.4319124427674
        ],
        [
          -111.766899471407,
          40.4298358910674
        ],
        [
          -111.769298051369,
          40.4314639019467
        ],
        [
          -111.769297833977,
          40.4313623937967
        ],
        [
          -111.769300695111,
          40.4313643138585
        ],
        [
          -111.769301817106,
          40.4318990790262
        ],
        [
          -111.769301786564,
          40.4318990557777
        ]
      ]
    ]
  }
}