{
  "type": "Feature",
  "properties": {
    "parcel_id": "110550400",
    "owner_name_raw": "UNITED STATES OF AMERICA",
    "owner_class": "UNCLASSIFIED",
    "epsg": "EPSG:4326"
  },
  "geometry": {
    "type": "Polygon",
    "coordinates": [
      [
        [
          -111.76910313402,
          40.4310543701791
        ],
        [
          -111.769103105274,
          40.4310542867572
        ],
        [
          -111.768894636839,
          40.4310969884855
        ],
        [
          -111.769297824993,
          40.4313676855909
        ],
        [
          -111.769298028013,
          40.4314639251953
        ],
        [
          -111.766850233848,
          40.4298025087134
        ],
        [
          -111.765297424014,
          40.4287484865034
        ],
        [
          -111.764656028698,
          40.4283130996196
        ],
        [
          -111.765326490802,
          40.4283093960844
        ],
        [
          -111.769297051544,
          40.431004461316
        ],
        [
          -111.769297089273,
          40.431023012437
        ],
        [
          -111.769255756889,
          40.4310231074832
        ],
        [
          -111.76910313402,
          40.4310543701791
        ]
      ]
    ]
  }
}