{
  "type": "Feature",
  "properties": {
    "parcel_id": "110580014",
    "owner_name_raw": "UNITED STATES OF AMERICA",
    "owner_class": "UNCLASSIFIED",
    "epsg": "EPSG:4326"
  },
  "geometry": {
    "type": "Polygon",
    "coordinates": [
      [
        [
          -111.5861308382,
          40.5586571753861
        ],
        [
          -111.586142753454,
          40.5659036566236
        ],
        [
          -111.581560308849,
          40.5658428850073
        ],
        [
          -111.581221904498,
          40.565431003572
        ],
        [
          -111.581009250813,
          40.5651823963275
        ],
        [
          -111.580882102369,
          40.5649508848928
        ],
        [
          -111.580663066153,
          40.5646305686506
        ],
        [
          -111.58041157201,
          40.563485788264
        ],
        [
          -111.580210195774,
          40.5628690148394
        ],
        [
          -111.580105483653,
          40.5625825919099
        ],
        [
          -111.579917679165,
          40.5620320203495
        ],
        [
          -111.579833832213,
          40.5618828354356
        ],
        [
          -111.579810794019,
          40.5614158805
        ],
        [
          -111.579727661228,
          40.5611129678587
        ],
        [
          -111.579494281612,
          40.5608146325023
        ],
        [
          -111.579339191071,
          40.5605333800286
        ],
        [
          -111.579240869565,
          40.5603237925527
        ],
        [
          -111.579121784399,
          40.5600483601898
        ],
        [
          -111.578988321698,
          40.5597945365879
        ],
        [
          -111.578663013886,
          40.5593583264441
        ],
        [
          -111.578535897781,
          40.5591377930599
        ],
        [
          -111.578381668725,
          40.5588068076917
        ],
        [
          -111.578219384476,
          40.5585145887539
        ],
        [
          -111.578070698025,
          40.5583156786592
        ],
        [
          -111.577678940034,
          40.5579889479859
        ],
        [
          -111.577294378448,
          40.5576508978724
        ],
        [
          -111.577230404027,
          40.5575627697157
        ],
        [
          -111.577053769191,
          40.5573086363894
        ],
        [
          -111.576912260279,
          40.5570877556843
        ],
        [
          -111.576707650108,
          40.5567567806558
        ],
        [
          -111.576117129081,
          40.5556701874066
        ],
        [
          -111.575940505924,
          40.5554163949814
        ],
        [
          -111.575248346811,
          40.5543288346733
        ],
        [
          -111.575042944326,
          40.5540747225157
        ],
        [
          -111.574430572678,
          40.5535264814717
        ],
        [
          -111.574189154039,
          40.5532391094231
        ],
        [
          -111.573982077993,
          40.5531057631261
        ],
        [
          -111.573732657161,
          40.5529062281313
        ],
        [
          -111.573351497494,
          40.5523430774325
        ],
        [
          -111.573014026493,
          40.5522420727712
        ],
        [
          -111.572914076341,
          40.5521697290386
        ],
        [
          -111.572608787485,
          40.5518710753453
        ],
        [
          -111.572260236664,
          40.5515058728427
        ],
        [
          -111.572140401405,
          40.5514045836559
        ],
        [
          -111.576711841647,
          40.5514067541986
        ],
        [
          -111.586118927437,
          40.5514106652706
        ],
        [
          -111.5861308382,
          40.5586571753861
        ]
      ]
    ]
  }
}