{
  "type": "Feature",
  "properties": {
    "parcel_id": "110540094",
    "owner_name_raw": "CENTRAL UTAH WATER CONSERVANCY DISTRICT",
    "owner_class": "SPECIAL_DISTRICT",
    "epsg": "EPSG:4326"
  },
  "geometry": {
    "type": "Polygon",
    "coordinates": [
      [
        [
          -111.763916150179,
          40.4356690434859
        ],
        [
          -111.766050300257,
          40.4357063598942
        ],
        [
          -111.766056688177,
          40.437347373205
        ],
        [
          -111.763923737349,
          40.4373522016485
        ],
        [
          -111.763916150179,
          40.4356690434859
        ]
      ]
    ]
  }
}