{
  "type": "Feature",
  "properties": {
    "parcel_id": "110550398",
    "owner_name_raw": "METROPOLITAN WATER DISTRICT OF SALT LAKE & SANDY",
    "owner_class": "SPECIAL_DISTRICT",
    "epsg": "EPSG:4326"
  },
  "geometry": {
    "type": "Polygon",
    "coordinates": [
      [
        [
          -111.770484999845,
          40.4321648757096
        ],
        [
          -111.771158798292,
          40.4321606274183
        ],
        [
          -111.771256461333,
          40.4322261952155
        ],
        [
          -111.771257647109,
          40.4323359312679
        ],
        [
          -111.772465745521,
          40.4331558211491
        ],
        [
          -111.773387944313,
          40.4337816630705
        ],
        [
          -111.77338514157,
          40.4337956479736
        ],
        [
          -111.772733103014,
          40.4337960096816
        ],
        [
          -111.772466515377,
          40.4336150939193
        ],
        [
          -111.772466313256,
          40.433495005762
        ],
        [
          -111.770484999845,
          40.4321648757096
        ]
      ]
    ]
  }
}