{
  "type": "Feature",
  "properties": {
    "parcel_id": "110560012",
    "owner_name_raw": "UNITED STATES OF AMERICA",
    "owner_class": "UNCLASSIFIED",
    "epsg": "EPSG:4326"
  },
  "geometry": {
    "type": "Polygon",
    "coordinates": [
      [
        [
          -111.744878986202,
          40.4356271671993
        ],
        [
          -111.735389732411,
          40.4355717938622
        ],
        [
          -111.735384433249,
          40.4319504060621
        ],
        [
          -111.744889986073,
          40.4319810358336
        ],
        [
          -111.744878986202,
          40.4356271671993
        ]
      ]
    ]
  }
}