{
  "type": "Feature",
  "properties": {
    "parcel_id": "110600016",
    "owner_name_raw": "UNITED STATES OF AMERICA",
    "owner_class": "UNCLASSIFIED",
    "epsg": "EPSG:4326"
  },
  "geometry": {
    "type": "Polygon",
    "coordinates": [
      [
        [
          -111.623130827785,
          40.4709349837114
        ],
        [
          -111.623156312091,
          40.4781940096633
        ],
        [
          -111.613676458272,
          40.4781802547063
        ],
        [
          -111.60419661074,
          40.4781657330764
        ],
        [
          -111.604168576117,
          40.4709058621427
        ],
        [
          -111.60414054868,
          40.4636459703746
        ],
        [
          -111.613622979766,
          40.4636613467285
        ],
        [
          -111.62310534797,
          40.4636759494089
        ],
        [
          -111.623130827785,
          40.4709349837114
        ]
      ]
    ]
  }
}