{
  "type": "Feature",
  "properties": {
    "parcel_id": "110600030",
    "owner_name_raw": "UNITED STATES OF AMERICA",
    "owner_class": "UNCLASSIFIED",
    "epsg": "EPSG:4326"
  },
  "geometry": {
    "type": "Polygon",
    "coordinates": [
      [
        [
          -111.65835040319,
          40.435677555351
        ],
        [
          -111.658350330426,
          40.4418905335941
        ],
        [
          -111.658350318748,
          40.442920894628
        ],
        [
          -111.658350245985,
          40.4491284237234
        ],
        [
          -111.651490906308,
          40.4491510167666
        ],
        [
          -111.64202323005,
          40.4491815388963
        ],
        [
          -111.641999951108,
          40.4419243522851
        ],
        [
          -111.641976676657,
          40.4346671458688
        ],
        [
          -111.651449498465,
          40.4346590290827
        ],
        [
          -111.65835041397,
          40.4346526291901
        ],
        [
          -111.65835040319,
          40.435677555351
        ]
      ]
    ]
  }
}