{
  "type": "Feature",
  "properties": {
    "parcel_id": "120030028",
    "owner_name_raw": "UTAH DEPARTMENT OF TRANSPORTATION",
    "owner_class": "STATE",
    "epsg": "EPSG:4326"
  },
  "geometry": {
    "type": "Polygon",
    "coordinates": [
      [
        [
          -111.773539504475,
          40.4196679790048
        ],
        [
          -111.773518846817,
          40.4155603344307
        ],
        [
          -111.77364594765,
          40.4155601955903
        ],
        [
          -111.773645719478,
          40.4156232038427
        ],
        [
          -111.773665604585,
          40.4196676144852
        ],
        [
          -111.773539504475,
          40.4196679790048
        ]
      ]
    ]
  }
}