{
  "type": "Feature",
  "properties": {
    "parcel_id": "120190118",
    "owner_name_raw": "UTAH DEPARTMENT OF TRANSPORTATION",
    "owner_class": "STATE",
    "epsg": "EPSG:4326"
  },
  "geometry": {
    "type": "Polygon",
    "coordinates": [
      [
        [
          -111.863348168966,
          40.4098527669825
        ],
        [
          -111.863352147605,
          40.4098189000141
        ],
        [
          -111.863932032578,
          40.4102083612559
        ],
        [
          -111.863928903746,
          40.4102428005342
        ],
        [
          -111.863348168966,
          40.4098527669825
        ]
      ]
    ]
  }
}