{
  "type": "Feature",
  "properties": {
    "parcel_id": "120190121",
    "owner_name_raw": "UTAH DEPARTMENT OF TRANSPORTATION",
    "owner_class": "STATE",
    "epsg": "EPSG:4326"
  },
  "geometry": {
    "type": "Polygon",
    "coordinates": [
      [
        [
          -111.862859418976,
          40.4104337743913
        ],
        [
          -111.862858166725,
          40.4104570856367
        ],
        [
          -111.862406588123,
          40.4101870492505
        ],
        [
          -111.862410211927,
          40.4101320694709
        ],
        [
          -111.862859418976,
          40.4104337743913
        ]
      ]
    ]
  }
}