{
  "type": "Feature",
  "properties": {
    "parcel_id": "120180077",
    "owner_name_raw": "UTAH DEPARTMENT OF TRANSPORTATION",
    "owner_class": "STATE",
    "epsg": "EPSG:4326"
  },
  "geometry": {
    "type": "Polygon",
    "coordinates": [
      [
        [
          -111.866976816538,
          40.4120542188001
        ],
        [
          -111.867014196336,
          40.4120239130519
        ],
        [
          -111.8673672037,
          40.4121722933066
        ],
        [
          -111.867243510177,
          40.4121565023094
        ],
        [
          -111.86712263916,
          40.4121311595534
        ],
        [
          -111.866976816538,
          40.4120542188001
        ]
      ]
    ]
  }
}