{
  "type": "Feature",
  "properties": {
    "parcel_id": "120210104",
    "owner_name_raw": "UTAH POWER AND LIGHT COMPANY",
    "owner_class": "UNCLASSIFIED",
    "epsg": "EPSG:4326"
  },
  "geometry": {
    "type": "Polygon",
    "coordinates": [
      [
        [
          -111.867737433564,
          40.4182169874584
        ],
        [
          -111.867762445357,
          40.4182362130283
        ],
        [
          -111.867664162478,
          40.4183109000508
        ],
        [
          -111.867646143172,
          40.4183024933622
        ],
        [
          -111.867559336271,
          40.4182357643793
        ],
        [
          -111.86766118097,
          40.4181583682784
        ],
        [
          -111.867737433564,
          40.4182169874584
        ]
      ]
    ]
  }
}