{
  "type": "Feature",
  "properties": {
    "parcel_id": "120300138",
    "owner_name_raw": "UTAH DEPARTMENT OF TRANSPORTATION",
    "owner_class": "STATE",
    "epsg": "EPSG:4326"
  },
  "geometry": {
    "type": "Polygon",
    "coordinates": [
      [
        [
          -111.873487035862,
          40.4120281434638
        ],
        [
          -111.874155080599,
          40.41205331116
        ],
        [
          -111.874113331396,
          40.4122519192186
        ],
        [
          -111.873958095866,
          40.4122342204737
        ],
        [
          -111.873802082254,
          40.4122210732916
        ],
        [
          -111.873645520675,
          40.4122124970663
        ],
        [
          -111.873488642049,
          40.4122085044493
        ],
        [
          -111.873487035862,
          40.4120281434638
        ]
      ]
    ]
  }
}