{
  "type": "Feature",
  "properties": {
    "parcel_id": "120330089",
    "owner_name_raw": "UTAH TRANSIT AUTHORITY",
    "owner_class": "UTA",
    "epsg": "EPSG:4326"
  },
  "geometry": {
    "type": "Polygon",
    "coordinates": [
      [
        [
          -111.871458895072,
          40.403543603781
        ],
        [
          -111.871536592157,
          40.4035413237907
        ],
        [
          -111.871844746639,
          40.4037921085817
        ],
        [
          -111.871874947999,
          40.403828712097
        ],
        [
          -111.871995568385,
          40.4039303240461
        ],
        [
          -111.872176428896,
          40.4040827888823
        ],
        [
          -111.872296955858,
          40.4041844661175
        ],
        [
          -111.872361045264,
          40.4042345474248
        ],
        [
          -111.872280220244,
          40.4042358656055
        ],
        [
          -111.871458895072,
          40.403543603781
        ]
      ]
    ]
  }
}