{
  "type": "Feature",
  "properties": {
    "parcel_id": "120590110",
    "owner_name_raw": "BOARD OF EDUCATION OF ALPINE SCHOOL DISTRICT",
    "owner_class": "SCHOOL_DISTRICT",
    "epsg": "EPSG:4326"
  },
  "geometry": {
    "type": "Polygon",
    "coordinates": [
      [
        [
          -111.799211515545,
          40.4037135931568
        ],
        [
          -111.798511387478,
          40.4036218314129
        ],
        [
          -111.798446138423,
          40.4036088741798
        ],
        [
          -111.798381624038,
          40.4035939352488
        ],
        [
          -111.800133626303,
          40.3996300088078
        ],
        [
          -111.800393039096,
          40.399631407119
        ],
        [
          -111.800934839095,
          40.3996292309801
        ],
        [
          -111.800669797458,
          40.4001234521241
        ],
        [
          -111.800669475862,
          40.4002244416631
        ],
        [
          -111.800571873906,
          40.400449760994
        ],
        [
          -111.8013156583,
          40.4004535741502
        ],
        [
          -111.801312725301,
          40.4007883696525
        ],
        [
          -111.801564099968,
          40.4007896557483
        ],
        [
          -111.800690272759,
          40.4027980530911
        ],
        [
          -111.799679599792,
          40.4025375397769
        ],
        [
          -111.799211485901,
          40.4037135698987
        ],
        [
          -111.799211515545,
          40.4037135931568
        ]
      ]
    ]
  }
}