{
  "type": "Feature",
  "properties": {
    "parcel_id": "120510115",
    "owner_name_raw": "UTAH COUNTY",
    "owner_class": "UNCLASSIFIED",
    "epsg": "EPSG:4326"
  },
  "geometry": {
    "type": "Polygon",
    "coordinates": [
      [
        [
          -111.833246712554,
          40.3956664024345
        ],
        [
          -111.833259413833,
          40.3956662382396
        ],
        [
          -111.833249159564,
          40.3959434951732
        ],
        [
          -111.833235663276,
          40.3959433993933
        ],
        [
          -111.833246712554,
          40.3956664024345
        ]
      ]
    ]
  }
}