{
  "type": "Feature",
  "properties": {
    "parcel_id": "120730108",
    "owner_name_raw": "HOUSING AUTHORITY OF UTAH COUNTY",
    "owner_class": "UNCLASSIFIED",
    "epsg": "EPSG:4326"
  },
  "geometry": {
    "type": "Polygon",
    "coordinates": [
      [
        [
          -111.810616344933,
          40.3833618896856
        ],
        [
          -111.810521176513,
          40.3833574953
        ],
        [
          -111.810546950077,
          40.3827082870314
        ],
        [
          -111.810640876127,
          40.3827437503713
        ],
        [
          -111.810616344933,
          40.3833618896856
        ]
      ]
    ]
  }
}