{
  "type": "Feature",
  "properties": {
    "parcel_id": "130020184",
    "owner_name_raw": "UTAH DEPARTMENT OF TRANSPORTATION",
    "owner_class": "STATE",
    "epsg": "EPSG:4326"
  },
  "geometry": {
    "type": "Polygon",
    "coordinates": [
      [
        [
          -111.829356015633,
          40.3835379283165
        ],
        [
          -111.829540871439,
          40.3836607928971
        ],
        [
          -111.829722093721,
          40.3837867588944
        ],
        [
          -111.829899592805,
          40.3839157639605
        ],
        [
          -111.830073280862,
          40.3840477442435
        ],
        [
          -111.830047969032,
          40.3840681161356
        ],
        [
          -111.829878953895,
          40.3839398033544
        ],
        [
          -111.829706395203,
          40.3838142567747
        ],
        [
          -111.829530370978,
          40.3836915331796
        ],
        [
          -111.829350960813,
          40.3835716880756
        ],
        [
          -111.829356015633,
          40.3835379283165
        ]
      ]
    ]
  }
}