{
  "type": "Feature",
  "properties": {
    "parcel_id": "130010104",
    "owner_name_raw": "UTAH DEPARTMENT OF TRANSPORTATION",
    "owner_class": "STATE",
    "epsg": "EPSG:4326"
  },
  "geometry": {
    "type": "Polygon",
    "coordinates": [
      [
        [
          -111.830250693639,
          40.3841883404178
        ],
        [
          -111.830222394012,
          40.3842062667151
        ],
        [
          -111.830048522394,
          40.3840684904277
        ],
        [
          -111.830073834224,
          40.3840481178514
        ],
        [
          -111.830250693639,
          40.3841883404178
        ]
      ]
    ]
  }
}