{
  "type": "Feature",
  "properties": {
    "parcel_id": "130130012",
    "owner_name_raw": "BOARD OF EDUCATION ALPINE SCHOOL DISTRICT",
    "owner_class": "SCHOOL_DISTRICT",
    "epsg": "EPSG:4326"
  },
  "geometry": {
    "type": "Polygon",
    "coordinates": [
      [
        [
          -111.837859126753,
          40.3909703020405
        ],
        [
          -111.837859943322,
          40.3911349673125
        ],
        [
          -111.837415650955,
          40.3910260042424
        ],
        [
          -111.837070708666,
          40.3908288100438
        ],
        [
          -111.83682146031,
          40.3908529388493
        ],
        [
          -111.836856364351,
          40.3909875334452
        ],
        [
          -111.836802529214,
          40.390987688757
        ],
        [
          -111.836606808772,
          40.3903925886775
        ],
        [
          -111.837362503928,
          40.3909080267422
        ],
        [
          -111.837846922241,
          40.3909066282499
        ],
        [
          -111.837859126753,
          40.3909703020405
        ]
      ]
    ]
  }
}