{
  "type": "Feature",
  "properties": {
    "parcel_id": "130290103",
    "owner_name_raw": "UTAH DEPARTMENT OF TRANSPORTATION",
    "owner_class": "STATE",
    "epsg": "EPSG:4326"
  },
  "geometry": {
    "type": "Polygon",
    "coordinates": [
      [
        [
          -111.886693820132,
          40.3764129103844
        ],
        [
          -111.886742675907,
          40.3763718403235
        ],
        [
          -111.887479323186,
          40.3763732329585
        ],
        [
          -111.88747955585,
          40.376414398142
        ],
        [
          -111.886693820132,
          40.3764129103844
        ]
      ]
    ]
  }
}