{
  "type": "Feature",
  "properties": {
    "parcel_id": "130370055",
    "owner_name_raw": "UTAH DEPARTMENT OF TRANSPORTATION",
    "owner_class": "STATE",
    "epsg": "EPSG:4326"
  },
  "geometry": {
    "type": "Polygon",
    "coordinates": [
      [
        [
          -111.84908457246,
          40.3734802237996
        ],
        [
          -111.846771171651,
          40.3734744524995
        ],
        [
          -111.846770327235,
          40.3733144881236
        ],
        [
          -111.848876210026,
          40.3733082254297
        ],
        [
          -111.848976385655,
          40.3732489874752
        ],
        [
          -111.849083348056,
          40.3732486247574
        ],
        [
          -111.84908457246,
          40.3734802237996
        ]
      ]
    ]
  }
}