{
  "type": "Feature",
  "properties": {
    "parcel_id": "130380050",
    "owner_name_raw": "UTAH DEPARTMENT OF TRANSPORTATION",
    "owner_class": "STATE",
    "epsg": "EPSG:4326"
  },
  "geometry": {
    "type": "Polygon",
    "coordinates": [
      [
        [
          -111.833345350267,
          40.3753637887943
        ],
        [
          -111.833396023334,
          40.3750711114326
        ],
        [
          -111.833436643354,
          40.3750752339855
        ],
        [
          -111.833314019725,
          40.3757820263498
        ],
        [
          -111.833047031439,
          40.3757564748611
        ],
        [
          -111.833094783284,
          40.375712524175
        ],
        [
          -111.833139733143,
          40.3756668907106
        ],
        [
          -111.833181778991,
          40.3756196780415
        ],
        [
          -111.833220825393,
          40.375570993326
        ],
        [
          -111.833256783725,
          40.3755209470635
        ],
        [
          -111.833289572369,
          40.3754696528441
        ],
        [
          -111.833319116902,
          40.3754172270906
        ],
        [
          -111.833345350267,
          40.3753637887943
        ]
      ]
    ]
  }
}