{
  "type": "Feature",
  "properties": {
    "parcel_id": "130410136",
    "owner_name_raw": "AF UTAH LLC",
    "owner_class": "UNCLASSIFIED",
    "epsg": "EPSG:4326"
  },
  "geometry": {
    "type": "Polygon",
    "coordinates": [
      [
        [
          -111.822471303041,
          40.372631869541
        ],
        [
          -111.821831447437,
          40.3726270740935
        ],
        [
          -111.821739193153,
          40.3725303356023
        ],
        [
          -111.821744647723,
          40.3721050882415
        ],
        [
          -111.821747669403,
          40.3720957088836
        ],
        [
          -111.821752807353,
          40.3720868799727
        ],
        [
          -111.82175990169,
          40.3720788762502
        ],
        [
          -111.821768731649,
          40.3720719467793
        ],
        [
          -111.821779022456,
          40.372066307194
        ],
        [
          -111.821790453879,
          40.3720621329893
        ],
        [
          -111.82180267019,
          40.3720595540601
        ],
        [
          -111.821815291237,
          40.3720586506585
        ],
        [
          -111.822169369393,
          40.3720576439276
        ],
        [
          -111.822249580442,
          40.372055314911
        ],
        [
          -111.822329402157,
          40.3720488660181
        ],
        [
          -111.822408470378,
          40.3720383266689
        ],
        [
          -111.822486424382,
          40.3720237449435
        ],
        [
          -111.822471303041,
          40.372631869541
        ]
      ]
    ]
  }
}