{
  "type": "Feature",
  "properties": {
    "parcel_id": "130580199",
    "owner_name_raw": "UTAH COUNTY",
    "owner_class": "UNCLASSIFIED",
    "epsg": "EPSG:4326"
  },
  "geometry": {
    "type": "Polygon",
    "coordinates": [
      [
        [
          -111.774563372795,
          40.3705564860972
        ],
        [
          -111.774563315303,
          40.3705426393028
        ],
        [
          -111.775196752444,
          40.3706348273356
        ],
        [
          -111.775198433192,
          40.3709447379128
        ],
        [
          -111.77518289593,
          40.3709447741859
        ],
        [
          -111.775181282556,
          40.3706455949969
        ],
        [
          -111.774598595737,
          40.3705615650339
        ],
        [
          -111.774563372795,
          40.3705564860972
        ]
      ]
    ]
  }
}