{
  "type": "Feature",
  "properties": {
    "parcel_id": "130500196",
    "owner_name_raw": "UTAH DEPARTMENT OF TRANSPORTATION",
    "owner_class": "STATE",
    "epsg": "EPSG:4326"
  },
  "geometry": {
    "type": "Polygon",
    "coordinates": [
      [
        [
          -111.800315223433,
          40.3694895450187
        ],
        [
          -111.800315094075,
          40.3694588628469
        ],
        [
          -111.800353106287,
          40.3694834304866
        ],
        [
          -111.800353105388,
          40.3694834845551
        ],
        [
          -111.800362469427,
          40.3694894245623
        ],
        [
          -111.800315223433,
          40.3694895450187
        ]
      ]
    ]
  }
}