{
  "type": "Feature",
  "properties": {
    "parcel_id": "130500187",
    "owner_name_raw": "UTAH TRANSIT AUTHORITY",
    "owner_class": "UTA",
    "epsg": "EPSG:4326"
  },
  "geometry": {
    "type": "Polygon",
    "coordinates": [
      [
        [
          -111.800817144521,
          40.36881190174
        ],
        [
          -111.801281695694,
          40.3688041397514
        ],
        [
          -111.801281902307,
          40.3688799650543
        ],
        [
          -111.800911423609,
          40.3688845130093
        ],
        [
          -111.800817144521,
          40.36881190174
        ]
      ]
    ]
  }
}