{
  "type": "Feature",
  "properties": {
    "parcel_id": "130580188",
    "owner_name_raw": "UTAH COUNTY",
    "owner_class": "UNCLASSIFIED",
    "epsg": "EPSG:4326"
  },
  "geometry": {
    "type": "Polygon",
    "coordinates": [
      [
        [
          -111.775147400799,
          40.3696421535397
        ],
        [
          -111.775151886087,
          40.3695507012594
        ],
        [
          -111.776022270054,
          40.3697119147191
        ],
        [
          -111.77602297613,
          40.3698045638106
        ],
        [
          -111.775147400799,
          40.3696421535397
        ]
      ]
    ]
  }
}