{
  "type": "Feature",
  "properties": {
    "parcel_id": "130580377",
    "owner_name_raw": "UTAH DEPARTMENT OF TRANSPORTATION",
    "owner_class": "STATE",
    "epsg": "EPSG:4326"
  },
  "geometry": {
    "type": "Polygon",
    "coordinates": [
      [
        [
          -111.777961926788,
          40.3720385913209
        ],
        [
          -111.777963185328,
          40.3720138822604
        ],
        [
          -111.778024636382,
          40.3720281674438
        ],
        [
          -111.778234156744,
          40.3720773357447
        ],
        [
          -111.778229387588,
          40.3720891345438
        ],
        [
          -111.77826380025,
          40.3720972814628
        ],
        [
          -111.778268581982,
          40.372085486087
        ],
        [
          -111.778512378462,
          40.3721437895108
        ],
        [
          -111.778547450487,
          40.3721191578243
        ],
        [
          -111.778562562845,
          40.3721198757439
        ],
        [
          -111.778559321724,
          40.3721829191823
        ],
        [
          -111.777961926788,
          40.3720385913209
        ]
      ]
    ]
  }
}