{
  "type": "Feature",
  "properties": {
    "parcel_id": "130660031",
    "owner_name_raw": "UTAH TRANSIT AUTHORITY",
    "owner_class": "UTA",
    "epsg": "EPSG:4326"
  },
  "geometry": {
    "type": "Polygon",
    "coordinates": [
      [
        [
          -111.792960310163,
          40.3611309929049
        ],
        [
          -111.792960765609,
          40.3609727282728
        ],
        [
          -111.795149886295,
          40.3631756016736
        ],
        [
          -111.79514943534,
          40.363333865241
        ],
        [
          -111.792960310163,
          40.3611309929049
        ]
      ]
    ]
  }
}