{
  "type": "Feature",
  "properties": {
    "parcel_id": "130640035",
    "owner_name_raw": "UTAH DEPARTMENT OF TRANSPORTATION",
    "owner_class": "STATE",
    "epsg": "EPSG:4326"
  },
  "geometry": {
    "type": "Polygon",
    "coordinates": [
      [
        [
          -111.805166255324,
          40.3552889135306
        ],
        [
          -111.805166650583,
          40.3554177721052
        ],
        [
          -111.805057994858,
          40.3554180555107
        ],
        [
          -111.805057097441,
          40.3552169790177
        ],
        [
          -111.805166255324,
          40.3552889135306
        ]
      ]
    ]
  }
}