{
  "type": "Feature",
  "properties": {
    "parcel_id": "130630069",
    "owner_name_raw": "UTAH TRANSIT AUTHORITY",
    "owner_class": "UTA",
    "epsg": "EPSG:4326"
  },
  "geometry": {
    "type": "Polygon",
    "coordinates": [
      [
        [
          -111.781989234107,
          40.350194308756
        ],
        [
          -111.781797156333,
          40.3500016955729
        ],
        [
          -111.781262703655,
          40.3494768446548
        ],
        [
          -111.781061825086,
          40.3492836385987
        ],
        [
          -111.780511915097,
          40.3487558135718
        ],
        [
          -111.780310905374,
          40.3485624774254
        ],
        [
          -111.779786562336,
          40.348047784789
        ],
        [
          -111.779590591263,
          40.3478514445055
        ],
        [
          -111.779390114241,
          40.3476501763457
        ],
        [
          -111.779456533877,
          40.3476510232369
        ],
        [
          -111.781348330169,
          40.3495502736417
        ],
        [
          -111.781989234107,
          40.350194308756
        ]
      ]
    ]
  }
}