{
  "type": "Feature",
  "properties": {
    "parcel_id": "130600048",
    "owner_name_raw": "UTAH DEPARTMENT OF TRANSPORTATION",
    "owner_class": "STATE",
    "epsg": "EPSG:4326"
  },
  "geometry": {
    "type": "Polygon",
    "coordinates": [
      [
        [
          -111.785490867085,
          40.3550525880842
        ],
        [
          -111.785169308841,
          40.3550524470653
        ],
        [
          -111.785169764286,
          40.3549662488322
        ],
        [
          -111.785122416728,
          40.3548770736164
        ],
        [
          -111.785069098424,
          40.354789877293
        ],
        [
          -111.785009951219,
          40.3547048918415
        ],
        [
          -111.784945132465,
          40.3546223433604
        ],
        [
          -111.783958959251,
          40.3537972763312
        ],
        [
          -111.784287945664,
          40.3528623946759
        ],
        [
          -111.785046682516,
          40.3536240091926
        ],
        [
          -111.785068614884,
          40.3545702412963
        ],
        [
          -111.785488070629,
          40.3545592259934
        ],
        [
          -111.785491441108,
          40.3550525654938
        ],
        [
          -111.785490867085,
          40.3550525880842
        ]
      ]
    ]
  }
}