{
  "type": "Feature",
  "properties": {
    "parcel_id": "130630073",
    "owner_name_raw": "UTAH DEPARTMENT OF TRANSPORTATION (ET AL)",
    "owner_class": "STATE",
    "epsg": "EPSG:4326"
  },
  "geometry": {
    "type": "Polygon",
    "coordinates": [
      [
        [
          -111.774124732628,
          40.3537452838457
        ],
        [
          -111.774315000297,
          40.3538640739758
        ],
        [
          -111.774315634507,
          40.3538507173274
        ],
        [
          -111.774590470475,
          40.3540268645475
        ],
        [
          -111.774590601629,
          40.354026819366
        ],
        [
          -111.776135267337,
          40.3550167939046
        ],
        [
          -111.776036653878,
          40.3550170266544
        ],
        [
          -111.774673552961,
          40.3541432109611
        ],
        [
          -111.774121056722,
          40.3538222611061
        ],
        [
          -111.774124732628,
          40.3537452838457
        ]
      ]
    ]
  }
}