{
  "type": "Feature",
  "properties": {
    "parcel_id": "130600017",
    "owner_name_raw": "UTAH COUNTY",
    "owner_class": "UNCLASSIFIED",
    "epsg": "EPSG:4326"
  },
  "geometry": {
    "type": "Polygon",
    "coordinates": [
      [
        [
          -111.78548793678,
          40.3479696226891
        ],
        [
          -111.785691161749,
          40.3479691256478
        ],
        [
          -111.785667086001,
          40.3479692002724
        ],
        [
          -111.785682947554,
          40.3495753784282
        ],
        [
          -111.785494638212,
          40.3495758384886
        ],
        [
          -111.78548793678,
          40.3479696226891
        ]
      ]
    ]
  }
}