{
  "type": "Feature",
  "properties": {
    "parcel_id": "130640039",
    "owner_name_raw": "UTAH DEPARTMENT OF TRANSPORTATION",
    "owner_class": "STATE",
    "epsg": "EPSG:4326"
  },
  "geometry": {
    "type": "Polygon",
    "coordinates": [
      [
        [
          -111.805057095644,
          40.3552170173528
        ],
        [
          -111.805054990892,
          40.3547451345746
        ],
        [
          -111.805172264155,
          40.3548129923489
        ],
        [
          -111.805231548472,
          40.3548663586075
        ],
        [
          -111.806770198162,
          40.3554135860555
        ],
        [
          -111.805166649685,
          40.3554177871654
        ],
        [
          -111.805166254426,
          40.3552889409128
        ],
        [
          -111.805057095644,
          40.3552170173528
        ]
      ]
    ]
  }
}