{
  "type": "Feature",
  "properties": {
    "parcel_id": "130630077",
    "owner_name_raw": "UTAH DEPARTMENT OF TRANSPORTATION",
    "owner_class": "STATE",
    "epsg": "EPSG:4326"
  },
  "geometry": {
    "type": "Polygon",
    "coordinates": [
      [
        [
          -111.776036866779,
          40.3550171676735
        ],
        [
          -111.776135299676,
          40.3550169349236
        ],
        [
          -111.776351834084,
          40.3551727539242
        ],
        [
          -111.776279847589,
          40.3551729236942
        ],
        [
          -111.776036866779,
          40.3550171676735
        ]
      ]
    ]
  }
}