{
  "type": "Feature",
  "properties": {
    "parcel_id": "130600061",
    "owner_name_raw": "UTAH DEPARTMENT OF TRANSPORTATION",
    "owner_class": "STATE",
    "epsg": "EPSG:4326"
  },
  "geometry": {
    "type": "Polygon",
    "coordinates": [
      [
        [
          -111.78566753426,
          40.3495742043158
        ],
        [
          -111.788048427292,
          40.3496100458843
        ],
        [
          -111.788023167565,
          40.3505741832956
        ],
        [
          -111.787742393889,
          40.3505090166151
        ],
        [
          -111.787462807957,
          40.3504409485626
        ],
        [
          -111.787184461384,
          40.3503699916959
        ],
        [
          -111.786907405559,
          40.3502961591058
        ],
        [
          -111.786631691631,
          40.3502194644135
        ],
        [
          -111.786357370501,
          40.3501399217685
        ],
        [
          -111.786084492814,
          40.3500575458456
        ],
        [
          -111.785813108947,
          40.3499723518426
        ],
        [
          -111.785728750853,
          40.3499453713729
        ],
        [
          -111.785667169544,
          40.3499851560948
        ],
        [
          -111.78566753426,
          40.3495742043158
        ]
      ]
    ]
  }
}