{
  "type": "Feature",
  "properties": {
    "parcel_id": "130710016",
    "owner_name_raw": "WOODSIDE HOMES OF UTAH LLC",
    "owner_class": "UNCLASSIFIED",
    "epsg": "EPSG:4326"
  },
  "geometry": {
    "type": "Polygon",
    "coordinates": [
      [
        [
          -111.811863280209,
          40.3494117042259
        ],
        [
          -111.811860935606,
          40.3488955872135
        ],
        [
          -111.812748676821,
          40.3488932163725
        ],
        [
          -111.812751088798,
          40.3494209704933
        ],
        [
          -111.811863280209,
          40.3494117042259
        ]
      ]
    ]
  }
}