{
  "type": "Feature",
  "properties": {
    "parcel_id": "130790031",
    "owner_name_raw": "UTAH TRANSIT AUTHORITY",
    "owner_class": "UTA",
    "epsg": "EPSG:4326"
  },
  "geometry": {
    "type": "Polygon",
    "coordinates": [
      [
        [
          -111.779497917465,
          40.3476015865427
        ],
        [
          -111.779388950923,
          40.3474921874712
        ],
        [
          -111.779450145058,
          40.3474565070358
        ],
        [
          -111.779594713632,
          40.3476015605266
        ],
        [
          -111.779497917465,
          40.3476015865427
        ]
      ]
    ]
  }
}