{
  "type": "Feature",
  "properties": {
    "parcel_id": "130720036",
    "owner_name_raw": "State",
    "owner_class": "STATE",
    "epsg": "EPSG:4326"
  },
  "geometry": {
    "type": "Polygon",
    "coordinates": [
      [
        [
          -111.828761473747,
          40.3616928792134
        ],
        [
          -111.828779075337,
          40.3600483752584
        ],
        [
          -111.828778465381,
          40.3600483766274
        ],
        [
          -111.828838463859,
          40.3544423292235
        ],
        [
          -111.83009644482,
          40.3544387845498
        ],
        [
          -111.830098051906,
          40.3547718612057
        ],
        [
          -111.831436276676,
          40.3550364236136
        ],
        [
          -111.833054612322,
          40.3553066483109
        ],
        [
          -111.833377043728,
          40.3554866033225
        ],
        [
          -111.833537991284,
          40.3555548060498
        ],
        [
          -111.83354841264,
          40.3576929198277
        ],
        [
          -111.833475553881,
          40.3576931265561
        ],
        [
          -111.833432759937,
          40.3617411932813
        ],
        [
          -111.833363597745,
          40.3617404766201
        ],
        [
          -111.833289408581,
          40.3650938513436
        ],
        [
          -111.831333389033,
          40.3650770096152
        ],
        [
          -111.831336204353,
          40.3648651317443
        ],
        [
          -111.831268907064,
          40.3648626327866
        ],
        [
          -111.831273384267,
          40.3646604065041
        ],
        [
          -111.831326930146,
          40.3617240823951
        ],
        [
          -111.830054298562,
          40.3617101612301
        ],
        [
          -111.830054398274,
          40.3617064293882
        ],
        [
          -111.82876148812,
          40.3616929777801
        ],
        [
          -111.828761473747,
          40.3616928792134
        ]
      ]
    ]
  }
}