{
  "type": "Feature",
  "properties": {
    "parcel_id": "130750031",
    "owner_name_raw": "UTAH LAKE DEVELOPMENT PROPERTIES LLC",
    "owner_class": "UNCLASSIFIED",
    "epsg": "EPSG:4326"
  },
  "geometry": {
    "type": "Polygon",
    "coordinates": [
      [
        [
          -111.803358805447,
          40.344795008681
        ],
        [
          -111.805196623771,
          40.3450491472624
        ],
        [
          -111.806321448356,
          40.3453566867415
        ],
        [
          -111.80586348902,
          40.3463297511294
        ],
        [
          -111.805221961652,
          40.346092418661
        ],
        [
          -111.803358805447,
          40.344795008681
        ]
      ]
    ]
  }
}