{
  "type": "Feature",
  "properties": {
    "parcel_id": "140030507",
    "owner_name_raw": "UTAH DEPARTMENT OF TRANSPORTATION",
    "owner_class": "STATE",
    "epsg": "EPSG:4326"
  },
  "geometry": {
    "type": "Polygon",
    "coordinates": [
      [
        [
          -111.773282079654,
          40.4156415102511
        ],
        [
          -111.773280975624,
          40.415421973915
        ],
        [
          -111.773068933691,
          40.4154224684071
        ],
        [
          -111.773253351531,
          40.4153179307891
        ],
        [
          -111.773250772468,
          40.4148047389756
        ],
        [
          -111.773274369414,
          40.4143604333388
        ],
        [
          -111.773394118434,
          40.4143593232789
        ],
        [
          -111.773400558457,
          40.4156411621243
        ],
        [
          -111.773282079654,
          40.4156415102511
        ]
      ]
    ]
  }
}