{
  "type": "Feature",
  "properties": {
    "parcel_id": "140030374",
    "owner_name_raw": "UTAH DEPARTMENT OF TRANSPORTATION",
    "owner_class": "STATE",
    "epsg": "EPSG:4326"
  },
  "geometry": {
    "type": "Polygon",
    "coordinates": [
      [
        [
          -111.773390577276,
          40.4136541702868
        ],
        [
          -111.773393044049,
          40.4142716182316
        ],
        [
          -111.773269645174,
          40.4142719054933
        ],
        [
          -111.773272068828,
          40.4136544493436
        ],
        [
          -111.773390577276,
          40.4136541702868
        ]
      ]
    ]
  }
}