{
  "type": "Feature",
  "properties": {
    "parcel_id": "140030412",
    "owner_name_raw": "UTAH DEPARTMENT OF TRANSPORTATION",
    "owner_class": "STATE",
    "epsg": "EPSG:4326"
  },
  "geometry": {
    "type": "Polygon",
    "coordinates": [
      [
        [
          -111.773237275281,
          40.4100007922404
        ],
        [
          -111.773148816378,
          40.4100009981244
        ],
        [
          -111.773148699597,
          40.4099719370159
        ],
        [
          -111.773156149326,
          40.4099715286678
        ],
        [
          -111.773237176466,
          40.4099713398837
        ],
        [
          -111.773237300434,
          40.4100008141284
        ],
        [
          -111.773237275281,
          40.4100007922404
        ]
      ]
    ]
  }
}