{
  "type": "Feature",
  "properties": {
    "parcel_id": "140170066",
    "owner_name_raw": "BOARD OF EDUCATION OF ALPINE SCHOOL DISTRICT",
    "owner_class": "SCHOOL_DISTRICT",
    "epsg": "EPSG:4326"
  },
  "geometry": {
    "type": "Polygon",
    "coordinates": [
      [
        [
          -111.773121565086,
          40.3794358770597
        ],
        [
          -111.773122141804,
          40.3794359146968
        ],
        [
          -111.773145023691,
          40.3811202402564
        ],
        [
          -111.769240646327,
          40.3811511963102
        ],
        [
          -111.769237622598,
          40.3794088228418
        ],
        [
          -111.77030209926,
          40.3794177838898
        ],
        [
          -111.771432960524,
          40.3794237818719
        ],
        [
          -111.771432963219,
          40.3794242766285
        ],
        [
          -111.771447460231,
          40.3794243772221
        ],
        [
          -111.771447470112,
          40.3794268195264
        ],
        [
          -111.772629326039,
          40.3794329139955
        ],
        [
          -111.772629325141,
          40.3794324472958
        ],
        [
          -111.773121565086,
          40.3794358770597
        ]
      ]
    ]
  }
}