{
  "type": "Feature",
  "properties": {
    "parcel_id": "14013000120000",
    "owner_name_raw": "THE UNITED STATES OF AMERICA - US ARMY ENGINEERS DIST",
    "owner_class": "UNCLASSIFIED",
    "epsg": "EPSG:4326"
  },
  "geometry": {
    "type": "Polygon",
    "coordinates": [
      [
        [
          -112.016296051486,
          40.7567279571694
        ],
        [
          -112.016285925676,
          40.7561333792504
        ],
        [
          -112.016271828414,
          40.7549164655795
        ],
        [
          -112.018657813098,
          40.7549166302561
        ],
        [
          -112.018678258754,
          40.7567280422273
        ],
        [
          -112.016296051486,
          40.7567279571694
        ]
      ]
    ]
  }
}