{
  "type": "Feature",
  "properties": {
    "parcel_id": "140100047",
    "owner_name_raw": "METROPOLITAN WATER DISTRICT OF SALT LAKE & SANDY",
    "owner_class": "SPECIAL_DISTRICT",
    "epsg": "EPSG:4326"
  },
  "geometry": {
    "type": "Polygon",
    "coordinates": [
      [
        [
          -111.735146729144,
          40.392137068574
        ],
        [
          -111.735170120376,
          40.3933907850996
        ],
        [
          -111.734874206338,
          40.3929563194969
        ],
        [
          -111.734761492024,
          40.3921375707631
        ],
        [
          -111.732118461609,
          40.38865005261
        ],
        [
          -111.730716515742,
          40.3859644959413
        ],
        [
          -111.72709746038,
          40.3837088242209
        ],
        [
          -111.725639848611,
          40.383886512393
        ],
        [
          -111.724486073121,
          40.3830068549794
        ],
        [
          -111.725285616843,
          40.3830053174153
        ],
        [
          -111.725284124741,
          40.3825525173095
        ],
        [
          -111.726349934503,
          40.3825504603675
        ],
        [
          -111.726349517685,
          40.3824248287184
        ],
        [
          -111.730200530629,
          40.38241731327
        ],
        [
          -111.73121879436,
          40.382907083629
        ],
        [
          -111.731209465717,
          40.3829416913956
        ],
        [
          -111.731202686038,
          40.3829766416518
        ],
        [
          -111.731198476436,
          40.3830118255523
        ],
        [
          -111.731196850022,
          40.3830471335242
        ],
        [
          -111.731197811861,
          40.3830824556082
        ],
        [
          -111.731201358956,
          40.3831176818014
        ],
        [
          -111.731207480263,
          40.3831527023999
        ],
        [
          -111.731216156716,
          40.3831874083398
        ],
        [
          -111.731227361295,
          40.3832216915377
        ],
        [
          -111.731241059107,
          40.3832554452266
        ],
        [
          -111.731257207491,
          40.3832885642889
        ],
        [
          -111.731275756158,
          40.3833209455835
        ],
        [
          -111.731296647341,
          40.3833524882669
        ],
        [
          -111.73131981598,
          40.3833830941075
        ],
        [
          -111.731345189921,
          40.3834126677915
        ],
        [
          -111.731372690141,
          40.3834411172194
        ],
        [
          -111.731745569138,
          40.3838047932861
        ],
        [
          -111.732738442885,
          40.3849684166443
        ],
        [
          -111.733368821263,
          40.3855713732922
        ],
        [
          -111.733415007793,
          40.3856167587394
        ],
        [
          -111.733459620964,
          40.3856630482844
        ],
        [
          -111.733502630285,
          40.3857102102888
        ],
        [
          -111.733544006361,
          40.3857582125176
        ],
        [
          -111.733583720913,
          40.3858070221618
        ],
        [
          -111.733621746799,
          40.3858566058606
        ],
        [
          -111.733658058029,
          40.3859069297242
        ],
        [
          -111.733692629787,
          40.385957959357
        ],
        [
          -111.733724029499,
          40.3860054759924
        ],
        [
          -111.732928501246,
          40.3863106452486
        ],
        [
          -111.733519497482,
          40.3872085531327
        ],
        [
          -111.734206558656,
          40.3869523161723
        ],
        [
          -111.734625987452,
          40.3876098872188
        ],
        [
          -111.734658909528,
          40.3876834162305
        ],
        [
          -111.734695218916,
          40.3877560141173
        ],
        [
          -111.734734870354,
          40.3878275903841
        ],
        [
          -111.734777814413,
          40.3878980558092
        ],
        [
          -111.735031795093,
          40.3881848047754
        ],
        [
          -111.735105908799,
          40.3921575173844
        ],
        [
          -111.735146729144,
          40.392137068574
        ]
      ]
    ]
  }
}