{
  "type": "Feature",
  "properties": {
    "parcel_id": "140210220",
    "owner_name_raw": "UTAH DEPARTMENT OF TRANSPORTATION",
    "owner_class": "STATE",
    "epsg": "EPSG:4326"
  },
  "geometry": {
    "type": "Polygon",
    "coordinates": [
      [
        [
          -111.767150722107,
          40.3695599811851
        ],
        [
          -111.767153691937,
          40.369478445233
        ],
        [
          -111.767544028793,
          40.3695580449871
        ],
        [
          -111.767691933709,
          40.369591632436
        ],
        [
          -111.767702737747,
          40.3695953337273
        ],
        [
          -111.767700541366,
          40.3696848661785
        ],
        [
          -111.767150722107,
          40.3695599811851
        ]
      ]
    ]
  }
}