{
  "type": "Feature",
  "properties": {
    "parcel_id": "14024270040000",
    "owner_name_raw": "UTAH DEPARTMENT OF TRANSPORTAT - RIGHT OF WAY 4TH FL",
    "owner_class": "STATE",
    "epsg": "EPSG:4326"
  },
  "geometry": {
    "type": "Polygon",
    "coordinates": [
      [
        [
          -112.025266450945,
          40.761910644362
        ],
        [
          -112.025396397641,
          40.7620092411835
        ],
        [
          -112.025466785135,
          40.7620089091438
        ],
        [
          -112.025467086969,
          40.7620459866766
        ],
        [
          -112.025391835097,
          40.7620463105513
        ],
        [
          -112.025266768949,
          40.7619523201598
        ],
        [
          -112.025266450945,
          40.761910644362
        ]
      ]
    ]
  }
}