{
  "type": "Feature",
  "properties": {
    "parcel_id": "140250226",
    "owner_name_raw": "UTAH DEPARTMENT OF TRANSPORTATION",
    "owner_class": "STATE",
    "epsg": "EPSG:4326"
  },
  "geometry": {
    "type": "Polygon",
    "coordinates": [
      [
        [
          -111.752119078609,
          40.3660767224182
        ],
        [
          -111.75185487657,
          40.3659298296151
        ],
        [
          -111.751594224429,
          40.3657792998179
        ],
        [
          -111.751242008481,
          40.3655661941955
        ],
        [
          -111.751242836728,
          40.3655423547532
        ],
        [
          -111.751257714036,
          40.3655396201756
        ],
        [
          -111.751271657377,
          40.3655348134659
        ],
        [
          -111.751303395754,
          40.3655209327861
        ],
        [
          -111.751687384216,
          40.3656981022016
        ],
        [
          -111.751685056681,
          40.3658079159449
        ],
        [
          -111.751728819907,
          40.3658384498846
        ],
        [
          -111.75182501438,
          40.3658834032743
        ],
        [
          -111.751922877214,
          40.3659262151218
        ],
        [
          -111.752022326309,
          40.3659668495149
        ],
        [
          -111.752123278233,
          40.366005272368
        ],
        [
          -111.752119078609,
          40.3660767224182
        ]
      ]
    ]
  }
}