{
  "type": "Feature",
  "properties": {
    "parcel_id": "140210231",
    "owner_name_raw": "UTAH DEPARTMENT OF TRANSPORTATION",
    "owner_class": "STATE",
    "epsg": "EPSG:4326"
  },
  "geometry": {
    "type": "Polygon",
    "coordinates": [
      [
        [
          -111.768993491945,
          40.3699070367564
        ],
        [
          -111.768911694948,
          40.3698886522077
        ],
        [
          -111.768968679578,
          40.3698496998345
        ],
        [
          -111.768959988378,
          40.3691884039973
        ],
        [
          -111.769007492188,
          40.3691881316003
        ],
        [
          -111.768993491945,
          40.3699070367564
        ]
      ]
    ]
  }
}