{
  "type": "Feature",
  "properties": {
    "parcel_id": "14022510010000",
    "owner_name_raw": "SALT LAKE CITY CORPORATION - KATHY CHARLES",
    "owner_class": "CITY",
    "epsg": "EPSG:4326"
  },
  "geometry": {
    "type": "Polygon",
    "coordinates": [
      [
        [
          -112.033956286778,
          40.7652978779453
        ],
        [
          -112.033955905892,
          40.7655551812174
        ],
        [
          -112.033711177859,
          40.7655527604503
        ],
        [
          -112.033710720617,
          40.7653665373348
        ],
        [
          -112.033741259743,
          40.7653664937908
        ],
        [
          -112.033956286778,
          40.7652978779453
        ]
      ]
    ]
  }
}