{
  "type": "Feature",
  "properties": {
    "parcel_id": "140210200",
    "owner_name_raw": "UTAH DEPARTMENT OF TRANSPORTATION",
    "owner_class": "STATE",
    "epsg": "EPSG:4326"
  },
  "geometry": {
    "type": "Polygon",
    "coordinates": [
      [
        [
          -111.769490115668,
          40.3700745732708
        ],
        [
          -111.769454775047,
          40.3700662885417
        ],
        [
          -111.769369953422,
          40.369980406537
        ],
        [
          -111.769369731539,
          40.3699634195667
        ],
        [
          -111.769436672197,
          40.3700308110003
        ],
        [
          -111.769489997989,
          40.3700427935784
        ],
        [
          -111.769490115668,
          40.3700745732708
        ]
      ]
    ]
  }
}