{
  "type": "Feature",
  "properties": {
    "parcel_id": "140210181",
    "owner_name_raw": "UTAH DEPARTMENT OF TRANSPORTATION",
    "owner_class": "STATE",
    "epsg": "EPSG:4326"
  },
  "geometry": {
    "type": "Polygon",
    "coordinates": [
      [
        [
          -111.768952284426,
          40.3686223271805
        ],
        [
          -111.769019842227,
          40.3686218398733
        ],
        [
          -111.769008774084,
          40.3691870803396
        ],
        [
          -111.7689596569,
          40.3691874348663
        ],
        [
          -111.768952284426,
          40.3686223271805
        ]
      ]
    ]
  }
}