{
  "type": "Feature",
  "properties": {
    "parcel_id": "140240237",
    "owner_name_raw": "UTAH DEPARTMENT OF TRANSPORTATION",
    "owner_class": "STATE",
    "epsg": "EPSG:4326"
  },
  "geometry": {
    "type": "Polygon",
    "coordinates": [
      [
        [
          -111.760672155821,
          40.3680325411951
        ],
        [
          -111.760672794523,
          40.368002803553
        ],
        [
          -111.760957140955,
          40.3680673784814
        ],
        [
          -111.76185647942,
          40.3683015331727
        ],
        [
          -111.760672155821,
          40.3680325411951
        ]
      ]
    ]
  }
}