{
  "type": "Feature",
  "properties": {
    "parcel_id": "140220357",
    "owner_name_raw": "UTAH DEPARTMENT OF TRANSPORTATION",
    "owner_class": "STATE",
    "epsg": "EPSG:4326"
  },
  "geometry": {
    "type": "Polygon",
    "coordinates": [
      [
        [
          -111.76887760568,
          40.3755952683336
        ],
        [
          -111.768877603883,
          40.3755944204246
        ],
        [
          -111.768882160138,
          40.3755944546421
        ],
        [
          -111.768961369089,
          40.3755428416721
        ],
        [
          -111.768966211906,
          40.375048687861
        ],
        [
          -111.769027672841,
          40.3750492941995
        ],
        [
          -111.769035439675,
          40.3744056983863
        ],
        [
          -111.768986857886,
          40.3744053651023
        ],
        [
          -111.768989621104,
          40.3741233671907
        ],
        [
          -111.769038848782,
          40.3741236580456
        ],
        [
          -111.769042225549,
          40.3738438872548
        ],
        [
          -111.768934977484,
          40.3738431563506
        ],
        [
          -111.768933034428,
          40.3736893713316
        ],
        [
          -111.769056786341,
          40.3736902178958
        ],
        [
          -111.769054315076,
          40.3730619918039
        ],
        [
          -111.768999774762,
          40.3730621177289
        ],
        [
          -111.769005632676,
          40.3723781127692
        ],
        [
          -111.769004104712,
          40.3723652513128
        ],
        [
          -111.768999306648,
          40.3723528654262
        ],
        [
          -111.768991423557,
          40.3723414328699
        ],
        [
          -111.768980759514,
          40.3723313946315
        ],
        [
          -111.768967725863,
          40.3723231379161
        ],
        [
          -111.768952825349,
          40.3723169812098
        ],
        [
          -111.768936632729,
          40.3723131619957
        ],
        [
          -111.768919772599,
          40.3723118275923
        ],
        [
          -111.768922148643,
          40.3721581567927
        ],
        [
          -111.768938997373,
          40.3721569097583
        ],
        [
          -111.768955201838,
          40.3721531794548
        ],
        [
          -111.768970137771,
          40.3721471095892
        ],
        [
          -111.768983229776,
          40.3721389339984
        ],
        [
          -111.768993973492,
          40.3721289676409
        ],
        [
          -111.769001955024,
          40.3721175944632
        ],
        [
          -111.769006866889,
          40.3721052526087
        ],
        [
          -111.769008519861,
          40.3720924175387
        ],
        [
          -111.769172852269,
          40.3720932394851
        ],
        [
          -111.769131995992,
          40.3755972289947
        ],
        [
          -111.76887760568,
          40.3755952683336
        ]
      ]
    ]
  }
}