{
  "type": "Feature",
  "properties": {
    "parcel_id": "140240256",
    "owner_name_raw": "UTAH DEPARTMENT OF TRANSPORTATION",
    "owner_class": "STATE",
    "epsg": "EPSG:4326"
  },
  "geometry": {
    "type": "Polygon",
    "coordinates": [
      [
        [
          -111.75914427244,
          40.3676775379542
        ],
        [
          -111.759144541036,
          40.3677468282267
        ],
        [
          -111.758704539023,
          40.367648177961
        ],
        [
          -111.758710984436,
          40.3675790874408
        ],
        [
          -111.75914427244,
          40.3676775379542
        ]
      ]
    ]
  }
}