{
  "type": "Feature",
  "properties": {
    "parcel_id": "140390060",
    "owner_name_raw": "NORTH UTAH COUNTY WATER CONSERVANCY DISTRICT",
    "owner_class": "SPECIAL_DISTRICT",
    "epsg": "EPSG:4326"
  },
  "geometry": {
    "type": "Polygon",
    "coordinates": [
      [
        [
          -111.703147878137,
          40.3638615371465
        ],
        [
          -111.703158314764,
          40.3643362226553
        ],
        [
          -111.702727766622,
          40.3643369687208
        ],
        [
          -111.702718108834,
          40.3643038933704
        ],
        [
          -111.702603361633,
          40.3642043523676
        ],
        [
          -111.702519231712,
          40.364085876829
        ],
        [
          -111.702514326012,
          40.3638626370875
        ],
        [
          -111.703147878137,
          40.3638615371465
        ]
      ]
    ]
  }
}