{
  "type": "Feature",
  "properties": {
    "parcel_id": "140300057",
    "owner_name_raw": "BOARD OF EDUCATION OF ALPINE SCHOOL DISTRICT",
    "owner_class": "SCHOOL_DISTRICT",
    "epsg": "EPSG:4326"
  },
  "geometry": {
    "type": "Polygon",
    "coordinates": [
      [
        [
          -111.737886928527,
          40.3733914211405
        ],
        [
          -111.737528693866,
          40.3738885298823
        ],
        [
          -111.73698321886,
          40.3738912146531
        ],
        [
          -111.736976033236,
          40.3743028250854
        ],
        [
          -111.736507882513,
          40.3743043977505
        ],
        [
          -111.736507058758,
          40.3732146873631
        ],
        [
          -111.735884333129,
          40.3732236471817
        ],
        [
          -111.735883866903,
          40.3730887098048
        ],
        [
          -111.735943824957,
          40.3730885886704
        ],
        [
          -111.735944061214,
          40.3730558228459
        ],
        [
          -111.736447552557,
          40.3730548058643
        ],
        [
          -111.736580808647,
          40.3728185146358
        ],
        [
          -111.738159295924,
          40.372842002472
        ],
        [
          -111.737886928527,
          40.3733914211405
        ]
      ]
    ]
  }
}