{
  "type": "Feature",
  "properties": {
    "parcel_id": "140360079",
    "owner_name_raw": "UTAH COUNTY",
    "owner_class": "UNCLASSIFIED",
    "epsg": "EPSG:4326"
  },
  "geometry": {
    "type": "Polygon",
    "coordinates": [
      [
        [
          -111.722079905988,
          40.366840412094
        ],
        [
          -111.722079247523,
          40.366816405415
        ],
        [
          -111.722089160432,
          40.3668228227108
        ],
        [
          -111.722090107256,
          40.3668497909519
        ],
        [
          -111.72207987275,
          40.3668533931504
        ],
        [
          -111.722079905988,
          40.366840412094
        ]
      ]
    ]
  }
}