{
  "type": "Feature",
  "properties": {
    "parcel_id": "140300038",
    "owner_name_raw": "BOARD OF EDUCATION OF ALPINE SCHOOL DISTRICT",
    "owner_class": "SCHOOL_DISTRICT",
    "epsg": "EPSG:4326"
  },
  "geometry": {
    "type": "Polygon",
    "coordinates": [
      [
        [
          -111.739286545062,
          40.371367842235
        ],
        [
          -111.73972113203,
          40.3713604596942
        ],
        [
          -111.739722877457,
          40.3717320912921
        ],
        [
          -111.739292787455,
          40.3717347549327
        ],
        [
          -111.739288918411,
          40.3713693075191
        ],
        [
          -111.739286545062,
          40.371367842235
        ]
      ]
    ]
  }
}