{
  "type": "Feature",
  "properties": {
    "parcel_id": "140450095",
    "owner_name_raw": "Federal",
    "owner_class": "UNCLASSIFIED",
    "epsg": "EPSG:4326"
  },
  "geometry": {
    "type": "Polygon",
    "coordinates": [
      [
        [
          -111.696390257395,
          40.351907533312
        ],
        [
          -111.696388326916,
          40.3520065016709
        ],
        [
          -111.69636621758,
          40.3531150577167
        ],
        [
          -111.696311083479,
          40.3531151508192
        ],
        [
          -111.696307620474,
          40.3519076743375
        ],
        [
          -111.696390257395,
          40.351907533312
        ]
      ]
    ]
  }
}