{
  "type": "Feature",
  "properties": {
    "parcel_id": "140580026",
    "owner_name_raw": "UTAH DEPARTMENT OF TRANSPORTATION",
    "owner_class": "STATE",
    "epsg": "EPSG:4326"
  },
  "geometry": {
    "type": "Polygon",
    "coordinates": [
      [
        [
          -111.762940476474,
          40.3403493741084
        ],
        [
          -111.769552853109,
          40.3403461669395
        ],
        [
          -111.769551724825,
          40.3406772727786
        ],
        [
          -111.769347510812,
          40.3406775288579
        ],
        [
          -111.769349408952,
          40.341585442918
        ],
        [
          -111.76934873252,
          40.3417215340747
        ],
        [
          -111.769311494657,
          40.3417113184492
        ],
        [
          -111.769315387057,
          40.3405690120965
        ],
        [
          -111.769314390353,
          40.3405609775317
        ],
        [
          -111.769311353529,
          40.3405532461955
        ],
        [
          -111.769306393616,
          40.3405461160312
        ],
        [
          -111.769299701755,
          40.3405398618148
        ],
        [
          -111.769291535829,
          40.3405347245658
        ],
        [
          -111.769282210531,
          40.340530902259
        ],
        [
          -111.769272085229,
          40.3405285421954
        ],
        [
          -111.769261550124,
          40.3405277353249
        ],
        [
          -111.762835802082,
          40.3405308438876
        ],
        [
          -111.762940476474,
          40.3403493741084
        ]
      ]
    ]
  }
}