{
  "type": "Feature",
  "properties": {
    "parcel_id": "140510160",
    "owner_name_raw": "UTAH DEPARTMENT OF TRANSPORTATION",
    "owner_class": "STATE",
    "epsg": "EPSG:4326"
  },
  "geometry": {
    "type": "Polygon",
    "coordinates": [
      [
        [
          -111.746491367814,
          40.3609335585524
        ],
        [
          -111.746087119648,
          40.3607013571567
        ],
        [
          -111.746193370867,
          40.3607569443229
        ],
        [
          -111.746298106544,
          40.3608141770528
        ],
        [
          -111.74640128279,
          40.3608730313586
        ],
        [
          -111.746502856368,
          40.3609334825731
        ],
        [
          -111.746491367814,
          40.3609335585524
        ]
      ]
    ]
  }
}