{
  "type": "Feature",
  "properties": {
    "parcel_id": "140500048",
    "owner_name_raw": "UTAH DEPARTMENT OF TRANSPORTATION",
    "owner_class": "STATE",
    "epsg": "EPSG:4326"
  },
  "geometry": {
    "type": "Polygon",
    "coordinates": [
      [
        [
          -111.755792323942,
          40.3505940799239
        ],
        [
          -111.755792872812,
          40.3507395168899
        ],
        [
          -111.74415918503,
          40.3509343974142
        ],
        [
          -111.744157518655,
          40.3507889841449
        ],
        [
          -111.755792323942,
          40.3505940799239
        ]
      ]
    ]
  }
}