{
  "type": "Feature",
  "properties": {
    "parcel_id": "140540126",
    "owner_name_raw": "UTAH DEPARTMENT OF TRANSPORTATION",
    "owner_class": "STATE",
    "epsg": "EPSG:4326"
  },
  "geometry": {
    "type": "Polygon",
    "coordinates": [
      [
        [
          -111.772110076449,
          40.3513821002589
        ],
        [
          -111.771753831557,
          40.3511537715975
        ],
        [
          -111.770843698037,
          40.3503326376362
        ],
        [
          -111.770268587609,
          40.3497319671836
        ],
        [
          -111.772109850972,
          40.3513205243074
        ],
        [
          -111.772110076449,
          40.3513821002589
        ]
      ]
    ]
  }
}