{
  "type": "Feature",
  "properties": {
    "parcel_id": "140610110",
    "owner_name_raw": "UTAH DEPARTMENT OF TRANSPORTATION",
    "owner_class": "STATE",
    "epsg": "EPSG:4326"
  },
  "geometry": {
    "type": "Polygon",
    "coordinates": [
      [
        [
          -111.760376763705,
          40.3403503463928
        ],
        [
          -111.761256848578,
          40.3403499383072
        ],
        [
          -111.7613178408,
          40.3403969790035
        ],
        [
          -111.761380352537,
          40.3404428461619
        ],
        [
          -111.761444344937,
          40.3404875112777
        ],
        [
          -111.76150977823,
          40.3405309465935
        ],
        [
          -111.760556566,
          40.3405313882284
        ],
        [
          -111.760464407105,
          40.3404421700662
        ],
        [
          -111.760376763705,
          40.3403503463928
        ]
      ]
    ]
  }
}