{
  "type": "Feature",
  "properties": {
    "parcel_id": "140650167",
    "owner_name_raw": "UTAH PACIFIC INVESTMENT COMPANY LLC",
    "owner_class": "UNCLASSIFIED",
    "epsg": "EPSG:4326"
  },
  "geometry": {
    "type": "Polygon",
    "coordinates": [
      [
        [
          -111.741941927313,
          40.3421973792106
        ],
        [
          -111.743294396669,
          40.3394488499912
        ],
        [
          -111.743965433694,
          40.3392298040615
        ],
        [
          -111.743965516339,
          40.3392465707647
        ],
        [
          -111.744085789078,
          40.3392036108296
        ],
        [
          -111.744091688314,
          40.3408576694323
        ],
        [
          -111.745112788925,
          40.340855532477
        ],
        [
          -111.745072471636,
          40.3414586907412
        ],
        [
          -111.745060587823,
          40.3414614267864
        ],
        [
          -111.745014105397,
          40.342146807413
        ],
        [
          -111.743870650652,
          40.3422335197997
        ],
        [
          -111.743870132324,
          40.342088317827
        ],
        [
          -111.741941927313,
          40.3421973792106
        ]
      ]
    ]
  }
}