{
  "type": "Feature",
  "properties": {
    "parcel_id": "140650024",
    "owner_name_raw": "UTAH PACIFIC INVESTMENT COMPANY LLC",
    "owner_class": "UNCLASSIFIED",
    "epsg": "EPSG:4326"
  },
  "geometry": {
    "type": "Polygon",
    "coordinates": [
      [
        [
          -111.743965439982,
          40.3392204220461
        ],
        [
          -111.743900985861,
          40.3392463297438
        ],
        [
          -111.743816513681,
          40.3392762197525
        ],
        [
          -111.743251433842,
          40.3394478496205
        ],
        [
          -111.743148903728,
          40.3396556888086
        ],
        [
          -111.740969466882,
          40.3396821057665
        ],
        [
          -111.740961876118,
          40.3393604948118
        ],
        [
          -111.743308621491,
          40.3393320468557
        ],
        [
          -111.743965336676,
          40.3391995620866
        ],
        [
          -111.743965439982,
          40.3392204220461
        ]
      ]
    ]
  }
}