{
  "type": "Feature",
  "properties": {
    "parcel_id": "140650189",
    "owner_name_raw": "D&L REALTY UTAH INC",
    "owner_class": "UNCLASSIFIED",
    "epsg": "EPSG:4326"
  },
  "geometry": {
    "type": "Polygon",
    "coordinates": [
      [
        [
          -111.736961711395,
          40.3418088584385
        ],
        [
          -111.736909567786,
          40.3418211746854
        ],
        [
          -111.736694328749,
          40.3406788879952
        ],
        [
          -111.735820697372,
          40.3407558452496
        ],
        [
          -111.735825868973,
          40.3401237825406
        ],
        [
          -111.735822522749,
          40.3399893882981
        ],
        [
          -111.737246754021,
          40.3399007174898
        ],
        [
          -111.737214416468,
          40.3397180484514
        ],
        [
          -111.737917099344,
          40.3396687873922
        ],
        [
          -111.738062379383,
          40.3404893924926
        ],
        [
          -111.739713323874,
          40.3403439272618
        ],
        [
          -111.739739057912,
          40.3404797518335
        ],
        [
          -111.738584568261,
          40.3405814771507
        ],
        [
          -111.738743191876,
          40.3414231577473
        ],
        [
          -111.738734827662,
          40.3414272597632
        ],
        [
          -111.738421404561,
          40.3415032370493
        ],
        [
          -111.73842264783,
          40.3415098361448
        ],
        [
          -111.73825043001,
          40.3415516744502
        ],
        [
          -111.736970301086,
          40.341854437031
        ],
        [
          -111.736961711395,
          40.3418088584385
        ]
      ]
    ]
  }
}