{
  "type": "Feature",
  "properties": {
    "parcel_id": "140610108",
    "owner_name_raw": "UTAH DEPARTMENT OF TRANSPORTATION",
    "owner_class": "STATE",
    "epsg": "EPSG:4326"
  },
  "geometry": {
    "type": "Polygon",
    "coordinates": [
      [
        [
          -111.759966191595,
          40.3403095004466
        ],
        [
          -111.759967209223,
          40.3403175290921
        ],
        [
          -111.759970258087,
          40.3403252372422
        ],
        [
          -111.759975221014,
          40.3403323440255
        ],
        [
          -111.759981907338,
          40.3403385764141
        ],
        [
          -111.759990060186,
          40.3403436949724
        ],
        [
          -111.75999936634,
          40.3403475030562
        ],
        [
          -111.760009468277,
          40.3403498543666
        ],
        [
          -111.760019977902,
          40.3403506585714
        ],
        [
          -111.760020019349,
          40.3403506586193
        ],
        [
          -111.760376945164,
          40.3403505045601
        ],
        [
          -111.760377028673,
          40.3403505956057
        ],
        [
          -111.760464757721,
          40.3404424763417
        ],
        [
          -111.760556996491,
          40.3405317541791
        ],
        [
          -111.76055708882,
          40.340531840134
        ],
        [
          -111.760557065464,
          40.340531863414
        ],
        [
          -111.76001862696,
          40.3405320975833
        ],
        [
          -111.760018586025,
          40.340532097681
        ],
        [
          -111.760008186153,
          40.340532897817
        ],
        [
          -111.759998184279,
          40.3405352124605
        ],
        [
          -111.759988956328,
          40.3405389546145
        ],
        [
          -111.759980849133,
          40.340543983629
        ],
        [
          -111.759974167408,
          40.3405501104865
        ],
        [
          -111.759969162286,
          40.340557104907
        ],
        [
          -111.759966021886,
          40.3405647040029
        ],
        [
          -111.759964864044,
          40.3405726221586
        ],
        [
          -111.759966191595,
          40.3403095004466
        ]
      ]
    ]
  }
}