{
  "type": "Feature",
  "properties": {
    "parcel_id": "140740222",
    "owner_name_raw": "METROPOLITAN WATER DISTRICT OF SALT LAKE & SANDY",
    "owner_class": "SPECIAL_DISTRICT",
    "epsg": "EPSG:4326"
  },
  "geometry": {
    "type": "Polygon",
    "coordinates": [
      [
        [
          -111.695361274068,
          40.3484837216676
        ],
        [
          -111.69360578634,
          40.3484851525333
        ],
        [
          -111.688550279025,
          40.3451714492606
        ],
        [
          -111.688949805646,
          40.3448168624087
        ],
        [
          -111.689104601539,
          40.3448173396181
        ],
        [
          -111.690495311278,
          40.3457289478054
        ],
        [
          -111.690705389494,
          40.345541320533
        ],
        [
          -111.690993044421,
          40.3455853314843
        ],
        [
          -111.692392049203,
          40.3465023270323
        ],
        [
          -111.692088659386,
          40.3467732993244
        ],
        [
          -111.693851975033,
          40.3479290309684
        ],
        [
          -111.694429051874,
          40.3480346310081
        ],
        [
          -111.694492028267,
          40.3479140129155
        ],
        [
          -111.695361274068,
          40.3484837216676
        ]
      ]
    ]
  }
}