{
  "type": "Feature",
  "properties": {
    "parcel_id": "14113000070000",
    "owner_name_raw": "SALT LAKE COUNTY & SALT LAKE C - REAL ESTATE DEPT # S3200",
    "owner_class": "COUNTY",
    "epsg": "EPSG:4326"
  },
  "geometry": {
    "type": "Polygon",
    "coordinates": [
      [
        [
          -112.044098387608,
          40.7505406277662
        ],
        [
          -112.039310420145,
          40.7503498785888
        ],
        [
          -112.039310426433,
          40.750417535349
        ],
        [
          -112.034525550072,
          40.7502341130834
        ],
        [
          -112.030794543066,
          40.7500909519151
        ],
        [
          -112.030799048118,
          40.7487371477445
        ],
        [
          -112.030807406941,
          40.7462247120973
        ],
        [
          -112.030997959376,
          40.7461459652405
        ],
        [
          -112.030808526242,
          40.7458764392665
        ],
        [
          -112.030826877925,
          40.740355540287
        ],
        [
          -112.034539230515,
          40.7403537944688
        ],
        [
          -112.044105460045,
          40.7403500966009
        ],
        [
          -112.053695841678,
          40.7403429894521
        ],
        [
          -112.053695718609,
          40.7403676310132
        ],
        [
          -112.053678265242,
          40.7438915838165
        ],
        [
          -112.053660241444,
          40.7475304486179
        ],
        [
          -112.053643512118,
          40.7509075674154
        ],
        [
          -112.044098387608,
          40.7505406277662
        ]
      ]
    ]
  }
}