{
  "type": "Feature",
  "properties": {
    "parcel_id": "14114270190000",
    "owner_name_raw": "UTAH DEPARTMENT OF TRANSPORTAT - FOURTH FLOOR",
    "owner_class": "STATE",
    "epsg": "EPSG:4326"
  },
  "geometry": {
    "type": "Polygon",
    "coordinates": [
      [
        [
          -112.025069599524,
          40.7444527004854
        ],
        [
          -112.025067903504,
          40.7434646127122
        ],
        [
          -112.025105282403,
          40.7434645766404
        ],
        [
          -112.025097327821,
          40.7436192296714
        ],
        [
          -112.025097561383,
          40.7437907311733
        ],
        [
          -112.025115424383,
          40.7444526582889
        ],
        [
          -112.025069599524,
          40.7444527004854
        ]
      ]
    ]
  }
}