{
  "type": "Feature",
  "properties": {
    "parcel_id": "14121030080000",
    "owner_name_raw": "SALT LAKE CITY CORPORATION",
    "owner_class": "CITY",
    "epsg": "EPSG:4326"
  },
  "geometry": {
    "type": "Polygon",
    "coordinates": [
      [
        [
          -112.023793510323,
          40.7473749689553
        ],
        [
          -112.024476066446,
          40.7473732621131
        ],
        [
          -112.024476188617,
          40.7474007165416
        ],
        [
          -112.024082820845,
          40.7474017190047
        ],
        [
          -112.023793510323,
          40.7473749689553
        ]
      ]
    ]
  }
}