{
  "type": "Feature",
  "properties": {
    "parcel_id": "15011310120000",
    "owner_name_raw": "STATE BOARD OF REGENTS LOAN PU - BOB MCRAE",
    "owner_class": "STATE",
    "epsg": "EPSG:4326"
  },
  "geometry": {
    "type": "Polygon",
    "coordinates": [
      [
        [
          -111.902915146578,
          40.768061874303
        ],
        [
          -111.902975728063,
          40.7680616667971
        ],
        [
          -111.902975976896,
          40.7681035394401
        ],
        [
          -111.902915394513,
          40.7681037462656
        ],
        [
          -111.902915146578,
          40.768061874303
        ]
      ]
    ]
  }
}