{
  "type": "Feature",
  "properties": {
    "parcel_id": "15013530030000",
    "owner_name_raw": "UTAH TRANSIT AUTHORITY - PROPERTY MANAGEMENT",
    "owner_class": "UTA",
    "epsg": "EPSG:4326"
  },
  "geometry": {
    "type": "Polygon",
    "coordinates": [
      [
        [
          -111.908245450335,
          40.7550912893116
        ],
        [
          -111.908310378767,
          40.7550259570661
        ],
        [
          -111.908333163636,
          40.7550152197592
        ],
        [
          -111.908348922781,
          40.7550074364185
        ],
        [
          -111.908364499568,
          40.7549994462107
        ],
        [
          -111.908379893099,
          40.7549912504965
        ],
        [
          -111.908395096187,
          40.7549828513176
        ],
        [
          -111.908410101645,
          40.754974250715
        ],
        [
          -111.908424908576,
          40.7549654527718
        ],
        [
          -111.908439511589,
          40.7549564602097
        ],
        [
          -111.908453905295,
          40.7549472743897
        ],
        [
          -111.908468087897,
          40.7549379000749
        ],
        [
          -111.908482050411,
          40.7549283372654
        ],
        [
          -111.908491342585,
          40.7549217474796
        ],
        [
          -111.908495793737,
          40.7549185927658
        ],
        [
          -111.908509309789,
          40.7549086665761
        ],
        [
          -111.90852259677,
          40.7548985614182
        ],
        [
          -111.908535649291,
          40.7548882827357
        ],
        [
          -111.908548464657,
          40.7548778325702
        ],
        [
          -111.908561038376,
          40.7548672122824
        ],
        [
          -111.908573365058,
          40.7548564286771
        ],
        [
          -111.908585442907,
          40.7548454817542
        ],
        [
          -111.90859726833,
          40.7548343755966
        ],
        [
          -111.908608836834,
          40.7548231163285
        ],
        [
          -111.908620145725,
          40.7548117032693
        ],
        [
          -111.908631188715,
          40.7548001432238
        ],
        [
          -111.9086419676,
          40.7547884375529
        ],
        [
          -111.908652473397,
          40.7547765910199
        ],
        [
          -111.908662707903,
          40.7547646070271
        ],
        [
          -111.90867266483,
          40.7547524889769
        ],
        [
          -111.90868234238,
          40.7547402395912
        ],
        [
          -111.908691736962,
          40.7547278649942
        ],
        [
          -111.908700847675,
          40.7547153679077
        ],
        [
          -111.908709668233,
          40.7547027496927
        ],
        [
          -111.908718198635,
          40.7546900178345
        ],
        [
          -111.90872643439,
          40.754677173694
        ],
        [
          -111.908734376395,
          40.7546642240758
        ],
        [
          -111.908742018363,
          40.7546511696606
        ],
        [
          -111.908749359396,
          40.7546380165724
        ],
        [
          -111.908756397696,
          40.7546247675333
        ],
        [
          -111.908763131467,
          40.7546114266261
        ],
        [
          -111.908769557116,
          40.7545979986141
        ],
        [
          -111.908775675542,
          40.7545844882606
        ],
        [
          -111.908781208266,
          40.754571537944
        ],
        [
          -111.908781481354,
          40.7545708976072
        ],
        [
          -111.908786974552,
          40.754557232778
        ],
        [
          -111.908792153339,
          40.7545434958146
        ],
        [
          -111.90879701592,
          40.7545296935216
        ],
        [
          -111.908801562293,
          40.7545158293016
        ],
        [
          -111.90880578707,
          40.7545019058764
        ],
        [
          -111.908809693843,
          40.7544879286899
        ],
        [
          -111.90881327902,
          40.7544739018249
        ],
        [
          -111.90882701965,
          40.7544096448227
        ],
        [
          -111.908826246201,
          40.7552046075239
        ],
        [
          -111.908826243506,
          40.7552064352903
        ],
        [
          -111.908825362259,
          40.7561121172992
        ],
        [
          -111.908485534976,
          40.7561123595464
        ],
        [
          -111.908246125868,
          40.7561125296638
        ],
        [
          -111.908245450335,
          40.7550912893116
        ]
      ]
    ]
  }
}