{
  "type": "Feature",
  "properties": {
    "parcel_id": "15011260140000",
    "owner_name_raw": "SALT LAKE CITY CORPORATION - PROPERTY MANAGEMENT",
    "owner_class": "CITY",
    "epsg": "EPSG:4326"
  },
  "geometry": {
    "type": "Polygon",
    "coordinates": [
      [
        [
          -111.904934394047,
          40.7716928390872
        ],
        [
          -111.904898264705,
          40.7716929520187
        ],
        [
          -111.904898205416,
          40.7714843903716
        ],
        [
          -111.904941527569,
          40.7714843754047
        ],
        [
          -111.904941547332,
          40.7713321335881
        ],
        [
          -111.904941562603,
          40.7712132717694
        ],
        [
          -111.904941673994,
          40.770357734705
        ],
        [
          -111.90494235312,
          40.7696898547396
        ],
        [
          -111.90494288672,
          40.7691654354352
        ],
        [
          -111.904942915466,
          40.7691370790238
        ],
        [
          -111.904941086496,
          40.7682592835879
        ],
        [
          -111.904940327419,
          40.7673531323108
        ],
        [
          -111.905151550987,
          40.7673530282165
        ],
        [
          -111.905155192757,
          40.7682591883395
        ],
        [
          -111.905158834527,
          40.7691649768887
        ],
        [
          -111.905158836324,
          40.7691653463112
        ],
        [
          -111.905159065395,
          40.7692315511371
        ],
        [
          -111.90513846433,
          40.7692531000753
        ],
        [
          -111.905122027855,
          40.7692766274204
        ],
        [
          -111.905110078465,
          40.7693016705427
        ],
        [
          -111.905102852417,
          40.769327738239
        ],
        [
          -111.905100490746,
          40.7693543175365
        ],
        [
          -111.905103036572,
          40.7693808872986
        ],
        [
          -111.905110443181,
          40.7694069257096
        ],
        [
          -111.905122566845,
          40.7694319204791
        ],
        [
          -111.905139165016,
          40.7694553824489
        ],
        [
          -111.905159915201,
          40.7694768483139
        ],
        [
          -111.905160098457,
          40.7695297659412
        ],
        [
          -111.905161224944,
          40.771341974327
        ],
        [
          -111.905156230311,
          40.7716921458511
        ],
        [
          -111.904934394047,
          40.7716928390872
        ]
      ]
    ]
  }
}