{
  "type": "Feature",
  "properties": {
    "parcel_id": "15014310010000",
    "owner_name_raw": "UNITED STATES OF AMERICA - GENERAL SERVICES ADMIN",
    "owner_class": "UNCLASSIFIED",
    "epsg": "EPSG:4326"
  },
  "geometry": {
    "type": "Polygon",
    "coordinates": [
      [
        [
          -111.892741485237,
          40.7616487539247
        ],
        [
          -111.892741271438,
          40.7612863289253
        ],
        [
          -111.892840552345,
          40.7612862942241
        ],
        [
          -111.893078820593,
          40.7612862105329
        ],
        [
          -111.893716011793,
          40.7612859853149
        ],
        [
          -111.893716160914,
          40.7616481503984
        ],
        [
          -111.892741485237,
          40.7616487539247
        ]
      ]
    ]
  }
}