{
  "type": "Feature",
  "properties": {
    "parcel_id": "15012770260000",
    "owner_name_raw": "SALT LAKE COUNTY - REAL ESTATE DEPT # S3200",
    "owner_class": "COUNTY",
    "epsg": "EPSG:4326"
  },
  "geometry": {
    "type": "Polygon",
    "coordinates": [
      [
        [
          -111.895145793756,
          40.7630100320134
        ],
        [
          -111.895384864199,
          40.7630099626127
        ],
        [
          -111.895986404859,
          40.7630097863893
        ],
        [
          -111.895986202738,
          40.7634077648848
        ],
        [
          -111.895974570454,
          40.7634077676064
        ],
        [
          -111.895385245983,
          40.7634080152701
        ],
        [
          -111.895385272932,
          40.7634354664797
        ],
        [
          -111.895233513345,
          40.7634356086821
        ],
        [
          -111.895233534006,
          40.7634400999673
        ],
        [
          -111.895204726832,
          40.7634400904417
        ],
        [
          -111.895168635218,
          40.7634400775143
        ],
        [
          -111.895146133319,
          40.7634400700299
        ],
        [
          -111.895145793756,
          40.7630100320134
        ]
      ]
    ]
  }
}