{
  "type": "Feature",
  "properties": {
    "parcel_id": "15011090062000",
    "owner_name_raw": "UTAH TRANSIT AUTHORITY - PROPERTY MANAGEMENT",
    "owner_class": "UTA",
    "epsg": "EPSG:4326"
  },
  "geometry": {
    "type": "Polygon",
    "coordinates": [
      [
        [
          -111.908448317774,
          40.7622346032424
        ],
        [
          -111.908442926984,
          40.7614074980982
        ],
        [
          -111.908407770517,
          40.7614076198926
        ],
        [
          -111.908407559413,
          40.757160152057
        ],
        [
          -111.908420623612,
          40.7571601500156
        ],
        [
          -111.908420711647,
          40.7573846663765
        ],
        [
          -111.908429913989,
          40.7573846480042
        ],
        [
          -111.908431510295,
          40.757396939091
        ],
        [
          -111.908433168585,
          40.7574092247319
        ],
        [
          -111.908434894249,
          40.7574215062878
        ],
        [
          -111.90843681305,
          40.7574346506598
        ],
        [
          -111.908451770898,
          40.7575542883453
        ],
        [
          -111.908460812442,
          40.7576742687642
        ],
        [
          -111.908463924206,
          40.7577944218015
        ],
        [
          -111.908486654277,
          40.7577944170383
        ],
        [
          -111.908724273941,
          40.7577943639631
        ],
        [
          -111.90872923354,
          40.7573840485219
        ],
        [
          -111.908782093106,
          40.7573839423707
        ],
        [
          -111.90878191524,
          40.7569310050796
        ],
        [
          -111.908781734678,
          40.7564744058372
        ],
        [
          -111.908827857778,
          40.7564743745357
        ],
        [
          -111.908828890841,
          40.7569309016494
        ],
        [
          -111.908829914022,
          40.7573838471067
        ],
        [
          -111.908830939,
          40.7578367928802
        ],
        [
          -111.908831963079,
          40.7582897396502
        ],
        [
          -111.908832782343,
          40.758652442959
        ],
        [
          -111.9088348314,
          40.7595581855301
        ],
        [
          -111.908836877762,
          40.7604639273272
        ],
        [
          -111.908837697026,
          40.7608262241286
        ],
        [
          -111.908837864112,
          40.7609003478329
        ],
        [
          -111.908873025071,
          40.7611781214918
        ],
        [
          -111.908913541785,
          40.7612790661573
        ],
        [
          -111.909095288035,
          40.7617318676782
        ],
        [
          -111.909277038777,
          40.7621846681557
        ],
        [
          -111.90945878862,
          40.7626374689505
        ],
        [
          -111.909604191728,
          40.7629997089984
        ],
        [
          -111.909681471996,
          40.7631922317395
        ],
        [
          -111.909967706686,
          40.7639053079649
        ],
        [
          -111.910127436127,
          40.7643032246261
        ],
        [
          -111.910278117736,
          40.7646785958132
        ],
        [
          -111.910331059947,
          40.7648104768385
        ],
        [
          -111.910278210263,
          40.7648105108576
        ],
        [
          -111.909682582313,
          40.7648108830257
        ],
        [
          -111.909086953466,
          40.7648112524724
        ],
        [
          -111.908491326415,
          40.7648116198779
        ],
        [
          -111.908465109982,
          40.764811636207
        ],
        [
          -111.908448317774,
          40.7622346032424
        ]
      ]
    ]
  }
}