{
  "type": "Feature",
  "properties": {
    "parcel_id": "15011030220000",
    "owner_name_raw": "REDEVELOPMENT AGENCY OF SALT L",
    "owner_class": "CRA",
    "epsg": "EPSG:4326"
  },
  "geometry": {
    "type": "Polygon",
    "coordinates": [
      [
        [
          -111.90974711369,
          40.7682508255346
        ],
        [
          -111.90974668699,
          40.7678016144102
        ],
        [
          -111.909746254901,
          40.767348744704
        ],
        [
          -111.909984514165,
          40.7673486147563
        ],
        [
          -111.909984991171,
          40.7678467712644
        ],
        [
          -111.909983669749,
          40.7682518011499
        ],
        [
          -111.90974711369,
          40.7682508255346
        ]
      ]
    ]
  }
}