{
  "type": "Feature",
  "properties": {
    "parcel_id": "150240001",
    "owner_name_raw": "UTAH STATE DEPT OF NATURAL RESOURCES",
    "owner_class": "STATE",
    "epsg": "EPSG:4326"
  },
  "geometry": {
    "type": "Polygon",
    "coordinates": [
      [
        [
          -111.639376820173,
          40.333897080579
        ],
        [
          -111.639471133396,
          40.3482002830183
        ],
        [
          -111.620882339239,
          40.3481754741638
        ],
        [
          -111.620909379427,
          40.340969195675
        ],
        [
          -111.620935400926,
          40.3340331577992
        ],
        [
          -111.625619491702,
          40.3339869925515
        ],
        [
          -111.625597340146,
          40.3374786976415
        ],
        [
          -111.630272280682,
          40.3374560116357
        ],
        [
          -111.630303561817,
          40.3339406362209
        ],
        [
          -111.639376820173,
          40.333897080579
        ]
      ]
    ]
  }
}