{
  "type": "Feature",
  "properties": {
    "parcel_id": "15021280140000",
    "owner_name_raw": "SALT LAKE CITY CORPORATION - PROPERTY MANAGEMENT",
    "owner_class": "CITY",
    "epsg": "EPSG:4326"
  },
  "geometry": {
    "type": "Polygon",
    "coordinates": [
      [
        [
          -111.922822230093,
          40.7680687165556
        ],
        [
          -111.922822372925,
          40.7680906455046
        ],
        [
          -111.922598079768,
          40.7681362090095
        ],
        [
          -111.922624224336,
          40.768127620314
        ],
        [
          -111.922658406131,
          40.7681178226412
        ],
        [
          -111.922822230093,
          40.7680687165556
        ]
      ]
    ]
  }
}