{
  "type": "Feature",
  "properties": {
    "parcel_id": "15022310040000",
    "owner_name_raw": "UTAH DEPARTMENT OF TRANSPORTAT - UDOT RIGHT OF WAY",
    "owner_class": "STATE",
    "epsg": "EPSG:4326"
  },
  "geometry": {
    "type": "Polygon",
    "coordinates": [
      [
        [
          -111.911652515866,
          40.7678008721484
        ],
        [
          -111.911588897178,
          40.7677317165768
        ],
        [
          -111.911531182217,
          40.7676596279384
        ],
        [
          -111.911479604547,
          40.7675849008158
        ],
        [
          -111.911434371678,
          40.7675078325147
        ],
        [
          -111.911395666865,
          40.7674287366699
        ],
        [
          -111.911363646417,
          40.7673479323605
        ],
        [
          -111.911415321105,
          40.767347904466
        ],
        [
          -111.911771900171,
          40.7673477153274
        ],
        [
          -111.91177393216,
          40.7676647196883
        ],
        [
          -111.911710917139,
          40.7678008367702
        ],
        [
          -111.91169270739,
          40.7678401745951
        ],
        [
          -111.911652515866,
          40.7678008721484
        ]
      ]
    ]
  }
}