{
  "type": "Feature",
  "properties": {
    "parcel_id": "15024770010000",
    "owner_name_raw": "STATE ROAD COMMISSION OF UTAH; - UDOT RIGHT OF WAY",
    "owner_class": "STATE",
    "epsg": "EPSG:4326"
  },
  "geometry": {
    "type": "Polygon",
    "coordinates": [
      [
        [
          -111.913222766491,
          40.7570365302483
        ],
        [
          -111.913222693728,
          40.7569679132883
        ],
        [
          -111.913728008651,
          40.7569661379658
        ],
        [
          -111.913728085008,
          40.7570347556082
        ],
        [
          -111.91372815867,
          40.7571033724991
        ],
        [
          -111.91322284195,
          40.7571051471375
        ],
        [
          -111.913222766491,
          40.7570365302483
        ]
      ]
    ]
  }
}