{
  "type": "Feature",
  "properties": {
    "parcel_id": "150250007",
    "owner_name_raw": "UTAH COUNTY",
    "owner_class": "UNCLASSIFIED",
    "epsg": "EPSG:4326"
  },
  "geometry": {
    "type": "Polygon",
    "coordinates": [
      [
        [
          -111.611507459849,
          40.3340285636678
        ],
        [
          -111.611516990075,
          40.3340317841478
        ],
        [
          -111.614708563244,
          40.3340286958288
        ],
        [
          -111.611513271948,
          40.3375961312029
        ],
        [
          -111.611507459849,
          40.3340285636678
        ]
      ]
    ]
  }
}