{
  "type": "Feature",
  "properties": {
    "parcel_id": "15024280210000",
    "owner_name_raw": "SALT LAKE CITY CORPORATION - PROPERTY MANAGEMENT",
    "owner_class": "CITY",
    "epsg": "EPSG:4326"
  },
  "geometry": {
    "type": "Polygon",
    "coordinates": [
      [
        [
          -111.912779404779,
          40.7604578647393
        ],
        [
          -111.912829357397,
          40.7604192608064
        ],
        [
          -111.912868542808,
          40.7603889764188
        ],
        [
          -111.912867174674,
          40.7600735656198
        ],
        [
          -111.912919225757,
          40.7600735384027
        ],
        [
          -111.912919638982,
          40.7604577919338
        ],
        [
          -111.912829397822,
          40.7604578395636
        ],
        [
          -111.912779404779,
          40.7604578647393
        ]
      ]
    ]
  }
}