{
  "type": "Feature",
  "properties": {
    "parcel_id": "150250003",
    "owner_name_raw": "UTAH COUNTY",
    "owner_class": "UNCLASSIFIED",
    "epsg": "EPSG:4326"
  },
  "geometry": {
    "type": "Polygon",
    "coordinates": [
      [
        [
          -111.602312749266,
          40.3410627141247
        ],
        [
          -111.602708703287,
          40.3406173221284
        ],
        [
          -111.602754645687,
          40.3405676356248
        ],
        [
          -111.602802982448,
          40.3405192868276
        ],
        [
          -111.602853646589,
          40.3404723427375
        ],
        [
          -111.602906567905,
          40.3404268684084
        ],
        [
          -111.602961673061,
          40.3403829268578
        ],
        [
          -111.603018885698,
          40.3403405789791
        ],
        [
          -111.603078126535,
          40.3402998834573
        ],
        [
          -111.603139313482,
          40.340260896688
        ],
        [
          -111.603202361751,
          40.3402236726985
        ],
        [
          -111.603267183975,
          40.3401882630736
        ],
        [
          -111.603333690329,
          40.3401547168838
        ],
        [
          -111.603401788655,
          40.3401230806172
        ],
        [
          -111.603471384587,
          40.3400933981155
        ],
        [
          -111.603542381686,
          40.3400657105126
        ],
        [
          -111.60361468157,
          40.3400400561781
        ],
        [
          -111.603688184052,
          40.340016470664
        ],
        [
          -111.603688256816,
          40.3400643839597
        ],
        [
          -111.604406283816,
          40.340122044063
        ],
        [
          -111.60449952019,
          40.3401202360961
        ],
        [
          -111.604592771562,
          40.3401215181804
        ],
        [
          -111.604685861741,
          40.340125887893
        ],
        [
          -111.60477861484,
          40.3401333369772
        ],
        [
          -111.604778903199,
          40.3403220611297
        ],
        [
          -111.602603607586,
          40.3410624594163
        ],
        [
          -111.602312749266,
          40.3410627141247
        ]
      ]
    ]
  }
}