{
  "type": "Feature",
  "properties": {
    "parcel_id": "15024030140000",
    "owner_name_raw": "REDEVELOPMENT AGENCY OF SALT L",
    "owner_class": "CRA",
    "epsg": "EPSG:4326"
  },
  "geometry": {
    "type": "Polygon",
    "coordinates": [
      [
        [
          -111.915634685537,
          40.7618375389988
        ],
        [
          -111.915624286639,
          40.7617243266702
        ],
        [
          -111.91560349064,
          40.7614979034758
        ],
        [
          -111.915582694642,
          40.7612714801904
        ],
        [
          -111.915572296642,
          40.7611582682585
        ],
        [
          -111.916005455289,
          40.7611580131017
        ],
        [
          -111.916005543324,
          40.7612712311579
        ],
        [
          -111.9160057158,
          40.7614976660111
        ],
        [
          -111.916005890972,
          40.7617241021342
        ],
        [
          -111.916005979007,
          40.7618373192261
        ],
        [
          -111.915634685537,
          40.7618375389988
        ]
      ]
    ]
  }
}