{
  "type": "Feature",
  "properties": {
    "parcel_id": "150200010",
    "owner_name_raw": "UTAH DEPARTMENT OF TRANSPORTATION",
    "owner_class": "STATE",
    "epsg": "EPSG:4326"
  },
  "geometry": {
    "type": "Polygon",
    "coordinates": [
      [
        [
          -111.578737674665,
          40.3553661094555
        ],
        [
          -111.583433816341,
          40.3553780453527
        ],
        [
          -111.583450917569,
          40.3589636298564
        ],
        [
          -111.578754505501,
          40.3589618713289
        ],
        [
          -111.578737674665,
          40.3553661094555
        ]
      ]
    ]
  }
}