{
  "type": "Feature",
  "properties": {
    "parcel_id": "15023340240000",
    "owner_name_raw": "SALT LAKE CITY CORPORATION - PROPERTY MANAGEMENT",
    "owner_class": "CITY",
    "epsg": "EPSG:4326"
  },
  "geometry": {
    "type": "Polygon",
    "coordinates": [
      [
        [
          -111.923089180649,
          40.7605210428662
        ],
        [
          -111.923090284679,
          40.7602850038626
        ],
        [
          -111.923269844429,
          40.7602845772349
        ],
        [
          -111.92331045906,
          40.7603734354901
        ],
        [
          -111.923317084135,
          40.7604161635092
        ],
        [
          -111.923305750091,
          40.7605208666362
        ],
        [
          -111.923089180649,
          40.7605210428662
        ]
      ]
    ]
  }
}