{
  "type": "Feature",
  "properties": {
    "parcel_id": "15022280050000",
    "owner_name_raw": "SALT LAKE CITY CORP - PROPERTY MANAGEMENT",
    "owner_class": "CITY",
    "epsg": "EPSG:4326"
  },
  "geometry": {
    "type": "Polygon",
    "coordinates": [
      [
        [
          -111.912369440633,
          40.7691595818238
        ],
        [
          -111.912369153172,
          40.7687327872607
        ],
        [
          -111.91237996799,
          40.7687065281552
        ],
        [
          -111.912547836167,
          40.7687064050136
        ],
        [
          -111.912548139798,
          40.7691594403139
        ],
        [
          -111.912369440633,
          40.7691595818238
        ]
      ]
    ]
  }
}