{
  "type": "Feature",
  "properties": {
    "parcel_id": "150280005",
    "owner_name_raw": "UNITED STATES OF AMERICA",
    "owner_class": "UNCLASSIFIED",
    "epsg": "EPSG:4326"
  },
  "geometry": {
    "type": "Polygon",
    "coordinates": [
      [
        [
          -111.545548183107,
          40.3452737289221
        ],
        [
          -111.552882825892,
          40.3408337931806
        ],
        [
          -111.552886254761,
          40.3452712744257
        ],
        [
          -111.545548039376,
          40.3452743642841
        ],
        [
          -111.545548183107,
          40.3452737289221
        ]
      ]
    ]
  }
}