{
  "type": "Feature",
  "properties": {
    "parcel_id": "15033760200000",
    "owner_name_raw": "UNITED STATES OF AMERICA - BUREAU OF RECLAMATION",
    "owner_class": "UNCLASSIFIED",
    "epsg": "EPSG:4326"
  },
  "geometry": {
    "type": "Polygon",
    "coordinates": [
      [
        [
          -111.939496720667,
          40.7583219731141
        ],
        [
          -111.939495367804,
          40.758047508115
        ],
        [
          -111.939492821979,
          40.7575311828152
        ],
        [
          -111.940816339531,
          40.7575274056087
        ],
        [
          -111.940817266593,
          40.7577118195887
        ],
        [
          -111.940817554054,
          40.757766712412
        ],
        [
          -111.940820284932,
          40.758318196633
        ],
        [
          -111.939496720667,
          40.7583219731141
        ]
      ]
    ]
  }
}