{
  "type": "Feature",
  "properties": {
    "parcel_id": "15032290130000",
    "owner_name_raw": "UTAH DEPARTMENT OF TRANSPORTAT - UDOT RIGHT OF WAY",
    "owner_class": "STATE",
    "epsg": "EPSG:4326"
  },
  "geometry": {
    "type": "Polygon",
    "coordinates": [
      [
        [
          -111.932437317194,
          40.7666345154713
        ],
        [
          -111.932493336135,
          40.7666144822112
        ],
        [
          -111.932432494139,
          40.7666147822509
        ],
        [
          -111.932927200857,
          40.7664378728925
        ],
        [
          -111.932928420769,
          40.7666327424481
        ],
        [
          -111.932437317194,
          40.7666345154713
        ]
      ]
    ]
  }
}