{
  "type": "Feature",
  "properties": {
    "parcel_id": "15034020130000",
    "owner_name_raw": "BOARD OF EDUCATION OF SALT LAK",
    "owner_class": "SCHOOL_DISTRICT",
    "epsg": "EPSG:4326"
  },
  "geometry": {
    "type": "Polygon",
    "coordinates": [
      [
        [
          -111.934395683141,
          40.7604209992937
        ],
        [
          -111.934393084314,
          40.7586772723429
        ],
        [
          -111.9343928786,
          40.7585400396979
        ],
        [
          -111.934392848956,
          40.7585189411428
        ],
        [
          -111.935500645974,
          40.7585179851175
        ],
        [
          -111.936639673822,
          40.758517577531
        ],
        [
          -111.936639732212,
          40.7585376908024
        ],
        [
          -111.936640129268,
          40.7586749241328
        ],
        [
          -111.936640443678,
          40.7587838106401
        ],
        [
          -111.936640981769,
          40.758970448216
        ],
        [
          -111.93664481488,
          40.7604190491941
        ],
        [
          -111.936538873864,
          40.7604191424124
        ],
        [
          -111.9360813565,
          40.7604195418222
        ],
        [
          -111.936043454781,
          40.7604195744826
        ],
        [
          -111.935585939214,
          40.7604199725316
        ],
        [
          -111.935504146709,
          40.7604200426154
        ],
        [
          -111.935347707797,
          40.7604201793809
        ],
        [
          -111.934891096833,
          40.7604205733473
        ],
        [
          -111.934853196013,
          40.7604206060077
        ],
        [
          -111.934395683141,
          40.7604209992937
        ]
      ]
    ]
  }
}