{
  "type": "Feature",
  "properties": {
    "parcel_id": "150380034",
    "owner_name_raw": "UTAH COUNTY",
    "owner_class": "UNCLASSIFIED",
    "epsg": "EPSG:4326"
  },
  "geometry": {
    "type": "Polygon",
    "coordinates": [
      [
        [
          -111.536513571173,
          40.3406894105244
        ],
        [
          -111.536516342066,
          40.3406591068069
        ],
        [
          -111.536524216473,
          40.3406293284036
        ],
        [
          -111.536537062915,
          40.3406005725271
        ],
        [
          -111.536554666893,
          40.3405733193173
        ],
        [
          -111.536576734473,
          40.3405480238243
        ],
        [
          -111.536602897192,
          40.3405251084108
        ],
        [
          -111.53663271821,
          40.340504955699
        ],
        [
          -111.536665699603,
          40.3404879021825
        ],
        [
          -111.53670129068,
          40.340474232607
        ],
        [
          -111.536738897174,
          40.3404641752162
        ],
        [
          -111.536777891169,
          40.3404578979405
        ],
        [
          -111.536817621579,
          40.340455505593
        ],
        [
          -111.536857425024,
          40.3404570381192
        ],
        [
          -111.536896636905,
          40.3404624699302
        ],
        [
          -111.536934602497,
          40.3404717103298
        ],
        [
          -111.536970687888,
          40.3404846050292
        ],
        [
          -111.537404516678,
          40.3406672726767
        ],
        [
          -111.537367111728,
          40.3406674760338
        ],
        [
          -111.537368132214,
          40.3407772442738
        ],
        [
          -111.536953373759,
          40.3406026078259
        ],
        [
          -111.536934492767,
          40.3405958635003
        ],
        [
          -111.536914628539,
          40.3405910309316
        ],
        [
          -111.536894112661,
          40.3405881907885
        ],
        [
          -111.536873287597,
          40.3405873904805
        ],
        [
          -111.53685250097,
          40.340588643367
        ],
        [
          -111.536832099765,
          40.340591928534
        ],
        [
          -111.536812424529,
          40.340597191143
        ],
        [
          -111.536793803694,
          40.3406043433472
        ],
        [
          -111.53677654809,
          40.3406132657569
        ],
        [
          -111.536760945757,
          40.3406238094333
        ],
        [
          -111.536747257141,
          40.3406357983743
        ],
        [
          -111.536735710738,
          40.3406490324526
        ],
        [
          -111.536726499289,
          40.3406632907562
        ],
        [
          -111.536719776557,
          40.3406783352765
        ],
        [
          -111.536715654761,
          40.3406939148809
        ],
        [
          -111.536714202705,
          40.3407097695048
        ],
        [
          -111.536710127049,
          40.3410852838882
        ],
        [
          -111.536509505398,
          40.3410634912592
        ],
        [
          -111.536513571173,
          40.3406894105244
        ]
      ]
    ]
  }
}