{
  "type": "Feature",
  "properties": {
    "parcel_id": "15034260330000",
    "owner_name_raw": "SALT LAKE CITY CORP - PROPERTY MANAGEMENT",
    "owner_class": "CITY",
    "epsg": "EPSG:4326"
  },
  "geometry": {
    "type": "Polygon",
    "coordinates": [
      [
        [
          -111.93353387539,
          40.7611748030941
        ],
        [
          -111.933598848737,
          40.7611749970132
        ],
        [
          -111.933627725981,
          40.7611750834262
        ],
        [
          -111.93362640905,
          40.7614303355582
        ],
        [
          -111.933625574515,
          40.7615922694177
        ],
        [
          -111.933624738184,
          40.761754204924
        ],
        [
          -111.933623903649,
          40.7619161393553
        ],
        [
          -111.933623067317,
          40.7620780733921
        ],
        [
          -111.933622248054,
          40.7622370908102
        ],
        [
          -111.933528386683,
          40.762238573417
        ],
        [
          -111.93353387539,
          40.7611748030941
        ]
      ]
    ]
  }
}