{
  "type": "Feature",
  "properties": {
    "parcel_id": "15044270040000",
    "owner_name_raw": "UTAH DEPT OF TRANSPORTATION - UDOT RIGHT OF WAY",
    "owner_class": "STATE",
    "epsg": "EPSG:4326"
  },
  "geometry": {
    "type": "Polygon",
    "coordinates": [
      [
        [
          -111.94934764787,
          40.760733000889
        ],
        [
          -111.950365301644,
          40.7603534860764
        ],
        [
          -111.950410844433,
          40.7604886873116
        ],
        [
          -111.949342178028,
          40.7608782566125
        ],
        [
          -111.949325696637,
          40.7608842647285
        ],
        [
          -111.94934764787,
          40.760733000889
        ]
      ]
    ]
  }
}