{
  "type": "Feature",
  "properties": {
    "parcel_id": "150400001",
    "owner_name_raw": "UNITED STATES OF AMERICA",
    "owner_class": "UNCLASSIFIED",
    "epsg": "EPSG:4326"
  },
  "geometry": {
    "type": "Polygon",
    "coordinates": [
      [
        [
          -111.489905630703,
          40.3479114106349
        ],
        [
          -111.490157956687,
          40.3407114990661
        ],
        [
          -111.490381213188,
          40.3343389273838
        ],
        [
          -111.499753573702,
          40.3342316590334
        ],
        [
          -111.499592380906,
          40.3373943209446
        ],
        [
          -111.494931012117,
          40.3374598468455
        ],
        [
          -111.494794603839,
          40.3406343096464
        ],
        [
          -111.494641541695,
          40.3441996751947
        ],
        [
          -111.499251225914,
          40.3440877017262
        ],
        [
          -111.503860858929,
          40.3439755308868
        ],
        [
          -111.504066556959,
          40.3404794567253
        ],
        [
          -111.504251857843,
          40.3373317735902
        ],
        [
          -111.508911312322,
          40.3372690488304
        ],
        [
          -111.508701880893,
          40.3404017494017
        ],
        [
          -111.508238996994,
          40.347324605101
        ],
        [
          -111.499071173886,
          40.3476184066205
        ],
        [
          -111.489905630703,
          40.3479114106349
        ]
      ]
    ]
  }
}