{
  "type": "Feature",
  "properties": {
    "parcel_id": "15043270080000",
    "owner_name_raw": "SALT LAKE COUNTY - SALT LAKE COUNTY REAL ESTATE",
    "owner_class": "COUNTY",
    "epsg": "EPSG:4326"
  },
  "geometry": {
    "type": "Polygon",
    "coordinates": [
      [
        [
          -111.960072873897,
          40.7617788793763
        ],
        [
          -111.95929391507,
          40.7607301975489
        ],
        [
          -111.959579778756,
          40.7607289979642
        ],
        [
          -111.959771642731,
          40.7607281916637
        ],
        [
          -111.960252795668,
          40.7613751436557
        ],
        [
          -111.960296807728,
          40.7614371192975
        ],
        [
          -111.960334903482,
          40.7615013211978
        ],
        [
          -111.960366886201,
          40.7615674241123
        ],
        [
          -111.960392594188,
          40.7616350912308
        ],
        [
          -111.960411896288,
          40.7617039803011
        ],
        [
          -111.960424018155,
          40.7617688575925
        ],
        [
          -111.960430456381,
          40.7618342036238
        ],
        [
          -111.960431184016,
          40.7618997312604
        ],
        [
          -111.960426198366,
          40.7619651513277
        ],
        [
          -111.960426166027,
          40.7619651397608
        ],
        [
          -111.960330503534,
          40.7619271204952
        ],
        [
          -111.960239320041,
          40.7618831959248
        ],
        [
          -111.960153245267,
          40.7618336674599
        ],
        [
          -111.960072873897,
          40.7617788793763
        ]
      ]
    ]
  }
}