{
  "type": "Feature",
  "properties": {
    "parcel_id": "15044520220000",
    "owner_name_raw": "SALT LAKE COUNTY - REAL ESTATE DEPT # S3200",
    "owner_class": "COUNTY",
    "epsg": "EPSG:4326"
  },
  "geometry": {
    "type": "Polygon",
    "coordinates": [
      [
        [
          -111.957040696894,
          40.7576986507752
        ],
        [
          -111.956949479265,
          40.757529464666
        ],
        [
          -111.956741327037,
          40.7571451139132
        ],
        [
          -111.956991204213,
          40.7571458882756
        ],
        [
          -111.956991768355,
          40.757146895355
        ],
        [
          -111.956992541804,
          40.7571482780478
        ],
        [
          -111.95725538706,
          40.7576019671216
        ],
        [
          -111.957329095626,
          40.7576978389943
        ],
        [
          -111.957040696894,
          40.7576986507752
        ]
      ]
    ]
  }
}