{
  "type": "Feature",
  "properties": {
    "parcel_id": "150400002",
    "owner_name_raw": "UNITED STATES OF AMERICA",
    "owner_class": "UNCLASSIFIED",
    "epsg": "EPSG:4326"
  },
  "geometry": {
    "type": "Polygon",
    "coordinates": [
      [
        [
          -111.509067620978,
          40.3340658227554
        ],
        [
          -111.508858206617,
          40.3371985207242
        ],
        [
          -111.504198757528,
          40.3372612428106
        ],
        [
          -111.504013454848,
          40.3404089258127
        ],
        [
          -111.503807755021,
          40.3439050002059
        ],
        [
          -111.499198125599,
          40.3440171684239
        ],
        [
          -111.49458844677,
          40.3441291399555
        ],
        [
          -111.494741509813,
          40.3405637747874
        ],
        [
          -111.494877919887,
          40.3373893120914
        ],
        [
          -111.499539285083,
          40.3373237881763
        ],
        [
          -111.499700480574,
          40.3341611263829
        ],
        [
          -111.509067620978,
          40.3340658227554
        ]
      ]
    ]
  }
}