{
  "type": "Feature",
  "properties": {
    "parcel_id": "150430009",
    "owner_name_raw": "UNITED STATES OF AMERICA",
    "owner_class": "UNCLASSIFIED",
    "epsg": "EPSG:4326"
  },
  "geometry": {
    "type": "Polygon",
    "coordinates": [
      [
        [
          -111.62096676291,
          40.4063598780632
        ],
        [
          -111.611459705408,
          40.4063224304543
        ],
        [
          -111.603141024704,
          40.4062890241187
        ],
        [
          -111.60329779779,
          40.3990719045294
        ],
        [
          -111.603459445133,
          40.3918481053104
        ],
        [
          -111.611448626486,
          40.3918446467585
        ],
        [
          -111.620931324372,
          40.3918398328371
        ],
        [
          -111.620949043641,
          40.3990998566122
        ],
        [
          -111.62096676291,
          40.4063598780632
        ]
      ]
    ]
  }
}