{
  "type": "Feature",
  "properties": {
    "parcel_id": "15044260020000",
    "owner_name_raw": "UTAH DEPT OF TRANSPORTATION - UDOT RIGHT OF WAY",
    "owner_class": "STATE",
    "epsg": "EPSG:4326"
  },
  "geometry": {
    "type": "Polygon",
    "coordinates": [
      [
        [
          -111.952290958135,
          40.7597445712132
        ],
        [
          -111.952321370599,
          40.7597381526934
        ],
        [
          -111.95235443489,
          40.7597312408594
        ],
        [
          -111.952384218533,
          40.7597250727376
        ],
        [
          -111.953162675202,
          40.7612567879481
        ],
        [
          -111.953204580712,
          40.761312150053
        ],
        [
          -111.953252003674,
          40.76136487482
        ],
        [
          -111.953304660221,
          40.7614146465425
        ],
        [
          -111.953362229654,
          40.7614611651642
        ],
        [
          -111.953424370614,
          40.7615041496807
        ],
        [
          -111.95368766862,
          40.762208456558
        ],
        [
          -111.953686828695,
          40.7622084572384
        ],
        [
          -111.953461692021,
          40.7622086797316
        ],
        [
          -111.953045231258,
          40.761394534822
        ],
        [
          -111.952290958135,
          40.7597445712132
        ]
      ]
    ]
  }
}