{
  "type": "Feature",
  "properties": {
    "parcel_id": "15044510020000",
    "owner_name_raw": "SALT LAKE COUNTY - REAL ESTATE DEPT # S3200",
    "owner_class": "COUNTY",
    "epsg": "EPSG:4326"
  },
  "geometry": {
    "type": "Polygon",
    "coordinates": [
      [
        [
          -111.957034718605,
          40.7567306939929
        ],
        [
          -111.956603114044,
          40.756153629337
        ],
        [
          -111.956508860109,
          40.7558813090794
        ],
        [
          -111.956368669924,
          40.755476258243
        ],
        [
          -111.956397335165,
          40.7553611338264
        ],
        [
          -111.956403714102,
          40.75537174655
        ],
        [
          -111.957611729869,
          40.7573816533145
        ],
        [
          -111.957809123872,
          40.7577233900151
        ],
        [
          -111.957903711082,
          40.7578871354214
        ],
        [
          -111.957993976497,
          40.7580007897737
        ],
        [
          -111.958195332969,
          40.7582543080664
        ],
        [
          -111.958258730672,
          40.7583559253708
        ],
        [
          -111.958280840906,
          40.7583913657461
        ],
        [
          -111.95795591398,
          40.7583922836683
        ],
        [
          -111.95713718943,
          40.7568676976552
        ],
        [
          -111.957034718605,
          40.7567306939929
        ]
      ]
    ]
  }
}