{
  "type": "Feature",
  "properties": {
    "parcel_id": "15052280150000",
    "owner_name_raw": "SALT LAKE CITY DEPARTMENT OF A - SALT LAKE CITY CORPORATION",
    "owner_class": "CITY",
    "epsg": "EPSG:4326"
  },
  "geometry": {
    "type": "Polygon",
    "coordinates": [
      [
        [
          -111.971897257845,
          40.7652088296446
        ],
        [
          -111.971897207539,
          40.765193857277
        ],
        [
          -111.972016361875,
          40.765202345656
        ],
        [
          -111.972215099758,
          40.7652180650749
        ],
        [
          -111.972413557368,
          40.7652357167588
        ],
        [
          -111.972495951744,
          40.7652436200089
        ],
        [
          -111.972495954439,
          40.7652649722509
        ],
        [
          -111.972413613063,
          40.7652536630408
        ],
        [
          -111.972328106024,
          40.765241918388
        ],
        [
          -111.972016409486,
          40.7652170962189
        ],
        [
          -111.971897257845,
          40.7652088296446
        ]
      ]
    ]
  }
}