{
  "type": "Feature",
  "properties": {
    "parcel_id": "15052010020000",
    "owner_name_raw": "SALT LAKE CITY - PROPERTY MANAGEMENT",
    "owner_class": "CITY",
    "epsg": "EPSG:4326"
  },
  "geometry": {
    "type": "Polygon",
    "coordinates": [
      [
        [
          -111.972550831621,
          40.7674733188788
        ],
        [
          -111.972548186981,
          40.7666499229458
        ],
        [
          -111.976883906598,
          40.7666533642156
        ],
        [
          -111.976882802569,
          40.7674767567042
        ],
        [
          -111.972550831621,
          40.7674733188788
        ]
      ]
    ]
  }
}