{
  "type": "Feature",
  "properties": {
    "parcel_id": "15054270080000",
    "owner_name_raw": "SALT LAKE CITY DEPARTMENT OF A - SALT LAKE CITY CORPORATION",
    "owner_class": "CITY",
    "epsg": "EPSG:4326"
  },
  "geometry": {
    "type": "Polygon",
    "coordinates": [
      [
        [
          -111.969814781556,
          40.7613928228963
        ],
        [
          -111.969814794133,
          40.7614053561504
        ],
        [
          -111.969764704971,
          40.7614100925223
        ],
        [
          -111.969519273557,
          40.7614312847375
        ],
        [
          -111.969273387596,
          40.7614491789743
        ],
        [
          -111.969219243439,
          40.7614526742662
        ],
        [
          -111.968948772385,
          40.761467812137
        ],
        [
          -111.968677974344,
          40.761479095455
        ],
        [
          -111.968505082788,
          40.7614842788541
        ],
        [
          -111.968528358137,
          40.7614810373585
        ],
        [
          -111.968549673362,
          40.7614781211011
        ],
        [
          -111.968572778929,
          40.7614750170492
        ],
        [
          -111.968594117511,
          40.7614722028536
        ],
        [
          -111.968613688207,
          40.7614696655869
        ],
        [
          -111.968635049246,
          40.7614669432472
        ],
        [
          -111.968656420167,
          40.7614642712581
        ],
        [
          -111.968677802766,
          40.7614616475783
        ],
        [
          -111.968857698486,
          40.761441544037
        ],
        [
          -111.969038205061,
          40.7614248929168
        ],
        [
          -111.969219203913,
          40.7614117023851
        ],
        [
          -111.969239157292,
          40.761410460627
        ],
        [
          -111.969257149649,
          40.7614093794469
        ],
        [
          -111.969273346273,
          40.7614084343499
        ],
        [
          -111.969453633659,
          40.7613997971558
        ],
        [
          -111.969634151014,
          40.7613945919769
        ],
        [
          -111.969814781556,
          40.7613928228963
        ]
      ]
    ]
  }
}