{
  "type": "Feature",
  "properties": {
    "parcel_id": "15064000090000",
    "owner_name_raw": "SALT LAKE CITY CORPORATION - PROPERTY MANAGEMENT",
    "owner_class": "CITY",
    "epsg": "EPSG:4326"
  },
  "geometry": {
    "type": "Polygon",
    "coordinates": [
      [
        [
          -111.988722457876,
          40.7581318777172
        ],
        [
          -111.991340852893,
          40.7577117182012
        ],
        [
          -111.991349759689,
          40.7591151716053
        ],
        [
          -111.991303706658,
          40.7590767492504
        ],
        [
          -111.991256778667,
          40.7590389440321
        ],
        [
          -111.991208988294,
          40.7590017668384
        ],
        [
          -111.991160355301,
          40.758965229238
        ],
        [
          -111.991110887774,
          40.7589293441603
        ],
        [
          -111.991060605474,
          40.7588941197716
        ],
        [
          -111.991009523674,
          40.7588595676404
        ],
        [
          -111.990957654949,
          40.7588256993353
        ],
        [
          -111.990905017267,
          40.7587925237032
        ],
        [
          -111.990851627694,
          40.758760052993
        ],
        [
          -111.990797498809,
          40.7587282946906
        ],
        [
          -111.990742650372,
          40.7586972590037
        ],
        [
          -111.990687098555,
          40.7586669568203
        ],
        [
          -111.990630859527,
          40.7586373976679
        ],
        [
          -111.990573949457,
          40.7586085883517
        ],
        [
          -111.990516388109,
          40.758580537038
        ],
        [
          -111.990458192549,
          40.7585532559758
        ],
        [
          -111.990399378051,
          40.7585267499293
        ],
        [
          -111.990339963478,
          40.7585010297863
        ],
        [
          -111.99027997039,
          40.7584761003111
        ],
        [
          -111.99021941316,
          40.7584519717111
        ],
        [
          -111.990158310653,
          40.7584286507916
        ],
        [
          -111.990096682631,
          40.7584061436776
        ],
        [
          -111.99003454796,
          40.7583844578548
        ],
        [
          -111.989971924605,
          40.7583635994479
        ],
        [
          -111.989908832329,
          40.7583435759428
        ],
        [
          -111.989845289099,
          40.7583243921032
        ],
        [
          -111.989781317373,
          40.7583060554149
        ],
        [
          -111.989716932421,
          40.7582885692807
        ],
        [
          -111.989652156703,
          40.7582719411863
        ],
        [
          -111.98958700998,
          40.7582561745344
        ],
        [
          -111.989521511118,
          40.7582412754499
        ],
        [
          -111.989455680777,
          40.7582272466551
        ],
        [
          -111.989389536925,
          40.7582140942744
        ],
        [
          -111.989323102916,
          40.7582018223912
        ],
        [
          -111.989256396718,
          40.7581904323669
        ],
        [
          -111.989189438093,
          40.7581799310063
        ],
        [
          -111.989122250398,
          40.7581703183099
        ],
        [
          -111.989054852497,
          40.7581615997217
        ],
        [
          -111.988987263255,
          40.7581537772833
        ],
        [
          -111.988919506029,
          40.7581468516756
        ],
        [
          -111.988851598783,
          40.7581408269815
        ],
        [
          -111.988722457876,
          40.7581318777172
        ]
      ]
    ]
  }
}