{
  "type": "Feature",
  "properties": {
    "parcel_id": "15092260030000",
    "owner_name_raw": "SALT LAKE CITY CORP - PROPERTY MANAGEMENT",
    "owner_class": "CITY",
    "epsg": "EPSG:4326"
  },
  "geometry": {
    "type": "Polygon",
    "coordinates": [
      [
        [
          -111.949661244345,
          40.754956999151
        ],
        [
          -111.949576642809,
          40.7546965287071
        ],
        [
          -111.949526607546,
          40.7545263781945
        ],
        [
          -111.949480488937,
          40.7543555896296
        ],
        [
          -111.949438295967,
          40.7541842147246
        ],
        [
          -111.94940004121,
          40.7540123065533
        ],
        [
          -111.949365738143,
          40.753839915468
        ],
        [
          -111.949335398442,
          40.7536670965851
        ],
        [
          -111.949309028397,
          40.7534939009384
        ],
        [
          -111.949286637889,
          40.7533203822844
        ],
        [
          -111.949268232307,
          40.7531465909776
        ],
        [
          -111.950951929373,
          40.7531419540505
        ],
        [
          -111.950956253862,
          40.7540476866392
        ],
        [
          -111.950960580149,
          40.7549534150551
        ],
        [
          -111.949661244345,
          40.754956999151
        ]
      ]
    ]
  }
}