{
  "type": "Feature",
  "properties": {
    "parcel_id": "15104300310000",
    "owner_name_raw": "SALT LAKE CITY CORP - PROPERTY MANAGEMENT",
    "owner_class": "CITY",
    "epsg": "EPSG:4326"
  },
  "geometry": {
    "type": "Polygon",
    "coordinates": [
      [
        [
          -111.932931000731,
          40.7454337554495
        ],
        [
          -111.93276456896,
          40.7453418132554
        ],
        [
          -111.932598136291,
          40.7452498709342
        ],
        [
          -111.932431705418,
          40.7451579278052
        ],
        [
          -111.93226511195,
          40.7450661546949
        ],
        [
          -111.932098519381,
          40.7449743834996
        ],
        [
          -111.931931926811,
          40.744882610136
        ],
        [
          -111.931931117429,
          40.744755223638
        ],
        [
          -111.932622028782,
          40.7451369958294
        ],
        [
          -111.932937220666,
          40.7453113811193
        ],
        [
          -111.932989503514,
          40.7452559920777
        ],
        [
          -111.933097432502,
          40.7455256981971
        ],
        [
          -111.932990844699,
          40.7454668159242
        ],
        [
          -111.932931000731,
          40.7454337554495
        ]
      ]
    ]
  }
}