{
  "type": "Feature",
  "properties": {
    "parcel_id": "15111100110000",
    "owner_name_raw": "SALT LAKE CITY CORP - PROPERTY MANAGEMENT",
    "owner_class": "CITY",
    "epsg": "EPSG:4326"
  },
  "geometry": {
    "type": "Polygon",
    "coordinates": [
      [
        [
          -111.92550230703,
          40.7540203826216
        ],
        [
          -111.925500629876,
          40.7538142717685
        ],
        [
          -111.925320814105,
          40.7538147487942
        ],
        [
          -111.925141944261,
          40.7538152224174
        ],
        [
          -111.92514216884,
          40.7538837092549
        ],
        [
          -111.924844081777,
          40.7538844271744
        ],
        [
          -111.924839113196,
          40.7513696687709
        ],
        [
          -111.92579239729,
          40.7513677122811
        ],
        [
          -111.92579773508,
          40.7540198157726
        ],
        [
          -111.92550230703,
          40.7540203826216
        ]
      ]
    ]
  }
}