{
  "type": "Feature",
  "properties": {
    "parcel_id": "15114530120000",
    "owner_name_raw": "SALT LAKE CITY CORPORATION - PROPERTY MANAGEMENT",
    "owner_class": "CITY",
    "epsg": "EPSG:4326"
  },
  "geometry": {
    "type": "Polygon",
    "coordinates": [
      [
        [
          -111.918525167677,
          40.7425326686619
        ],
        [
          -111.918620637032,
          40.7425178592972
        ],
        [
          -111.918639008478,
          40.7425177544834
        ],
        [
          -111.918661849941,
          40.7425177946394
        ],
        [
          -111.918676520328,
          40.7426921786296
        ],
        [
          -111.918625925414,
          40.7426923589904
        ],
        [
          -111.918579159121,
          40.7426951692166
        ],
        [
          -111.918525167677,
          40.7425326686619
        ]
      ]
    ]
  }
}