{
  "type": "Feature",
  "properties": {
    "parcel_id": "15113510420000",
    "owner_name_raw": "SALT LAKE CITY CORP - PROPERTY MANAGEMENT",
    "owner_class": "CITY",
    "epsg": "EPSG:4326"
  },
  "geometry": {
    "type": "Polygon",
    "coordinates": [
      [
        [
          -111.927168844478,
          40.7409744139851
        ],
        [
          -111.927167424241,
          40.7405627097169
        ],
        [
          -111.927186514339,
          40.7405626831724
        ],
        [
          -111.927396628488,
          40.7409739586472
        ],
        [
          -111.927168844478,
          40.7409744139851
        ]
      ]
    ]
  }
}