{
  "type": "Feature",
  "properties": {
    "parcel_id": "15112510290000",
    "owner_name_raw": "SALT LAKE CITY CORPORATION - PROPERTY MANAGER",
    "owner_class": "CITY",
    "epsg": "EPSG:4326"
  },
  "geometry": {
    "type": "Polygon",
    "coordinates": [
      [
        [
          -111.919562284351,
          40.7514353482707
        ],
        [
          -111.919445146733,
          40.7514354374185
        ],
        [
          -111.919431352203,
          40.7514354469457
        ],
        [
          -111.919431180625,
          40.7513824829271
        ],
        [
          -111.919431000962,
          40.7513275644168
        ],
        [
          -111.919430055934,
          40.7510374716273
        ],
        [
          -111.919986983563,
          40.751037052426
        ],
        [
          -111.919987472246,
          40.7514103868836
        ],
        [
          -111.919928204997,
          40.7514213438993
        ],
        [
          -111.919928221167,
          40.751435067217
        ],
        [
          -111.919913702595,
          40.7514350787858
        ],
        [
          -111.91979656318,
          40.7514351686141
        ],
        [
          -111.919679423766,
          40.7514352584424
        ],
        [
          -111.919562284351,
          40.7514353482707
        ]
      ]
    ]
  }
}