{
  "type": "Feature",
  "properties": {
    "parcel_id": "15111290100000",
    "owner_name_raw": "SALT LAKE CITY CORPORATION - PROPERTY MANAGEMENT",
    "owner_class": "CITY",
    "epsg": "EPSG:4326"
  },
  "geometry": {
    "type": "Polygon",
    "coordinates": [
      [
        [
          -111.922581637903,
          40.7531963463969
        ],
        [
          -111.922310945864,
          40.7531965076754
        ],
        [
          -111.922310874897,
          40.753127890835
        ],
        [
          -111.92231080393,
          40.7530592732433
        ],
        [
          -111.9223107132,
          40.7529722677446
        ],
        [
          -111.922458891205,
          40.7529848509019
        ],
        [
          -111.922520043119,
          40.7529938893243
        ],
        [
          -111.922578857618,
          40.7530095054723
        ],
        [
          -111.922634117482,
          40.7530313767838
        ],
        [
          -111.922684680955,
          40.7530590507195
        ],
        [
          -111.922728553775,
          40.753091154022
        ],
        [
          -111.922766071913,
          40.7531276193154
        ],
        [
          -111.922793166898,
          40.7531626337631
        ],
        [
          -111.922802235391,
          40.7531962150606
        ],
        [
          -111.922581637903,
          40.7531963463969
        ]
      ]
    ]
  }
}