{
  "type": "Feature",
  "properties": {
    "parcel_id": "15113320050000",
    "owner_name_raw": "SALT LAKE CITY - PROPERTY MANAGEMENT",
    "owner_class": "CITY",
    "epsg": "EPSG:4326"
  },
  "geometry": {
    "type": "Polygon",
    "coordinates": [
      [
        [
          -111.920403154169,
          40.7456268605943
        ],
        [
          -111.920517883404,
          40.7453660657148
        ],
        [
          -111.920787327684,
          40.7453656648534
        ],
        [
          -111.921030498038,
          40.7453653027851
        ],
        [
          -111.921169242833,
          40.7453650965695
        ],
        [
          -111.921170187861,
          40.7454247602371
        ],
        [
          -111.921173449644,
          40.7456305785861
        ],
        [
          -111.921074469673,
          40.7456301008211
        ],
        [
          -111.920833625057,
          40.7456289383957
        ],
        [
          -111.920403154169,
          40.7456268605943
        ]
      ]
    ]
  }
}