{
  "type": "Feature",
  "properties": {
    "parcel_id": "15114530100000",
    "owner_name_raw": "SALT LAKE CITY CORPORATION - PROPERTY MANAGEMENT",
    "owner_class": "CITY",
    "epsg": "EPSG:4326"
  },
  "geometry": {
    "type": "Polygon",
    "coordinates": [
      [
        [
          -111.918562410931,
          40.7430283615605
        ],
        [
          -111.91857382223,
          40.7428653445598
        ],
        [
          -111.918649578056,
          40.7428668350852
        ],
        [
          -111.918694073409,
          40.7428666765042
        ],
        [
          -111.918710366153,
          40.7430286358437
        ],
        [
          -111.918562410931,
          40.7430283615605
        ]
      ]
    ]
  }
}