{
  "type": "Feature",
  "properties": {
    "parcel_id": "15111340130000",
    "owner_name_raw": "SALT LAKE CITY CORPORATION - PROPERTY MANAGEMENT",
    "owner_class": "CITY",
    "epsg": "EPSG:4326"
  },
  "geometry": {
    "type": "Polygon",
    "coordinates": [
      [
        [
          -111.921792552368,
          40.7529223338659
        ],
        [
          -111.921724053133,
          40.7528519651279
        ],
        [
          -111.921801982882,
          40.7528518739405
        ],
        [
          -111.921861701984,
          40.7528783039919
        ],
        [
          -111.921923515957,
          40.7529017854154
        ],
        [
          -111.921987172374,
          40.752922220222
        ],
        [
          -111.921792552368,
          40.7529223338659
        ]
      ]
    ]
  }
}