{
  "type": "Feature",
  "properties": {
    "parcel_id": "15114570070000",
    "owner_name_raw": "SALT LAKE CITY CORPORATION - PROPERTY MANAGEMENT",
    "owner_class": "CITY",
    "epsg": "EPSG:4326"
  },
  "geometry": {
    "type": "Polygon",
    "coordinates": [
      [
        [
          -111.918539769792,
          40.741327779709
        ],
        [
          -111.918540978026,
          40.7411438055697
        ],
        [
          -111.918764694465,
          40.7412165981419
        ],
        [
          -111.918763788064,
          40.7413547921878
        ],
        [
          -111.918539769792,
          40.741327779709
        ]
      ]
    ]
  }
}