{
  "type": "Feature",
  "properties": {
    "parcel_id": "15112800150000",
    "owner_name_raw": "SALT LAKE CITY CORPORATION - REAL ESTATE SERVICES",
    "owner_class": "CITY",
    "epsg": "EPSG:4326"
  },
  "geometry": {
    "type": "Polygon",
    "coordinates": [
      [
        [
          -111.911223000786,
          40.7494600719328
        ],
        [
          -111.913843456539,
          40.7494580296391
        ],
        [
          -111.913843400843,
          40.7492299762839
        ],
        [
          -111.913951669394,
          40.7492295169194
        ],
        [
          -111.913951754734,
          40.7495745641409
        ],
        [
          -111.913843485285,
          40.7495750561688
        ],
        [
          -111.911223075346,
          40.749577649013
        ],
        [
          -111.911223000786,
          40.7494600719328
        ]
      ]
    ]
  }
}