{
  "type": "Feature",
  "properties": {
    "parcel_id": "15112600070000",
    "owner_name_raw": "SALT LAKE COUNTY - REAL ESTATE DEPT # S3200",
    "owner_class": "COUNTY",
    "epsg": "EPSG:4326"
  },
  "geometry": {
    "type": "Polygon",
    "coordinates": [
      [
        [
          -111.915504669671,
          40.7492472551944
        ],
        [
          -111.915504582534,
          40.7492060838783
        ],
        [
          -111.915506328859,
          40.7488604875876
        ],
        [
          -111.915520764786,
          40.7488604732961
        ],
        [
          -111.915519005885,
          40.7492060961281
        ],
        [
          -111.915519093919,
          40.749247264722
        ],
        [
          -111.915504669671,
          40.7492472551944
        ]
      ]
    ]
  }
}