{
  "type": "Feature",
  "properties": {
    "parcel_id": "15111780090000",
    "owner_name_raw": "SALT LAKE CITY CORPORATION - REAL ESTATE SERVICES",
    "owner_class": "CITY",
    "epsg": "EPSG:4326"
  },
  "geometry": {
    "type": "Polygon",
    "coordinates": [
      [
        [
          -111.923546446485,
          40.7495735460582
        ],
        [
          -111.923546005412,
          40.7493813438789
        ],
        [
          -111.92367592965,
          40.7493811070515
        ],
        [
          -111.923802246254,
          40.7493808770295
        ],
        [
          -111.923928561061,
          40.749380647688
        ],
        [
          -111.924054875868,
          40.7493804183465
        ],
        [
          -111.924181192471,
          40.749380187644
        ],
        [
          -111.924307509075,
          40.7493799576219
        ],
        [
          -111.924433823882,
          40.7493797269194
        ],
        [
          -111.92462870979,
          40.7493793709977
        ],
        [
          -111.924629297288,
          40.7495715255451
        ],
        [
          -111.924629885684,
          40.7497636815788
        ],
        [
          -111.92443494498,
          40.7497640538312
        ],
        [
          -111.924308595138,
          40.749764295421
        ],
        [
          -111.924182245297,
          40.7497645370108
        ],
        [
          -111.924055895456,
          40.7497647786006
        ],
        [
          -111.924055387009,
          40.7495725980707
        ],
        [
          -111.923929053337,
          40.7495728328559
        ],
        [
          -111.923802720564,
          40.7495730683215
        ],
        [
          -111.923676387791,
          40.7495733044677
        ],
        [
          -111.923546446485,
          40.7495735460582
        ]
      ]
    ]
  }
}