{
  "type": "Feature",
  "properties": {
    "parcel_id": "15112590040000",
    "owner_name_raw": "SALT LAKE CITY CORP - PROPERTY MANAGEMENT",
    "owner_class": "CITY",
    "epsg": "EPSG:4326"
  },
  "geometry": {
    "type": "Polygon",
    "coordinates": [
      [
        [
          -111.918355435496,
          40.747912577141
        ],
        [
          -111.918800563296,
          40.7479121783366
        ],
        [
          -111.918799651506,
          40.7479290404103
        ],
        [
          -111.918355439987,
          40.747930649919
        ],
        [
          -111.918355435496,
          40.747912577141
        ]
      ]
    ]
  }
}