{
  "type": "Feature",
  "properties": {
    "parcel_id": "15113560370000",
    "owner_name_raw": "SALT LAKE COUNTY - REAL ESTATE DEPT # S3200",
    "owner_class": "COUNTY",
    "epsg": "EPSG:4326"
  },
  "geometry": {
    "type": "Polygon",
    "coordinates": [
      [
        [
          -111.925274652378,
          40.7428977461245
        ],
        [
          -111.925275163519,
          40.7427330640401
        ],
        [
          -111.925296816511,
          40.7427331041958
        ],
        [
          -111.925296697035,
          40.7427715298705
        ],
        [
          -111.925296415862,
          40.7428621041983
        ],
        [
          -111.925296303573,
          40.742897784919
        ],
        [
          -111.925274652378,
          40.7428977461245
        ]
      ]
    ]
  }
}