{
  "type": "Feature",
  "properties": {
    "parcel_id": "15111340120000",
    "owner_name_raw": "SALT LAKE CITY CORPORATION - PROPERTY MANAGEMENT",
    "owner_class": "CITY",
    "epsg": "EPSG:4326"
  },
  "geometry": {
    "type": "Polygon",
    "coordinates": [
      [
        [
          -111.92155464165,
          40.7526778820211
        ],
        [
          -111.921341186667,
          40.7524585141328
        ],
        [
          -111.921396401616,
          40.7524585678929
        ],
        [
          -111.921545414155,
          40.7524583950441
        ],
        [
          -111.921656242905,
          40.7526397512848
        ],
        [
          -111.921708054137,
          40.7526772790938
        ],
        [
          -111.921566191289,
          40.7526778677304
        ],
        [
          -111.92155464165,
          40.7526778820211
        ]
      ]
    ]
  }
}