{
  "type": "Feature",
  "properties": {
    "parcel_id": "15121570040000",
    "owner_name_raw": "STATE ROAD COMMISSION OF UTAH - UDOT RIGHT OF WAY",
    "owner_class": "STATE",
    "epsg": "EPSG:4326"
  },
  "geometry": {
    "type": "Polygon",
    "coordinates": [
      [
        [
          -111.906204606469,
          40.7479117495878
        ],
        [
          -111.906204484298,
          40.7479119789344
        ],
        [
          -111.906182379454,
          40.7479531680655
        ],
        [
          -111.906012287946,
          40.7479773236147
        ],
        [
          -111.905842195541,
          40.7480014798356
        ],
        [
          -111.905672103135,
          40.7480256346867
        ],
        [
          -111.905501974796,
          40.7480497976957
        ],
        [
          -111.905501778065,
          40.7479125621688
        ],
        [
          -111.906204606469,
          40.7479117495878
        ]
      ]
    ]
  }
}