{
  "type": "Feature",
  "properties": {
    "parcel_id": "15134270030000",
    "owner_name_raw": "SALT LAKE COUNTY - REAL ESTATE DEPT # S3200",
    "owner_class": "COUNTY",
    "epsg": "EPSG:4326"
  },
  "geometry": {
    "type": "Polygon",
    "coordinates": [
      [
        [
          -111.894943017945,
          40.7328218323857
        ],
        [
          -111.894943263185,
          40.7326248331623
        ],
        [
          -111.895211166854,
          40.732625026484
        ],
        [
          -111.895210922512,
          40.7328220250261
        ],
        [
          -111.894943017945,
          40.7328218323857
        ]
      ]
    ]
  }
}