{
  "type": "Feature",
  "properties": {
    "parcel_id": "15132760100000",
    "owner_name_raw": "SALT LAKE CITY CORP - PROPERTY MANAGEMENT",
    "owner_class": "CITY",
    "epsg": "EPSG:4326"
  },
  "geometry": {
    "type": "Polygon",
    "coordinates": [
      [
        [
          -111.894879862787,
          40.7355636016096
        ],
        [
          -111.894602666945,
          40.735563105394
        ],
        [
          -111.894602923863,
          40.7354229573319
        ],
        [
          -111.894603150239,
          40.7353002725703
        ],
        [
          -111.894538202044,
          40.7353001561736
        ],
        [
          -111.89406732224,
          40.7352993107657
        ],
        [
          -111.894068258284,
          40.7351698584165
        ],
        [
          -111.894604084487,
          40.7351700476466
        ],
        [
          -111.89466362123,
          40.7351700680672
        ],
        [
          -111.89494436991,
          40.7351701660857
        ],
        [
          -111.894943648562,
          40.7355637166445
        ],
        [
          -111.894879862787,
          40.7355636016096
        ]
      ]
    ]
  }
}