{
  "type": "Feature",
  "properties": {
    "parcel_id": "15141290160000",
    "owner_name_raw": "SALT LAKE CITY",
    "owner_class": "CITY",
    "epsg": "EPSG:4326"
  },
  "geometry": {
    "type": "Polygon",
    "coordinates": [
      [
        [
          -111.922027619918,
          40.73928829635
        ],
        [
          -111.922012511153,
          40.7392864790363
        ],
        [
          -111.921901127245,
          40.7392730799197
        ],
        [
          -111.921901205398,
          40.7392277913486
        ],
        [
          -111.921901470401,
          40.739073020565
        ],
        [
          -111.922029496499,
          40.7391481207421
        ],
        [
          -111.922051846583,
          40.7391612299299
        ],
        [
          -111.922045727259,
          40.7392904750844
        ],
        [
          -111.922027619918,
          40.73928829635
        ]
      ]
    ]
  }
}