{
  "type": "Feature",
  "properties": {
    "parcel_id": "15143020050000",
    "owner_name_raw": "SALT LAKE CITY CORPORATION - REAL ESTATE SERVICES",
    "owner_class": "CITY",
    "epsg": "EPSG:4326"
  },
  "geometry": {
    "type": "Polygon",
    "coordinates": [
      [
        [
          -111.924519778282,
          40.7312292963259
        ],
        [
          -111.924842604947,
          40.7295588038581
        ],
        [
          -111.924881307064,
          40.7293585328515
        ],
        [
          -111.925261607942,
          40.7290827985228
        ],
        [
          -111.928634696494,
          40.7290703524383
        ],
        [
          -111.929089898001,
          40.7295439105969
        ],
        [
          -111.92943294754,
          40.7299008013133
        ],
        [
          -111.929440819477,
          40.7320562493295
        ],
        [
          -111.925759821683,
          40.7313203662797
        ],
        [
          -111.925586499834,
          40.7312892075229
        ],
        [
          -111.925411349913,
          40.7312646694726
        ],
        [
          -111.925234806705,
          40.731246814082
        ],
        [
          -111.925057312181,
          40.7312356835614
        ],
        [
          -111.92487931011,
          40.7312313065046
        ],
        [
          -111.924519778282,
          40.7312292963259
        ]
      ]
    ]
  }
}