{
  "type": "Feature",
  "properties": {
    "parcel_id": "15141260100000",
    "owner_name_raw": "SALT LAKE CITY - PROPERTY MANAGEMENT",
    "owner_class": "CITY",
    "epsg": "EPSG:4326"
  },
  "geometry": {
    "type": "Polygon",
    "coordinates": [
      [
        [
          -111.923126752686,
          40.7399944925211
        ],
        [
          -111.923050094053,
          40.7403770135078
        ],
        [
          -111.923048769038,
          40.7403836251539
        ],
        [
          -111.922931852405,
          40.7403838415945
        ],
        [
          -111.923126752686,
          40.7399944925211
        ]
      ]
    ]
  }
}