{
  "type": "Feature",
  "properties": {
    "parcel_id": "15141260270000",
    "owner_name_raw": "SALT LAKE CITY - PROPERTY MANAGEMENT",
    "owner_class": "CITY",
    "epsg": "EPSG:4326"
  },
  "geometry": {
    "type": "Polygon",
    "coordinates": [
      [
        [
          -111.922475604361,
          40.7394634381917
        ],
        [
          -111.922571551619,
          40.7393623024938
        ],
        [
          -111.922761412351,
          40.7394947598771
        ],
        [
          -111.922679218299,
          40.7395521500312
        ],
        [
          -111.922520780636,
          40.7395024089057
        ],
        [
          -111.922475604361,
          40.7394634381917
        ]
      ]
    ]
  }
}