{
  "type": "Feature",
  "properties": {
    "parcel_id": "15141590090000",
    "owner_name_raw": "SALT LAKE CITY CORPORATION - PROPERTY MANAGEMENT",
    "owner_class": "CITY",
    "epsg": "EPSG:4326"
  },
  "geometry": {
    "type": "Polygon",
    "coordinates": [
      [
        [
          -111.925282854895,
          40.7351096593807
        ],
        [
          -111.925240998792,
          40.7351097383402
        ],
        [
          -111.924793575797,
          40.7351105742208
        ],
        [
          -111.924091134568,
          40.7351144432317
        ],
        [
          -111.924073553639,
          40.7336455213827
        ],
        [
          -111.924590996717,
          40.7336436133818
        ],
        [
          -111.924805419186,
          40.7336408306819
        ],
        [
          -111.925019688042,
          40.7336340672503
        ],
        [
          -111.925233674828,
          40.7336233264893
        ],
        [
          -111.926467129087,
          40.7335500743035
        ],
        [
          -111.926467289885,
          40.7337423120239
        ],
        [
          -111.92636885609,
          40.7338137288368
        ],
        [
          -111.926368956701,
          40.7339344947331
        ],
        [
          -111.926369094143,
          40.7340991747764
        ],
        [
          -111.926369229789,
          40.7342638550927
        ],
        [
          -111.926369367231,
          40.7344285363628
        ],
        [
          -111.926369259433,
          40.7345998750524
        ],
        [
          -111.92637015685,
          40.7347865117627
        ],
        [
          -111.926371055165,
          40.7349731486301
        ],
        [
          -111.925724144193,
          40.734969836412
        ],
        [
          -111.92573027789,
          40.7351088200966
        ],
        [
          -111.925282854895,
          40.7351096593807
        ]
      ]
    ]
  }
}