{
  "type": "Feature",
  "properties": {
    "parcel_id": "15141290070000",
    "owner_name_raw": "SALT LAKE CITY CORPORATION - PROPERTY MANAGEMENT",
    "owner_class": "CITY",
    "epsg": "EPSG:4326"
  },
  "geometry": {
    "type": "Polygon",
    "coordinates": [
      [
        [
          -111.921895255856,
          40.7394918093039
        ],
        [
          -111.921834111128,
          40.7393723678131
        ],
        [
          -111.921899337801,
          40.739402209148
        ],
        [
          -111.922113880697,
          40.7394910199289
        ],
        [
          -111.922113842914,
          40.7394910265682
        ],
        [
          -111.921895255856,
          40.7394918093039
        ]
      ]
    ]
  }
}