{
  "type": "Feature",
  "properties": {
    "parcel_id": "15154000100000",
    "owner_name_raw": "SALT LAKE CITY - PROPERTY MANAGEMENT",
    "owner_class": "CITY",
    "epsg": "EPSG:4326"
  },
  "geometry": {
    "type": "Polygon",
    "coordinates": [
      [
        [
          -111.929430532868,
          40.7292395299471
        ],
        [
          -111.929429864522,
          40.7290564686149
        ],
        [
          -111.929432386991,
          40.7290564597652
        ],
        [
          -111.937302103191,
          40.7290276389943
        ],
        [
          -111.937235440112,
          40.7301198263185
        ],
        [
          -111.937205121971,
          40.7306473507686
        ],
        [
          -111.930784852754,
          40.730671048345
        ],
        [
          -111.929433062524,
          40.7292422052734
        ],
        [
          -111.929430532868,
          40.7292395299471
        ]
      ]
    ]
  }
}