{
  "type": "Feature",
  "properties": {
    "parcel_id": "15152530300000",
    "owner_name_raw": "SALT LAKE COUNTY",
    "owner_class": "COUNTY",
    "epsg": "EPSG:4326"
  },
  "geometry": {
    "type": "Polygon",
    "coordinates": [
      [
        [
          -111.935395948226,
          40.7362340917852
        ],
        [
          -111.935266845049,
          40.7361018838429
        ],
        [
          -111.935305990035,
          40.7360804990912
        ],
        [
          -111.935433786164,
          40.7362134245056
        ],
        [
          -111.935396215026,
          40.7362343225334
        ],
        [
          -111.935395948226,
          40.7362340917852
        ]
      ]
    ]
  }
}