{
  "type": "Feature",
  "properties": {
    "parcel_id": "15162000400000",
    "owner_name_raw": "UTAH DEPARTMENT OF TRANSPORTAT - UDOT RIGHT OF WAY",
    "owner_class": "STATE",
    "epsg": "EPSG:4326"
  },
  "geometry": {
    "type": "Polygon",
    "coordinates": [
      [
        [
          -111.950104035627,
          40.7395947995454
        ],
        [
          -111.94974506345,
          40.7395958232259
        ],
        [
          -111.949736504302,
          40.737857712075
        ],
        [
          -111.950179939675,
          40.737856644125
        ],
        [
          -111.950340412023,
          40.7380684286866
        ],
        [
          -111.950374336001,
          40.7381221601961
        ],
        [
          -111.950403584248,
          40.7381774578452
        ],
        [
          -111.950428031899,
          40.7382340895274
        ],
        [
          -111.950467089749,
          40.7383358946598
        ],
        [
          -111.950146789146,
          40.7379149865686
        ],
        [
          -111.950219830264,
          40.7385311930459
        ],
        [
          -111.950278021331,
          40.7393544506181
        ],
        [
          -111.95028315161,
          40.7395449134756
        ],
        [
          -111.950284477523,
          40.7395942856632
        ],
        [
          -111.950104035627,
          40.7395947995454
        ]
      ]
    ]
  }
}