{
  "type": "Feature",
  "properties": {
    "parcel_id": "15221260380000",
    "owner_name_raw": "UNITED STATES POSTAL SERVICE - ADMINISTRATIVE SERVICES",
    "owner_class": "UNCLASSIFIED",
    "epsg": "EPSG:4326"
  },
  "geometry": {
    "type": "Polygon",
    "coordinates": [
      [
        [
          -111.940375172404,
          40.7247613349078
        ],
        [
          -111.940466219353,
          40.7247372464953
        ],
        [
          -111.94103838151,
          40.7245859576132
        ],
        [
          -111.941177304172,
          40.7245517893231
        ],
        [
          -111.941318053109,
          40.724522267427
        ],
        [
          -111.94146036242,
          40.7244974443522
        ],
        [
          -111.941603959016,
          40.7244773698019
        ],
        [
          -111.941751138993,
          40.7244722665748
        ],
        [
          -111.941898440241,
          40.7244699437078
        ],
        [
          -111.941899694289,
          40.7256506366665
        ],
        [
          -111.941901225917,
          40.7257338335407
        ],
        [
          -111.941901225917,
          40.7257389482444
        ],
        [
          -111.940467061973,
          40.7257449554507
        ],
        [
          -111.940375172404,
          40.7247613349078
        ]
      ]
    ]
  }
}