{
  "type": "Feature",
  "properties": {
    "parcel_id": "15221260020000",
    "owner_name_raw": "UNITED STATES POSTAL SERVICE",
    "owner_class": "UNCLASSIFIED",
    "epsg": "EPSG:4326"
  },
  "geometry": {
    "type": "Polygon",
    "coordinates": [
      [
        [
          -111.941901225917,
          40.7257338335407
        ],
        [
          -111.941899694289,
          40.7256506366665
        ],
        [
          -111.942803097631,
          40.7256438438299
        ],
        [
          -111.942803161412,
          40.7257318511079
        ],
        [
          -111.941901225917,
          40.7257338335407
        ]
      ]
    ]
  }
}