{
  "type": "Feature",
  "properties": {
    "parcel_id": "160130007",
    "owner_name_raw": "UNITED STATES OF AMERICA",
    "owner_class": "UNCLASSIFIED",
    "epsg": "EPSG:4326"
  },
  "geometry": {
    "type": "Polygon",
    "coordinates": [
      [
        [
          -111.527281026246,
          40.3196903300087
        ],
        [
          -111.525965019507,
          40.3196815452639
        ],
        [
          -111.525959774244,
          40.321497011146
        ],
        [
          -111.526012562844,
          40.3340489212344
        ],
        [
          -111.524682816373,
          40.3340736401012
        ],
        [
          -111.524680954166,
          40.3289100763813
        ],
        [
          -111.522673594103,
          40.3289104838511
        ],
        [
          -111.522652004892,
          40.3221778996292
        ],
        [
          -111.518579656943,
          40.322167692688
        ],
        [
          -111.518527438774,
          40.3185815424915
        ],
        [
          -111.527284151485,
          40.31860107253
        ],
        [
          -111.527281026246,
          40.3196903300087
        ]
      ]
    ]
  }
}