{
  "type": "Feature",
  "properties": {
    "parcel_id": "160150002",
    "owner_name_raw": "UNITED STATES OF AMERICA",
    "owner_class": "UNCLASSIFIED",
    "epsg": "EPSG:4326"
  },
  "geometry": {
    "type": "Polygon",
    "coordinates": [
      [
        [
          -111.480552300998,
          40.3132095777233
        ],
        [
          -111.480565353519,
          40.3113900207977
        ],
        [
          -111.480565357112,
          40.3113899659976
        ],
        [
          -111.480600519868,
          40.3042039591643
        ],
        [
          -111.490041216124,
          40.3041706289365
        ],
        [
          -111.499481905194,
          40.3041365368894
        ],
        [
          -111.499345096268,
          40.3114017260954
        ],
        [
          -111.499208256799,
          40.3186668981837
        ],
        [
          -111.494534473292,
          40.3186675707823
        ],
        [
          -111.489860687091,
          40.3186680570807
        ],
        [
          -111.489883257263,
          40.3168558857438
        ],
        [
          -111.485204722567,
          40.3168524521111
        ],
        [
          -111.485222538854,
          40.3150365428276
        ],
        [
          -111.485240355141,
          40.3132206333423
        ],
        [
          -111.480552300998,
          40.3132095777233
        ]
      ]
    ]
  }
}