{
  "type": "Feature",
  "properties": {
    "parcel_id": "160130009",
    "owner_name_raw": "UNITED STATES OF AMERICA",
    "owner_class": "UNCLASSIFIED",
    "epsg": "EPSG:4326"
  },
  "geometry": {
    "type": "Polygon",
    "coordinates": [
      [
        [
          -111.532056429872,
          40.3185680144743
        ],
        [
          -111.527284126332,
          40.3186010677355
        ],
        [
          -111.527343706195,
          40.3149720157525
        ],
        [
          -111.527403279769,
          40.3113429584656
        ],
        [
          -111.532087996671,
          40.3113577270981
        ],
        [
          -111.532072220458,
          40.3149628721573
        ],
        [
          -111.532056429872,
          40.3185680144743
        ]
      ]
    ]
  }
}