{
  "type": "Feature",
  "properties": {
    "parcel_id": "160290005",
    "owner_name_raw": "UTAH DEPARTMENT OF TRANSPORTATION",
    "owner_class": "STATE",
    "epsg": "EPSG:4326"
  },
  "geometry": {
    "type": "Polygon",
    "coordinates": [
      [
        [
          -111.867210344376,
          40.2389070939467
        ],
        [
          -111.86766896577,
          40.2389076013911
        ],
        [
          -111.867504573175,
          40.2393064405859
        ],
        [
          -111.867451824099,
          40.2394389594746
        ],
        [
          -111.867402739112,
          40.239572295932
        ],
        [
          -111.867357339943,
          40.2397063909264
        ],
        [
          -111.867315646691,
          40.2398411850904
        ],
        [
          -111.867209057989,
          40.239822670478
        ],
        [
          -111.867210344376,
          40.2389070939467
        ]
      ]
    ]
  }
}