{
  "type": "Feature",
  "properties": {
    "parcel_id": "16034000010000",
    "owner_name_raw": "UNITED STATES OF AMERICA - BUREAU OF RECLAMATION",
    "owner_class": "UNCLASSIFIED",
    "epsg": "EPSG:4326"
  },
  "geometry": {
    "type": "Polygon",
    "coordinates": [
      [
        [
          -111.823255691286,
          40.7600423032976
        ],
        [
          -111.824436915698,
          40.7595336579078
        ],
        [
          -111.824580663211,
          40.7596783235949
        ],
        [
          -111.825730826575,
          40.7608358044611
        ],
        [
          -111.825721301738,
          40.7608263915123
        ],
        [
          -111.825711562204,
          40.7608171064813
        ],
        [
          -111.825701610667,
          40.7608079500487
        ],
        [
          -111.825691451619,
          40.7607989290188
        ],
        [
          -111.825681086858,
          40.760790044072
        ],
        [
          -111.825670519975,
          40.7607812979301
        ],
        [
          -111.82565975187,
          40.7607726933148
        ],
        [
          -111.825648789728,
          40.760764231587
        ],
        [
          -111.825637634449,
          40.7607559181902
        ],
        [
          -111.825626291422,
          40.7607477538047
        ],
        [
          -111.825614761545,
          40.7607397418329
        ],
        [
          -111.825603049311,
          40.7607318822746
        ],
        [
          -111.825591160108,
          40.7607241805735
        ],
        [
          -111.825579094835,
          40.7607166367295
        ],
        [
          -111.825566858883,
          40.7607092555057
        ],
        [
          -111.825554454047,
          40.7607020375825
        ],
        [
          -111.82554188482,
          40.7606949843208
        ],
        [
          -111.825529157489,
          40.7606880991227
        ],
        [
          -111.825516272952,
          40.7606813853906
        ],
        [
          -111.825503237499,
          40.7606748424439
        ],
        [
          -111.825490052926,
          40.7606684736848
        ],
        [
          -111.825476723724,
          40.7606622811547
        ],
        [
          -111.825463255283,
          40.7606562655341
        ],
        [
          -111.825449650298,
          40.7606504295446
        ],
        [
          -111.825435914159,
          40.7606447759081
        ],
        [
          -111.825422050459,
          40.7606393053049
        ],
        [
          -111.825408062792,
          40.7606340190961
        ],
        [
          -111.825393955648,
          40.7606289206836
        ],
        [
          -111.825379735318,
          40.7606240087068
        ],
        [
          -111.825365402697,
          40.7606192865678
        ],
        [
          -111.825350964076,
          40.7606147549471
        ],
        [
          -111.825336423046,
          40.7606104158859
        ],
        [
          -111.825321784999,
          40.7606062714256
        ],
        [
          -111.825307053526,
          40.7606023202054
        ],
        [
          -111.825292235816,
          40.7605985663078
        ],
        [
          -111.825277331867,
          40.7605950097329
        ],
        [
          -111.825262350663,
          40.7605916504807
        ],
        [
          -111.825247292204,
          40.7605884905926
        ],
        [
          -111.825232167269,
          40.7605855314293
        ],
        [
          -111.825216974063,
          40.7605827736713
        ],
        [
          -111.825201718873,
          40.7605802173188
        ],
        [
          -111.825186408885,
          40.7605778644128
        ],
        [
          -111.825171046796,
          40.7605757149536
        ],
        [
          -111.825155637095,
          40.7605737696215
        ],
        [
          -111.825140186971,
          40.7605720290969
        ],
        [
          -111.82512469732,
          40.7605704933799
        ],
        [
          -111.825109176229,
          40.7605691645118
        ],
        [
          -111.825093625493,
          40.7605680404513
        ],
        [
          -111.825078051401,
          40.7605671225593
        ],
        [
          -111.825062460241,
          40.7605664135574
        ],
        [
          -111.825046855606,
          40.7605659107241
        ],
        [
          -111.825031239293,
          40.7605656147396
        ],
        [
          -111.825015619387,
          40.7605655262844
        ],
        [
          -111.825000001277,
          40.7605656446783
        ],
        [
          -111.824984386761,
          40.7605659712818
        ],
        [
          -111.824968783923,
          40.7605665040538
        ],
        [
          -111.824953194559,
          40.7605672436748
        ],
        [
          -111.824937623162,
          40.7605681901446
        ],
        [
          -111.824922076918,
          40.7605693434633
        ],
        [
          -111.824906560318,
          40.7605707029505
        ],
        [
          -111.824891076057,
          40.7605722686061
        ],
        [
          -111.824875631323,
          40.7605740390694
        ],
        [
          -111.824860227911,
          40.7605760136597
        ],
        [
          -111.824844873906,
          40.7605781930576
        ],
        [
          -111.824829571105,
          40.7605805759021
        ],
        [
          -111.824814325796,
          40.7605831601521
        ],
        [
          -111.824799142471,
          40.7605859478487
        ],
        [
          -111.824784024723,
          40.7605889362701
        ],
        [
          -111.824768977942,
          40.7605921233753
        ],
        [
          -111.82475400662,
          40.7605955112052
        ],
        [
          -111.824739115247,
          40.7605990977187
        ],
        [
          -111.824724308317,
          40.7606028801941
        ],
        [
          -111.824709592116,
          40.7606068599921
        ],
        [
          -111.824694967543,
          40.7606110337105
        ],
        [
          -111.824667181753,
          40.760619582552
        ],
        [
          -111.824580030797,
          40.7606476996867
        ],
        [
          -111.824200485403,
          40.7607701485367
        ],
        [
          -111.82377475223,
          40.7609074970122
        ],
        [
          -111.823486258277,
          40.7605253547162
        ],
        [
          -111.823388905155,
          40.7605594916032
        ],
        [
          -111.823171225395,
          40.7602664261634
        ],
        [
          -111.823360184218,
          40.760186295615
        ],
        [
          -111.823255691286,
          40.7600423032976
        ]
      ]
    ]
  }
}