{
  "type": "Feature",
  "properties": {
    "parcel_id": "16041260040000",
    "owner_name_raw": "STATE OF UTAH - REAL ESTATE ACCOUNTING & OPS",
    "owner_class": "STATE",
    "epsg": "EPSG:4326"
  },
  "geometry": {
    "type": "Polygon",
    "coordinates": [
      [
        [
          -111.843541152385,
          40.7660814816538
        ],
        [
          -111.844261124237,
          40.7657056809114
        ],
        [
          -111.846659873981,
          40.7656986363451
        ],
        [
          -111.846665721115,
          40.7670162062639
        ],
        [
          -111.846667960615,
          40.7674553459821
        ],
        [
          -111.843547699306,
          40.7674644987775
        ],
        [
          -111.843541152385,
          40.7660814816538
        ]
      ]
    ]
  }
}