{
  "type": "Feature",
  "properties": {
    "parcel_id": "16041020020000",
    "owner_name_raw": "SALT LAKE CITY CORP - PROPERTY MANAGEMENT",
    "owner_class": "CITY",
    "epsg": "EPSG:4326"
  },
  "geometry": {
    "type": "Polygon",
    "coordinates": [
      [
        [
          -111.849041177543,
          40.7691588953647
        ],
        [
          -111.849078616629,
          40.7691946415738
        ],
        [
          -111.849108741632,
          40.7692341819938
        ],
        [
          -111.849130896782,
          40.7692766587158
        ],
        [
          -111.849144604175,
          40.7693211478398
        ],
        [
          -111.849149562876,
          40.7693666873697
        ],
        [
          -111.84914566778,
          40.7694122846968
        ],
        [
          -111.849133002433,
          40.7694569540182
        ],
        [
          -111.84911184082,
          40.7694997224605
        ],
        [
          -111.849082643777,
          40.7695396627343
        ],
        [
          -111.849046044615,
          40.7695759087824
        ],
        [
          -111.849044351291,
          40.7695773517662
        ],
        [
          -111.849035603497,
          40.7695834509405
        ],
        [
          -111.849025660943,
          40.7695883785831
        ],
        [
          -111.849014789532,
          40.7695920020296
        ],
        [
          -111.849003284808,
          40.7695942212714
        ],
        [
          -111.848991457589,
          40.7695949784805
        ],
        [
          -111.848979626777,
          40.7695942525667
        ],
        [
          -111.848968112171,
          40.7695920625792
        ],
        [
          -111.848957225488,
          40.7695884670263
        ],
        [
          -111.848947259579,
          40.7695835652363
        ],
        [
          -111.848938485733,
          40.7695774885129
        ],
        [
          -111.848931139311,
          40.7695704008158
        ],
        [
          -111.848925419737,
          40.769562493318
        ],
        [
          -111.848904040732,
          40.7694873023074
        ],
        [
          -111.848891985341,
          40.7694109226691
        ],
        [
          -111.848889359565,
          40.7693340204462
        ],
        [
          -111.848896184066,
          40.7692572671278
        ],
        [
          -111.848912401352,
          40.7691813335254
        ],
        [
          -111.848912931358,
          40.7691794231423
        ],
        [
          -111.848916475212,
          40.769170930509
        ],
        [
          -111.848921777967,
          40.7691629848648
        ],
        [
          -111.848928701283,
          40.7691557964337
        ],
        [
          -111.8489370637,
          40.7691495543495
        ],
        [
          -111.848946645131,
          40.7691444225735
        ],
        [
          -111.848957190454,
          40.7691405371732
        ],
        [
          -111.848968425683,
          40.7691379995188
        ],
        [
          -111.84898005168,
          40.7691368783246
        ],
        [
          -111.848991763914,
          40.769137200804
        ],
        [
          -111.849003252469,
          40.7691389594733
        ],
        [
          -111.849014216407,
          40.76914210875
        ],
        [
          -111.849024364674,
          40.7691465635916
        ],
        [
          -111.849033431371,
          40.7691522090213
        ],
        [
          -111.849041177543,
          40.7691588953647
        ]
      ]
    ]
  }
}