{
  "type": "Feature",
  "properties": {
    "parcel_id": "16053300060000",
    "owner_name_raw": "BOARD OF EDUCATION OF SALT LAK",
    "owner_class": "SCHOOL_DISTRICT",
    "epsg": "EPSG:4326"
  },
  "geometry": {
    "type": "Polygon",
    "coordinates": [
      [
        [
          -111.867482328193,
          40.760040597461
        ],
        [
          -111.867482327295,
          40.7600261601077
        ],
        [
          -111.867958790128,
          40.7600259804743
        ],
        [
          -111.867958790128,
          40.7600404178276
        ],
        [
          -111.867482328193,
          40.760040597461
        ]
      ]
    ]
  }
}