{
  "type": "Feature",
  "properties": {
    "parcel_id": "16051020070000",
    "owner_name_raw": "SALT LAKE COUNTY - REAL ESTATE DEPT # S3200",
    "owner_class": "COUNTY",
    "epsg": "EPSG:4326"
  },
  "geometry": {
    "type": "Polygon",
    "coordinates": [
      [
        [
          -111.870228950531,
          40.7684772726673
        ],
        [
          -111.870228950531,
          40.7684679410812
        ],
        [
          -111.870358334881,
          40.7684679179495
        ],
        [
          -111.870358335779,
          40.768477250216
        ],
        [
          -111.870228950531,
          40.7684772726673
        ]
      ]
    ]
  }
}