{
  "type": "Feature",
  "properties": {
    "parcel_id": "16052070240000",
    "owner_name_raw": "SALT LAKE COUNTY - REAL ESTATE DEPT # S3200",
    "owner_class": "COUNTY",
    "epsg": "EPSG:4326"
  },
  "geometry": {
    "type": "Polygon",
    "coordinates": [
      [
        [
          -111.857677446836,
          40.7666445235946
        ],
        [
          -111.857677719924,
          40.7663220279029
        ],
        [
          -111.857681330253,
          40.7663220272225
        ],
        [
          -111.857681056267,
          40.7666445242749
        ],
        [
          -111.857677446836,
          40.7666445235946
        ]
      ]
    ]
  }
}