{
  "type": "Feature",
  "properties": {
    "parcel_id": "16053310010000",
    "owner_name_raw": "BOARD OF EDUCATION OF SALT LAK",
    "owner_class": "SCHOOL_DISTRICT",
    "epsg": "EPSG:4326"
  },
  "geometry": {
    "type": "Polygon",
    "coordinates": [
      [
        [
          -111.867482276989,
          40.759429072302
        ],
        [
          -111.867958738924,
          40.7594289436997
        ],
        [
          -111.867958747009,
          40.7595277496937
        ],
        [
          -111.867482285972,
          40.7595278776154
        ],
        [
          -111.867482276989,
          40.759429072302
        ]
      ]
    ]
  }
}