{
  "type": "Feature",
  "properties": {
    "parcel_id": "160670019",
    "owner_name_raw": "UNITED STATES OF AMERICA",
    "owner_class": "UNCLASSIFIED",
    "epsg": "EPSG:4326"
  },
  "geometry": {
    "type": "Polygon",
    "coordinates": [
      [
        [
          -111.322493908217,
          40.2753379719658
        ],
        [
          -111.322496228565,
          40.2825779243623
        ],
        [
          -111.322498551609,
          40.2898178744008
        ],
        [
          -111.313077304776,
          40.2897724312896
        ],
        [
          -111.310663106705,
          40.289760664
        ],
        [
          -111.312996304585,
          40.288126773797
        ],
        [
          -111.307696599244,
          40.2824940581214
        ],
        [
          -111.308041156156,
          40.2798657423957
        ],
        [
          -111.308775893617,
          40.2752722014091
        ],
        [
          -111.313146021404,
          40.2752933292239
        ],
        [
          -111.322493908217,
          40.2753379719658
        ]
      ]
    ]
  }
}