{
  "type": "Feature",
  "properties": {
    "parcel_id": "16062060110000",
    "owner_name_raw": "BOARD OF EDUCATION OF SALT LAK",
    "owner_class": "SCHOOL_DISTRICT",
    "epsg": "EPSG:4326"
  },
  "geometry": {
    "type": "Polygon",
    "coordinates": [
      [
        [
          -111.878811967693,
          40.7669976426926
        ],
        [
          -111.878812007219,
          40.766499490705
        ],
        [
          -111.878884459042,
          40.7664994716549
        ],
        [
          -111.878884311718,
          40.7669976243229
        ],
        [
          -111.878811967693,
          40.7669976426926
        ]
      ]
    ]
  }
}