{
  "type": "Feature",
  "properties": {
    "parcel_id": "16063830040000",
    "owner_name_raw": "SALT LAKE CITY CORPORATION - PROPERTY MANAGEMENT",
    "owner_class": "CITY",
    "epsg": "EPSG:4326"
  },
  "geometry": {
    "type": "Polygon",
    "coordinates": [
      [
        [
          -111.884799488793,
          40.7555245169139
        ],
        [
          -111.884799380996,
          40.7553779817625
        ],
        [
          -111.885124225277,
          40.7553778150456
        ],
        [
          -111.885124328583,
          40.7555243481559
        ],
        [
          -111.884799488793,
          40.7555245169139
        ]
      ]
    ]
  }
}