{
  "type": "Feature",
  "properties": {
    "parcel_id": "160660035",
    "owner_name_raw": "UNITED STATES OF AMERICA",
    "owner_class": "UNCLASSIFIED",
    "epsg": "EPSG:4326"
  },
  "geometry": {
    "type": "Polygon",
    "coordinates": [
      [
        [
          -111.341353496821,
          40.2464153778065
        ],
        [
          -111.341353542635,
          40.2464153586081
        ],
        [
          -111.350787466493,
          40.2464329176652
        ],
        [
          -111.360221394842,
          40.2464497122076
        ],
        [
          -111.360251180282,
          40.2536841350059
        ],
        [
          -111.360280970213,
          40.2609185426701
        ],
        [
          -111.350830929681,
          40.2609037616421
        ],
        [
          -111.341380895437,
          40.2608882155782
        ],
        [
          -111.341367195231,
          40.2536518048159
        ],
        [
          -111.341353496821,
          40.2464153778065
        ]
      ]
    ]
  }
}