{
  "type": "Feature",
  "properties": {
    "parcel_id": "160650021",
    "owner_name_raw": "UNITED STATES OF AMERICA",
    "owner_class": "UNCLASSIFIED",
    "epsg": "EPSG:4326"
  },
  "geometry": {
    "type": "Polygon",
    "coordinates": [
      [
        [
          -111.499600433404,
          40.2753582978813
        ],
        [
          -111.499651686783,
          40.2825101728104
        ],
        [
          -111.499702950941,
          40.2896620326125
        ],
        [
          -111.490152608117,
          40.2897459372407
        ],
        [
          -111.480602241938,
          40.2898290599288
        ],
        [
          -111.480602594077,
          40.2826415825937
        ],
        [
          -111.480602946217,
          40.2754540873685
        ],
        [
          -111.490101671844,
          40.275406567537
        ],
        [
          -111.499600383098,
          40.2753582745789
        ],
        [
          -111.499600433404,
          40.2753582978813
        ]
      ]
    ]
  }
}