{
  "type": "Feature",
  "properties": {
    "parcel_id": "160670029",
    "owner_name_raw": "UNITED STATES OF AMERICA",
    "owner_class": "UNCLASSIFIED",
    "epsg": "EPSG:4326"
  },
  "geometry": {
    "type": "Polygon",
    "coordinates": [
      [
        [
          -111.303756377303,
          40.2607991310383
        ],
        [
          -111.303823600033,
          40.2680311473015
        ],
        [
          -111.3038794986,
          40.2740445610226
        ],
        [
          -111.30325866572,
          40.2738988402199
        ],
        [
          -111.296903905247,
          40.2716267070675
        ],
        [
          -111.284940085699,
          40.2621377305461
        ],
        [
          -111.284924411894,
          40.2607594610181
        ],
        [
          -111.294340384717,
          40.2607796795763
        ],
        [
          -111.303756377303,
          40.2607991310383
        ]
      ]
    ]
  }
}