{
  "type": "Feature",
  "properties": {
    "parcel_id": "16064610020000",
    "owner_name_raw": "SALT LAKE CITY CORPORATION - PROPERTY MANAGEMENT",
    "owner_class": "CITY",
    "epsg": "EPSG:4326"
  },
  "geometry": {
    "type": "Polygon",
    "coordinates": [
      [
        [
          -111.877852816701,
          40.7561274020066
        ],
        [
          -111.877852593021,
          40.7556744017165
        ],
        [
          -111.878047497793,
          40.7556743180181
        ],
        [
          -111.878047721474,
          40.7561273176284
        ],
        [
          -111.877852816701,
          40.7561274020066
        ]
      ]
    ]
  }
}