{
  "type": "Feature",
  "properties": {
    "parcel_id": "160650018",
    "owner_name_raw": "UNITED STATES OF AMERICA",
    "owner_class": "UNCLASSIFIED",
    "epsg": "EPSG:4326"
  },
  "geometry": {
    "type": "Polygon",
    "coordinates": [
      [
        [
          -111.54246400353,
          40.2899340903301
        ],
        [
          -111.542465571988,
          40.2909336792666
        ],
        [
          -111.542482312094,
          40.2971124786512
        ],
        [
          -111.542419741739,
          40.2984063622353
        ],
        [
          -111.54250176601,
          40.3042998290346
        ],
        [
          -111.52789357037,
          40.3041006033433
        ],
        [
          -111.518278473388,
          40.3040155964395
        ],
        [
          -111.518263389776,
          40.2968644944344
        ],
        [
          -111.51824830796,
          40.2897133762356
        ],
        [
          -111.527510346375,
          40.2897983908564
        ],
        [
          -111.536772409044,
          40.2898826708154
        ],
        [
          -111.54246400353,
          40.2899340903301
        ]
      ]
    ]
  }
}