{
  "type": "Feature",
  "properties": {
    "parcel_id": "16063850050000",
    "owner_name_raw": "SALT LAKE CITY CORPORATION - PROPERTY MANAGEMENT",
    "owner_class": "CITY",
    "epsg": "EPSG:4326"
  },
  "geometry": {
    "type": "Polygon",
    "coordinates": [
      [
        [
          -111.884366254688,
          40.7553782029176
        ],
        [
          -111.884221881947,
          40.7553782757287
        ],
        [
          -111.884077505613,
          40.7553783492202
        ],
        [
          -111.883932662155,
          40.7553784220313
        ],
        [
          -111.883932624426,
          40.7553317576134
        ],
        [
          -111.884369840763,
          40.7553315493873
        ],
        [
          -111.884369865017,
          40.7553782008762
        ],
        [
          -111.884366254688,
          40.7553782029176
        ]
      ]
    ]
  }
}