{
  "type": "Feature",
  "properties": {
    "parcel_id": "16073300360000",
    "owner_name_raw": "BOARD OF EDUCATION OF SALT LAK",
    "owner_class": "SCHOOL_DISTRICT",
    "epsg": "EPSG:4326"
  },
  "geometry": {
    "type": "Polygon",
    "coordinates": [
      [
        [
          -111.884691737672,
          40.7456580126361
        ],
        [
          -111.884633348077,
          40.7456579513842
        ],
        [
          -111.884066767152,
          40.7456573463516
        ],
        [
          -111.883828626465,
          40.745657514454
        ],
        [
          -111.883261686215,
          40.7456579105496
        ],
        [
          -111.883232819751,
          40.7456579302864
        ],
        [
          -111.883203955085,
          40.7456579500231
        ],
        [
          -111.882637091191,
          40.745658535319
        ],
        [
          -111.882637792775,
          40.744869636151
        ],
        [
          -111.883089116255,
          40.7448692992616
        ],
        [
          -111.883154434556,
          40.7448692536624
        ],
        [
          -111.883280856263,
          40.7448691658669
        ],
        [
          -111.883425336802,
          40.7448690644598
        ],
        [
          -111.88356981734,
          40.7448689644139
        ],
        [
          -111.883714297879,
          40.7448688636873
        ],
        [
          -111.883858778418,
          40.7448687615996
        ],
        [
          -111.884003258058,
          40.7448686601925
        ],
        [
          -111.884147738597,
          40.7448685581048
        ],
        [
          -111.884288606112,
          40.7448684587394
        ],
        [
          -111.88442902896,
          40.744868359374
        ],
        [
          -111.884576268225,
          40.7448682559252
        ],
        [
          -111.884703298091,
          40.744868166088
        ],
        [
          -111.884840431309,
          40.7448680687644
        ],
        [
          -111.884977566324,
          40.7448679707602
        ],
        [
          -111.885259053418,
          40.7448677699877
        ],
        [
          -111.885258319494,
          40.7456586149464
        ],
        [
          -111.884691737672,
          40.7456580126361
        ]
      ]
    ]
  }
}