{
  "type": "Feature",
  "properties": {
    "parcel_id": "16072310350000",
    "owner_name_raw": "SALT LAKE COUNTY - REAL ESTATE DEPT # S3200",
    "owner_class": "COUNTY",
    "epsg": "EPSG:4326"
  },
  "geometry": {
    "type": "Polygon",
    "coordinates": [
      [
        [
          -111.874443376025,
          40.7523712676287
        ],
        [
          -111.874585684437,
          40.7523707484011
        ],
        [
          -111.874591352807,
          40.7523707334299
        ],
        [
          -111.874591351908,
          40.7523738746545
        ],
        [
          -111.874158254347,
          40.7523750526137
        ],
        [
          -111.87415825255,
          40.7523723081253
        ],
        [
          -111.874443376025,
          40.7523712676287
        ]
      ]
    ]
  }
}