{
  "type": "Feature",
  "properties": {
    "parcel_id": "16074270010000",
    "owner_name_raw": "SALT LAKE CITY CORP - PROPERTY MANAGEMENT",
    "owner_class": "CITY",
    "epsg": "EPSG:4326"
  },
  "geometry": {
    "type": "Polygon",
    "coordinates": [
      [
        [
          -111.871300072929,
          40.7496071700005
        ],
        [
          -111.871345377664,
          40.7417238053171
        ],
        [
          -111.876658813755,
          40.7417205948471
        ],
        [
          -111.876660404671,
          40.7496040524639
        ],
        [
          -111.871300072929,
          40.7496071700005
        ]
      ]
    ]
  }
}