{
  "type": "Feature",
  "properties": {
    "parcel_id": "16073290170000",
    "owner_name_raw": "SALT LAKE CITY CORPORATION - PROPERTY MANAGEMENT",
    "owner_class": "CITY",
    "epsg": "EPSG:4326"
  },
  "geometry": {
    "type": "Polygon",
    "coordinates": [
      [
        [
          -111.883542858899,
          40.7463559192202
        ],
        [
          -111.883542925374,
          40.7462873034874
        ],
        [
          -111.883542991849,
          40.746218687684
        ],
        [
          -111.883543059223,
          40.7461500718096
        ],
        [
          -111.883543126597,
          40.7460814565452
        ],
        [
          -111.88354318858,
          40.7460128405292
        ],
        [
          -111.883543251462,
          40.7459442251232
        ],
        [
          -111.883673171209,
          40.7459441346069
        ],
        [
          -111.883673108327,
          40.746012750013
        ],
        [
          -111.883673046343,
          40.7460813653484
        ],
        [
          -111.88368387194,
          40.7460813585427
        ],
        [
          -111.883683805465,
          40.7461499744879
        ],
        [
          -111.88368373899,
          40.7462185903623
        ],
        [
          -111.883683671616,
          40.7462872054854
        ],
        [
          -111.883683606937,
          40.7463558218987
        ],
        [
          -111.883542858899,
          40.7463559192202
        ]
      ]
    ]
  }
}