{
  "type": "Feature",
  "properties": {
    "parcel_id": "160710028",
    "owner_name_raw": "UNITED STATES OF AMERICA",
    "owner_class": "UNCLASSIFIED",
    "epsg": "EPSG:4326"
  },
  "geometry": {
    "type": "Polygon",
    "coordinates": [
      [
        [
          -111.264361812446,
          40.1745253066258
        ],
        [
          -111.273776107216,
          40.1745705965091
        ],
        [
          -111.273745197984,
          40.1817861745259
        ],
        [
          -111.273714283361,
          40.1890017400749
        ],
        [
          -111.264292254097,
          40.1889782418087
        ],
        [
          -111.254870227527,
          40.1889539852377
        ],
        [
          -111.254908898203,
          40.1817166248089
        ],
        [
          -111.254947558998,
          40.174479253449
        ],
        [
          -111.264361812446,
          40.1745253066258
        ]
      ]
    ]
  }
}