{
  "type": "Feature",
  "properties": {
    "parcel_id": "16084280230000",
    "owner_name_raw": "SALT LAKE CITY CORPORATION",
    "owner_class": "CITY",
    "epsg": "EPSG:4326"
  },
  "geometry": {
    "type": "Polygon",
    "coordinates": [
      [
        [
          -111.854309153491,
          40.7452067792652
        ],
        [
          -111.854309232543,
          40.7448543917324
        ],
        [
          -111.85467010825,
          40.7448546047554
        ],
        [
          -111.854670031893,
          40.7452068058079
        ],
        [
          -111.854309153491,
          40.7452067792652
        ]
      ]
    ]
  }
}