{
  "type": "Feature",
  "properties": {
    "parcel_id": "16084060260000",
    "owner_name_raw": "SALT LAKE COUNTY - REAL ESTATE DEPT # S3200",
    "owner_class": "COUNTY",
    "epsg": "EPSG:4326"
  },
  "geometry": {
    "type": "Polygon",
    "coordinates": [
      [
        [
          -111.859917275622,
          40.7472482031384
        ],
        [
          -111.859656971701,
          40.7472479574561
        ],
        [
          -111.859656979786,
          40.7472438468714
        ],
        [
          -111.860072465876,
          40.7472442273046
        ],
        [
          -111.860072459588,
          40.7472483460561
        ],
        [
          -111.859917275622,
          40.7472482031384
        ]
      ]
    ]
  }
}