{
  "type": "Feature",
  "properties": {
    "parcel_id": "16083770320000",
    "owner_name_raw": "SALT LAKE CITY CORPORATION - PROPERTY MANAGEMENT",
    "owner_class": "CITY",
    "epsg": "EPSG:4326"
  },
  "geometry": {
    "type": "Polygon",
    "coordinates": [
      [
        [
          -111.865452714166,
          40.7415310693057
        ],
        [
          -111.865457433915,
          40.741535866988
        ],
        [
          -111.865462953164,
          40.7415401439965
        ],
        [
          -111.865469170404,
          40.7415438241021
        ],
        [
          -111.86547597604,
          40.7415468426462
        ],
        [
          -111.865452704285,
          40.7415468521748
        ],
        [
          -111.865452714166,
          40.7415310693057
        ]
      ]
    ]
  }
}