{
  "type": "Feature",
  "properties": {
    "parcel_id": "16084540030000",
    "owner_name_raw": "BOARD OF EDUCATION OF SALT LAK",
    "owner_class": "SCHOOL_DISTRICT",
    "epsg": "EPSG:4326"
  },
  "geometry": {
    "type": "Polygon",
    "coordinates": [
      [
        [
          -111.860495955955,
          40.7414119493262
        ],
        [
          -111.860351611961,
          40.7414120146657
        ],
        [
          -111.860351693707,
          40.7413433985967
        ],
        [
          -111.860351774556,
          40.7412747817763
        ],
        [
          -111.860351857201,
          40.7412061655657
        ],
        [
          -111.860351938049,
          40.7411375492843
        ],
        [
          -111.860352021592,
          40.7410689322515
        ],
        [
          -111.860352103339,
          40.7410003171898
        ],
        [
          -111.860352184188,
          40.7409316993348
        ],
        [
          -111.860352266833,
          40.7408630827703
        ],
        [
          -111.860352347681,
          40.7407944674963
        ],
        [
          -111.860352429428,
          40.7407258507902
        ],
        [
          -111.860352511174,
          40.7406572340133
        ],
        [
          -111.860352592921,
          40.7405886171657
        ],
        [
          -111.860352674668,
          40.7405200016086
        ],
        [
          -111.860352756414,
          40.7404513846194
        ],
        [
          -111.860352838161,
          40.74038276824
        ],
        [
          -111.86035336637,
          40.74038276824
        ],
        [
          -111.860919377763,
          40.7403825136841
        ],
        [
          -111.860919296915,
          40.7404511300638
        ],
        [
          -111.860919215168,
          40.7405197470532
        ],
        [
          -111.86091913432,
          40.7405883632913
        ],
        [
          -111.860919054369,
          40.7406569794585
        ],
        [
          -111.860918973521,
          40.7407255962356
        ],
        [
          -111.860918891774,
          40.7407942115808
        ],
        [
          -111.860918810926,
          40.7408628295775
        ],
        [
          -111.860918730976,
          40.7409314454617
        ],
        [
          -111.860918650128,
          40.7410000612751
        ],
        [
          -111.860918568381,
          40.7410686776983
        ],
        [
          -111.860918487533,
          40.7411372940507
        ],
        [
          -111.860918406684,
          40.7412059116936
        ],
        [
          -111.860918326734,
          40.7412745272238
        ],
        [
          -111.860918244987,
          40.7413431440445
        ],
        [
          -111.860918165037,
          40.7414117601138
        ],
        [
          -111.860495955955,
          40.7414119493262
        ]
      ]
    ]
  }
}