{
  "type": "Feature",
  "properties": {
    "parcel_id": "16103530010000",
    "owner_name_raw": "SALT LAKE CITY CORPORATION - PROPERTY MANAGEMENT",
    "owner_class": "CITY",
    "epsg": "EPSG:4326"
  },
  "geometry": {
    "type": "Polygon",
    "coordinates": [
      [
        [
          -111.829599697129,
          40.7441012685926
        ],
        [
          -111.830320332836,
          40.7438795032592
        ],
        [
          -111.830572943586,
          40.7438796141961
        ],
        [
          -111.830572776499,
          40.7441129114887
        ],
        [
          -111.830572233917,
          40.7448682198542
        ],
        [
          -111.830571420043,
          40.7449009178585
        ],
        [
          -111.830565386059,
          40.7449560199895
        ],
        [
          -111.830553539077,
          40.7450105742052
        ],
        [
          -111.830550609671,
          40.7450195218328
        ],
        [
          -111.830546073179,
          40.7450280747209
        ],
        [
          -111.830429689247,
          40.7450581843904
        ],
        [
          -111.830420199445,
          40.745054009015
        ],
        [
          -111.830288077029,
          40.7449005945809
        ],
        [
          -111.83009427988,
          40.7446755644162
        ],
        [
          -111.829608939895,
          40.7441119994948
        ],
        [
          -111.829599697129,
          40.7441012685926
        ]
      ]
    ]
  }
}