{
  "type": "Feature",
  "properties": {
    "parcel_id": "16103600210000",
    "owner_name_raw": "SALT LAKE COUNTY - REAL ESTATE DEPT # S3200",
    "owner_class": "COUNTY",
    "epsg": "EPSG:4326"
  },
  "geometry": {
    "type": "Polygon",
    "coordinates": [
      [
        [
          -111.828433604838,
          40.7410992363297
        ],
        [
          -111.828433505125,
          40.7409753103676
        ],
        [
          -111.828433343429,
          40.7407774824621
        ],
        [
          -111.828433210478,
          40.7406127406778
        ],
        [
          -111.82843681901,
          40.7406127468034
        ],
        [
          -111.828436952859,
          40.7407774892684
        ],
        [
          -111.828437212472,
          40.7410992438166
        ],
        [
          -111.828433604838,
          40.7410992363297
        ]
      ]
    ]
  }
}