{
  "type": "Feature",
  "properties": {
    "parcel_id": "16112510010000",
    "owner_name_raw": "SALT LAKE COUNTY - REAL ESTATE DEPT # S3200",
    "owner_class": "COUNTY",
    "epsg": "EPSG:4326"
  },
  "geometry": {
    "type": "Polygon",
    "coordinates": [
      [
        [
          -111.804216398303,
          40.7512015819274
        ],
        [
          -111.804614008817,
          40.7510903583414
        ],
        [
          -111.804475125681,
          40.7508032207133
        ],
        [
          -111.805492621352,
          40.7509239891119
        ],
        [
          -111.805492332993,
          40.7512046857787
        ],
        [
          -111.804216398303,
          40.7512015819274
        ]
      ]
    ]
  }
}