{
  "type": "Feature",
  "properties": {
    "parcel_id": "16111520050000",
    "owner_name_raw": "SALT LAKE CITY CORP - PROPERTY MANAGEMENT",
    "owner_class": "CITY",
    "epsg": "EPSG:4326"
  },
  "geometry": {
    "type": "Polygon",
    "coordinates": [
      [
        [
          -111.812028399541,
          40.7477405343378
        ],
        [
          -111.812544091803,
          40.7477414469624
        ],
        [
          -111.81254367229,
          40.7478786808008
        ],
        [
          -111.813448624328,
          40.7478802766997
        ],
        [
          -111.813449034858,
          40.7477460134885
        ],
        [
          -111.813487847468,
          40.7477460965162
        ],
        [
          -111.813487640855,
          40.7478019047472
        ],
        [
          -111.813486535029,
          40.7481010725175
        ],
        [
          -111.81348606521,
          40.7482286989659
        ],
        [
          -111.813485496577,
          40.7483824024419
        ],
        [
          -111.813484972859,
          40.7485241646805
        ],
        [
          -111.813484806671,
          40.7485690733017
        ],
        [
          -111.813203255796,
          40.7485659455083
        ],
        [
          -111.813200199727,
          40.7485658937868
        ],
        [
          -111.813186323451,
          40.7485646592747
        ],
        [
          -111.813172864892,
          40.7485618111859
        ],
        [
          -111.813160146544,
          40.7485574168943
        ],
        [
          -111.813148470242,
          40.7485515825649
        ],
        [
          -111.813138118056,
          40.7485444477094
        ],
        [
          -111.813129339719,
          40.7485361831449
        ],
        [
          -111.813122342742,
          40.7485269869102
        ],
        [
          -111.813117296006,
          40.7485170801827
        ],
        [
          -111.813092791762,
          40.7484628684368
        ],
        [
          -111.813061785512,
          40.748410618668
        ],
        [
          -111.813024542258,
          40.7483607800432
        ],
        [
          -111.812981381802,
          40.7483137833557
        ],
        [
          -111.812932678741,
          40.7482700314969
        ],
        [
          -111.812878849892,
          40.7482299028595
        ],
        [
          -111.812820360584,
          40.7481937438501
        ],
        [
          -111.812028399541,
          40.7477405343378
        ]
      ]
    ]
  }
}