{
  "type": "Feature",
  "properties": {
    "parcel_id": "16162520130000",
    "owner_name_raw": "SALT LAKE COUNTY - REAL ESTATE DEPT # S3200",
    "owner_class": "COUNTY",
    "epsg": "EPSG:4326"
  },
  "geometry": {
    "type": "Polygon",
    "coordinates": [
      [
        [
          -111.84339041508,
          40.7345388920262
        ],
        [
          -111.843409949844,
          40.7344386248914
        ],
        [
          -111.843589803344,
          40.7343008432717
        ],
        [
          -111.8435899336,
          40.7343483801206
        ],
        [
          -111.843590451029,
          40.7345396373822
        ],
        [
          -111.84339041508,
          40.7345388920262
        ]
      ]
    ]
  }
}