{
  "type": "Feature",
  "properties": {
    "parcel_id": "16162520040000",
    "owner_name_raw": "SALT LAKE CITY CORPORATION - PROPERTY MANAGEMENT",
    "owner_class": "CITY",
    "epsg": "EPSG:4326"
  },
  "geometry": {
    "type": "Polygon",
    "coordinates": [
      [
        [
          -111.842387030145,
          40.7358030773107
        ],
        [
          -111.842927128735,
          40.7356708678312
        ],
        [
          -111.842926360676,
          40.7358081007103
        ],
        [
          -111.842925669871,
          40.7359316108763
        ],
        [
          -111.842385595536,
          40.736063821199
        ],
        [
          -111.842387030145,
          40.7358030773107
        ]
      ]
    ]
  }
}