{
  "type": "Feature",
  "properties": {
    "parcel_id": "16162520150000",
    "owner_name_raw": "SALT LAKE COUNTY - REAL ESTATE DEPT # S3200",
    "owner_class": "COUNTY",
    "epsg": "EPSG:4326"
  },
  "geometry": {
    "type": "Polygon",
    "coordinates": [
      [
        [
          -111.843346453327,
          40.7347645377929
        ],
        [
          -111.84339041508,
          40.7345388920262
        ],
        [
          -111.843590451029,
          40.7345396373822
        ],
        [
          -111.843591060087,
          40.7347654478729
        ],
        [
          -111.843346453327,
          40.7347645377929
        ]
      ]
    ]
  }
}