{
  "type": "Feature",
  "properties": {
    "parcel_id": "16174570394001",
    "owner_name_raw": "UNITED STATES POSTAL SERVICE - USPS FACILITIES SERVICE OFF",
    "owner_class": "UNCLASSIFIED",
    "epsg": "EPSG:4326"
  },
  "geometry": {
    "type": "Polygon",
    "coordinates": [
      [
        [
          -111.859043994589,
          40.7278757700463
        ],
        [
          -111.858163682441,
          40.7278727794738
        ],
        [
          -111.85816464813,
          40.727520560844
        ],
        [
          -111.858165862652,
          40.7270778454078
        ],
        [
          -111.858815265551,
          40.7270800531343
        ],
        [
          -111.858876598027,
          40.7270802614489
        ],
        [
          -111.858876059936,
          40.7272771926729
        ],
        [
          -111.858875922494,
          40.7273279688505
        ],
        [
          -111.859532555034,
          40.7273262172442
        ],
        [
          -111.859531052153,
          40.7278774215666
        ],
        [
          -111.859043994589,
          40.7278757700463
        ]
      ]
    ]
  }
}