{
  "type": "Feature",
  "properties": {
    "parcel_id": "16181030130000",
    "owner_name_raw": "STATE BUILDING OWNERSHIP AUTHO",
    "owner_class": "STATE",
    "epsg": "EPSG:4326"
  },
  "geometry": {
    "type": "Polygon",
    "coordinates": [
      [
        [
          -111.886653479488,
          40.7399368522749
        ],
        [
          -111.886651398989,
          40.7396182121507
        ],
        [
          -111.886059302318,
          40.7396200165232
        ],
        [
          -111.886058270153,
          40.7394735184698
        ],
        [
          -111.88605113753,
          40.7394735511405
        ],
        [
          -111.886047464319,
          40.7391593363807
        ],
        [
          -111.886060451263,
          40.7391493030194
        ],
        [
          -111.886079423682,
          40.7391492798776
        ],
        [
          -111.886106487226,
          40.739149246526
        ],
        [
          -111.886618963519,
          40.7391486223762
        ],
        [
          -111.886894961907,
          40.7391482854578
        ],
        [
          -111.887407437302,
          40.7391476572241
        ],
        [
          -111.88746160212,
          40.7391475912017
        ],
        [
          -111.88800289008,
          40.7391469248519
        ],
        [
          -111.888003572799,
          40.7399351860799
        ],
        [
          -111.886653479488,
          40.7399368522749
        ]
      ]
    ]
  }
}