{
  "type": "Feature",
  "properties": {
    "parcel_id": "16184820210000",
    "owner_name_raw": "SALT LAKE COUNTY - REAL ESTATE DEPT # S3200",
    "owner_class": "COUNTY",
    "epsg": "EPSG:4326"
  },
  "geometry": {
    "type": "Polygon",
    "coordinates": [
      [
        [
          -111.872423855468,
          40.7280462903215
        ],
        [
          -111.872425076279,
          40.7276894849654
        ],
        [
          -111.872432292445,
          40.7276894849654
        ],
        [
          -111.872431070737,
          40.7280462910023
        ],
        [
          -111.872423855468,
          40.7280462903215
        ]
      ]
    ]
  }
}