{
  "type": "Feature",
  "properties": {
    "parcel_id": "16182540230000",
    "owner_name_raw": "SALT LAKE COUNTY - REAL ESTATE DEPT # S3200",
    "owner_class": "COUNTY",
    "epsg": "EPSG:4326"
  },
  "geometry": {
    "type": "Polygon",
    "coordinates": [
      [
        [
          -111.879792463554,
          40.7339534426009
        ],
        [
          -111.879792450978,
          40.7339259962356
        ],
        [
          -111.879882764003,
          40.7339260003197
        ],
        [
          -111.879926060105,
          40.7339260016812
        ],
        [
          -111.879972967434,
          40.7339260037232
        ],
        [
          -111.880063169967,
          40.7339260071267
        ],
        [
          -111.88006318434,
          40.7339534541728
        ],
        [
          -111.880006896803,
          40.7339534528113
        ],
        [
          -111.879972980011,
          40.7339534500886
        ],
        [
          -111.879916692473,
          40.7339534487272
        ],
        [
          -111.879882775681,
          40.7339534473658
        ],
        [
          -111.879792463554,
          40.7339534426009
        ]
      ]
    ]
  }
}