{
  "type": "Feature",
  "properties": {
    "parcel_id": "16194310080000",
    "owner_name_raw": "SALT LAKE COUNTY - REAL ESTATE DEPT # S3200",
    "owner_class": "COUNTY",
    "epsg": "EPSG:4326"
  },
  "geometry": {
    "type": "Polygon",
    "coordinates": [
      [
        [
          -111.873527958614,
          40.7175098674961
        ],
        [
          -111.873528633249,
          40.7173451865693
        ],
        [
          -111.873535848517,
          40.7173451743137
        ],
        [
          -111.873535173883,
          40.7175098572831
        ],
        [
          -111.873527958614,
          40.7175098674961
        ]
      ]
    ]
  }
}