{
  "type": "Feature",
  "properties": {
    "parcel_id": "16202290570000",
    "owner_name_raw": "SALT LAKE CITY CORP - PROPERTY MANAGEMENT",
    "owner_class": "CITY",
    "epsg": "EPSG:4326"
  },
  "geometry": {
    "type": "Polygon",
    "coordinates": [
      [
        [
          -111.857086175716,
          40.7245202053053
        ],
        [
          -111.857086352684,
          40.7243305463435
        ],
        [
          -111.857099641462,
          40.7243293345287
        ],
        [
          -111.857230911376,
          40.724357846892
        ],
        [
          -111.857266652646,
          40.7243705198817
        ],
        [
          -111.857373853101,
          40.7243650993961
        ],
        [
          -111.85747066903,
          40.7243246295552
        ],
        [
          -111.857504887656,
          40.72432979815
        ],
        [
          -111.857656922128,
          40.7244157348288
        ],
        [
          -111.85768686657,
          40.7244153569882
        ],
        [
          -111.857685734693,
          40.7244278332174
        ],
        [
          -111.85756607191,
          40.7245203496335
        ],
        [
          -111.857086175716,
          40.7245202053053
        ]
      ]
    ]
  }
}