{
  "type": "Feature",
  "properties": {
    "parcel_id": "16202520030000",
    "owner_name_raw": "REDEVELOPMENT AGENCY OF SALT L - EXECUTIVE DIRECTOR",
    "owner_class": "CRA",
    "epsg": "EPSG:4326"
  },
  "geometry": {
    "type": "Polygon",
    "coordinates": [
      [
        [
          -111.859418393534,
          40.7222968285708
        ],
        [
          -111.85942009674,
          40.722005684611
        ],
        [
          -111.85950222252,
          40.7220057669901
        ],
        [
          -111.859612724283,
          40.7220058759211
        ],
        [
          -111.859646537769,
          40.7220304418949
        ],
        [
          -111.859790537709,
          40.7221350536407
        ],
        [
          -111.859646645567,
          40.7222497038565
        ],
        [
          -111.85950474499,
          40.7223627662144
        ],
        [
          -111.859497224294,
          40.7223687580667
        ],
        [
          -111.859456730038,
          40.722333476867
        ],
        [
          -111.859418393534,
          40.7222968285708
        ]
      ]
    ]
  }
}