{
  "type": "Feature",
  "properties": {
    "parcel_id": "16201590040000",
    "owner_name_raw": "UT DEPT OF TRANSPORTATION - UDOT RIGHT OF WAY",
    "owner_class": "STATE",
    "epsg": "EPSG:4326"
  },
  "geometry": {
    "type": "Polygon",
    "coordinates": [
      [
        [
          -111.868373126375,
          40.7186438821006
        ],
        [
          -111.868829097739,
          40.7186446051665
        ],
        [
          -111.868828720446,
          40.7186855012705
        ],
        [
          -111.868740245374,
          40.7187130805604
        ],
        [
          -111.868521236108,
          40.7187813502668
        ],
        [
          -111.868390444995,
          40.7188221196484
        ],
        [
          -111.86837145461,
          40.718824669436
        ],
        [
          -111.868371857954,
          40.7187811140113
        ],
        [
          -111.868372491266,
          40.7187124984318
        ],
        [
          -111.868373126375,
          40.7186438821006
        ]
      ]
    ]
  }
}