{
  "type": "Feature",
  "properties": {
    "parcel_id": "16202520060000",
    "owner_name_raw": "SALT LAKE CITY CORP. - PROPERTY MANAGEMENT",
    "owner_class": "CITY",
    "epsg": "EPSG:4326"
  },
  "geometry": {
    "type": "Polygon",
    "coordinates": [
      [
        [
          -111.858867193564,
          40.7225314746743
        ],
        [
          -111.85959051254,
          40.7225508662753
        ],
        [
          -111.859677382322,
          40.7225967448892
        ],
        [
          -111.859768705054,
          40.7226373097328
        ],
        [
          -111.858916636838,
          40.7226346164399
        ],
        [
          -111.858867193564,
          40.7225314746743
        ]
      ]
    ]
  }
}