{
  "type": "Feature",
  "properties": {
    "parcel_id": "16202520080000",
    "owner_name_raw": "REDEVELOPMENT AGENCY OF SALT L",
    "owner_class": "CRA",
    "epsg": "EPSG:4326"
  },
  "geometry": {
    "type": "Polygon",
    "coordinates": [
      [
        [
          -111.858867193564,
          40.7225314746743
        ],
        [
          -111.858834667365,
          40.7224636887879
        ],
        [
          -111.858782020699,
          40.7223538475376
        ],
        [
          -111.858729374033,
          40.7222440054253
        ],
        [
          -111.858676740843,
          40.7221341896835
        ],
        [
          -111.858614762478,
          40.7220048812451
        ],
        [
          -111.859102288962,
          40.722005369392
        ],
        [
          -111.859215025734,
          40.7220054817271
        ],
        [
          -111.85942009674,
          40.722005684611
        ],
        [
          -111.859418393534,
          40.7222968285708
        ],
        [
          -111.859417600322,
          40.7224326198365
        ],
        [
          -111.859460290061,
          40.7224657809292
        ],
        [
          -111.859523621289,
          40.722509899699
        ],
        [
          -111.85959051254,
          40.7225508662753
        ],
        [
          -111.858867193564,
          40.7225314746743
        ]
      ]
    ]
  }
}