{
  "type": "Feature",
  "properties": {
    "parcel_id": "16201760260000",
    "owner_name_raw": "SALT LAKE CITY - PROPERTY MANAGEMENT",
    "owner_class": "CITY",
    "epsg": "EPSG:4326"
  },
  "geometry": {
    "type": "Polygon",
    "coordinates": [
      [
        [
          -111.865524432963,
          40.7205946492238
        ],
        [
          -111.865524507524,
          40.7205864145474
        ],
        [
          -111.866083655787,
          40.7205893074074
        ],
        [
          -111.866083581227,
          40.7205975407217
        ],
        [
          -111.865524432963,
          40.7205946492238
        ]
      ]
    ]
  }
}