{
  "type": "Feature",
  "properties": {
    "parcel_id": "16201780010000",
    "owner_name_raw": "SALT LAKE CITY CORP - PROPERTY MANAGEMENT",
    "owner_class": "CITY",
    "epsg": "EPSG:4326"
  },
  "geometry": {
    "type": "Polygon",
    "coordinates": [
      [
        [
          -111.862526006564,
          40.722565653533
        ],
        [
          -111.862529059039,
          40.7221951262091
        ],
        [
          -111.86264810917,
          40.7221949029012
        ],
        [
          -111.862821263933,
          40.7221945774709
        ],
        [
          -111.862994428577,
          40.7221942520404
        ],
        [
          -111.863153161786,
          40.7221939524811
        ],
        [
          -111.863311894097,
          40.7221936536026
        ],
        [
          -111.863470626408,
          40.722193354724
        ],
        [
          -111.863629358718,
          40.7221930551647
        ],
        [
          -111.863788091927,
          40.7221927556053
        ],
        [
          -111.863946825136,
          40.722192456046
        ],
        [
          -111.864105559244,
          40.7221921558058
        ],
        [
          -111.864264291554,
          40.7221918548848
        ],
        [
          -111.864430240032,
          40.7221915417091
        ],
        [
          -111.864596187611,
          40.7221912258101
        ],
        [
          -111.864762136088,
          40.7221909126345
        ],
        [
          -111.864928083667,
          40.7221905967355
        ],
        [
          -111.865094031246,
          40.7221902821982
        ],
        [
          -111.865267194992,
          40.7221899526829
        ],
        [
          -111.865263517289,
          40.7226384276264
        ],
        [
          -111.862525364268,
          40.7226436017986
        ],
        [
          -111.862526006564,
          40.722565653533
        ]
      ]
    ]
  }
}