{
  "type": "Feature",
  "properties": {
    "parcel_id": "16202510030000",
    "owner_name_raw": "SALT LAKE CITY - PROPERTY MANAGEMENT",
    "owner_class": "CITY",
    "epsg": "EPSG:4326"
  },
  "geometry": {
    "type": "Polygon",
    "coordinates": [
      [
        [
          -111.859799238791,
          40.7206242709019
        ],
        [
          -111.859800208073,
          40.7204560641487
        ],
        [
          -111.859801867261,
          40.7201679636509
        ],
        [
          -111.85980283834,
          40.7200018969837
        ],
        [
          -111.86254909147,
          40.7198624453263
        ],
        [
          -111.862542043288,
          40.7206191530819
        ],
        [
          -111.859799238791,
          40.7206242709019
        ]
      ]
    ]
  }
}