{
  "type": "Feature",
  "properties": {
    "parcel_id": "16201040110000",
    "owner_name_raw": "SALT LAKE COUNTY - REAL ESTATE DEPT # S3200",
    "owner_class": "COUNTY",
    "epsg": "EPSG:4326"
  },
  "geometry": {
    "type": "Polygon",
    "coordinates": [
      [
        [
          -111.87145895436,
          40.7237171725506
        ],
        [
          -111.871458932801,
          40.7237531358601
        ],
        [
          -111.871458663306,
          40.7237857884177
        ],
        [
          -111.87123217826,
          40.7237850810661
        ],
        [
          -111.871232080344,
          40.7237164549863
        ],
        [
          -111.87145895436,
          40.7237171725506
        ]
      ]
    ]
  }
}