{
  "type": "Feature",
  "properties": {
    "parcel_id": "16214580250000",
    "owner_name_raw": "BOARD OF EDUCATION OF SALT LAK",
    "owner_class": "SCHOOL_DISTRICT",
    "epsg": "EPSG:4326"
  },
  "geometry": {
    "type": "Polygon",
    "coordinates": [
      [
        [
          -111.840507341346,
          40.7121435257421
        ],
        [
          -111.840507591976,
          40.7111215734993
        ],
        [
          -111.840795647551,
          40.7111212500576
        ],
        [
          -111.840795401413,
          40.712143205029
        ],
        [
          -111.840507341346,
          40.7121435257421
        ]
      ]
    ]
  }
}