{
  "type": "Feature",
  "properties": {
    "parcel_id": "16232010140000",
    "owner_name_raw": "SALT LAKE CITY CORPORATION - REAL ESTATE SERVICES",
    "owner_class": "CITY",
    "epsg": "EPSG:4326"
  },
  "geometry": {
    "type": "Polygon",
    "coordinates": [
      [
        [
          -111.804884081917,
          40.7248717978304
        ],
        [
          -111.804914117987,
          40.7251458360676
        ],
        [
          -111.803367083422,
          40.7251580813733
        ],
        [
          -111.803366934302,
          40.7251403026346
        ],
        [
          -111.803364723548,
          40.7248792538345
        ],
        [
          -111.804884081917,
          40.7248717978304
        ]
      ]
    ]
  }
}