{
  "type": "Feature",
  "properties": {
    "parcel_id": "16282760130000",
    "owner_name_raw": "SALT LAKE COUNTY - REAL ESTATE DEPT # S3200",
    "owner_class": "COUNTY",
    "epsg": "EPSG:4326"
  },
  "geometry": {
    "type": "Polygon",
    "coordinates": [
      [
        [
          -111.838088763987,
          40.7071977121348
        ],
        [
          -111.838091163387,
          40.7068032862941
        ],
        [
          -111.838098375961,
          40.7068033114902
        ],
        [
          -111.838095978357,
          40.7071977386926
        ],
        [
          -111.838088763987,
          40.7071977121348
        ]
      ]
    ]
  }
}