{
  "type": "Feature",
  "properties": {
    "parcel_id": "16281060010000",
    "owner_name_raw": "SALT LAKE CITY CORP. - PROPERTY MANAGEMENT",
    "owner_class": "CITY",
    "epsg": "EPSG:4326"
  },
  "geometry": {
    "type": "Polygon",
    "coordinates": [
      [
        [
          -111.848215967157,
          40.7086422941094
        ],
        [
          -111.848863387474,
          40.7086389043139
        ],
        [
          -111.848864038752,
          40.7086847380394
        ],
        [
          -111.848540329043,
          40.708686434298
        ],
        [
          -111.848247277936,
          40.7086879691702
        ],
        [
          -111.848216620232,
          40.7086881291946
        ],
        [
          -111.848215967157,
          40.7086422941094
        ]
      ]
    ]
  }
}