{
  "type": "Feature",
  "properties": {
    "parcel_id": "16294270470000",
    "owner_name_raw": "SALT LAKE COUNTY - REAL ESTATE DEPT # S3200",
    "owner_class": "COUNTY",
    "epsg": "EPSG:4326"
  },
  "geometry": {
    "type": "Polygon",
    "coordinates": [
      [
        [
          -111.857933066043,
          40.6999890877168
        ],
        [
          -111.858174913179,
          40.699987986469
        ],
        [
          -111.858175533016,
          40.7000634896644
        ],
        [
          -111.858177156272,
          40.7000648149741
        ],
        [
          -111.858178959191,
          40.7002421862576
        ],
        [
          -111.857934225768,
          40.7001364783661
        ],
        [
          -111.857933066043,
          40.6999890877168
        ]
      ]
    ]
  }
}