{
  "type": "Feature",
  "properties": {
    "parcel_id": "170010034",
    "owner_name_raw": "CENTRAL UTAH WATER CONSERVANCY DISTRICT",
    "owner_class": "SPECIAL_DISTRICT",
    "epsg": "EPSG:4326"
  },
  "geometry": {
    "type": "Polygon",
    "coordinates": [
      [
        [
          -111.667415802185,
          40.3208682206446
        ],
        [
          -111.667415792304,
          40.3208681905088
        ],
        [
          -111.669867857958,
          40.3208646516048
        ],
        [
          -111.669884179448,
          40.3211467140674
        ],
        [
          -111.669885664363,
          40.3217449816436
        ],
        [
          -111.669785953163,
          40.321718641221
        ],
        [
          -111.669402535132,
          40.3217453932661
        ],
        [
          -111.66945896101,
          40.3221467439002
        ],
        [
          -111.669651160057,
          40.3230888247398
        ],
        [
          -111.671086958037,
          40.3230307343574
        ],
        [
          -111.670841406249,
          40.3224195447289
        ],
        [
          -111.670400429564,
          40.3218809778924
        ],
        [
          -111.669886037164,
          40.3217450946515
        ],
        [
          -111.669884552249,
          40.3211467448879
        ],
        [
          -111.67212508801,
          40.3211434655765
        ],
        [
          -111.671983591674,
          40.3212681505299
        ],
        [
          -111.671834173097,
          40.3213882121803
        ],
        [
          -111.671923556366,
          40.3217625437461
        ],
        [
          -111.672427168982,
          40.3226421477393
        ],
        [
          -111.672765093632,
          40.3230169990271
        ],
        [
          -111.673183342042,
          40.3233814277935
        ],
        [
          -111.674493748683,
          40.3238574467865
        ],
        [
          -111.675570656232,
          40.3240669126263
        ],
        [
          -111.675030757967,
          40.3250705954025
        ],
        [
          -111.673494720577,
          40.3263771247349
        ],
        [
          -111.672928490894,
          40.3266734575884
        ],
        [
          -111.672387697907,
          40.3260681475252
        ],
        [
          -111.672331580842,
          40.3260088611978
        ],
        [
          -111.672271423415,
          40.3259519241728
        ],
        [
          -111.672207394529,
          40.3258974963165
        ],
        [
          -111.672139673955,
          40.3258457304504
        ],
        [
          -111.667893747239,
          40.3227720919012
        ],
        [
          -111.667892882161,
          40.3224192783071
        ],
        [
          -111.667419595771,
          40.3224199563474
        ],
        [
          -111.667415802185,
          40.3208682206446
        ]
      ]
    ]
  }
}