{
  "type": "Feature",
  "properties": {
    "parcel_id": "170010011",
    "owner_name_raw": "CENTRAL UTAH WATER CONSERVANCY DISTRICT",
    "owner_class": "SPECIAL_DISTRICT",
    "epsg": "EPSG:4326"
  },
  "geometry": {
    "type": "Polygon",
    "coordinates": [
      [
        [
          -111.669402544697,
          40.3217454681789
        ],
        [
          -111.66978595496,
          40.3217187076559
        ],
        [
          -111.670400434954,
          40.3218810313141
        ],
        [
          -111.670841411638,
          40.3224195967805
        ],
        [
          -111.671086960731,
          40.3230307864085
        ],
        [
          -111.669651165447,
          40.3230888767909
        ],
        [
          -111.669458965502,
          40.322146795952
        ],
        [
          -111.669402544697,
          40.3217454681789
        ]
      ]
    ]
  }
}