{
  "type": "Feature",
  "properties": {
    "parcel_id": "170040021",
    "owner_name_raw": "CENTRAL UTAH WATER CONSERVANCY DISTRICT",
    "owner_class": "SPECIAL_DISTRICT",
    "epsg": "EPSG:4326"
  },
  "geometry": {
    "type": "Polygon",
    "coordinates": [
      [
        [
          -111.666433574372,
          40.3224119732783
        ],
        [
          -111.666433626474,
          40.3227261394837
        ],
        [
          -111.666401201117,
          40.322747362129
        ],
        [
          -111.666370131386,
          40.3227697325039
        ],
        [
          -111.666340487102,
          40.3227932003365
        ],
        [
          -111.666312334881,
          40.3228177128889
        ],
        [
          -111.666285737988,
          40.3228432150754
        ],
        [
          -111.66626075619,
          40.3228696495865
        ],
        [
          -111.666237445626,
          40.3228969570176
        ],
        [
          -111.66621585868,
          40.3229250760024
        ],
        [
          -111.665108773127,
          40.3229202783893
        ],
        [
          -111.665092447145,
          40.3224138793252
        ],
        [
          -111.666433574372,
          40.3224119732783
        ]
      ]
    ]
  }
}