{
  "type": "Feature",
  "properties": {
    "parcel_id": "170290027",
    "owner_name_raw": "UTAH DEPARTMENT OF TRANSPORTATION",
    "owner_class": "STATE",
    "epsg": "EPSG:4326"
  },
  "geometry": {
    "type": "Polygon",
    "coordinates": [
      [
        [
          -111.735101116287,
          40.3120653100014
        ],
        [
          -111.735031041407,
          40.3116807894389
        ],
        [
          -111.739756850843,
          40.3117013900701
        ],
        [
          -111.740237734286,
          40.3117003625732
        ],
        [
          -111.740663971581,
          40.3116916420223
        ],
        [
          -111.741089972284,
          40.3116777391421
        ],
        [
          -111.741617286949,
          40.3116573131782
        ],
        [
          -111.741873479281,
          40.3113846031238
        ],
        [
          -111.742290911123,
          40.311338810096
        ],
        [
          -111.742329640189,
          40.3115457062983
        ],
        [
          -111.74249619503,
          40.3116464874627
        ],
        [
          -111.742743595635,
          40.311628358203
        ],
        [
          -111.742990781076,
          40.3116085959098
        ],
        [
          -111.743237732813,
          40.311587202064
        ],
        [
          -111.743484432327,
          40.3115641782683
        ],
        [
          -111.743730861117,
          40.3115395262478
        ],
        [
          -111.743977000701,
          40.3115132478494
        ],
        [
          -111.74422283262,
          40.3114853450421
        ],
        [
          -111.744468338438,
          40.3114558199164
        ],
        [
          -111.744864857515,
          40.311411787994
        ],
        [
          -111.745260373143,
          40.3113627885734
        ],
        [
          -111.745689960986,
          40.3112973620052
        ],
        [
          -111.746935252345,
          40.3106313880928
        ],
        [
          -111.747811871519,
          40.3104469416877
        ],
        [
          -111.748314978384,
          40.311108223772
        ],
        [
          -111.74781588609,
          40.3113870478928
        ],
        [
          -111.747584234833,
          40.3114362631511
        ],
        [
          -111.747130800498,
          40.3114795714579
        ],
        [
          -111.746676594811,
          40.3115178926972
        ],
        [
          -111.746221712096,
          40.3115512189195
        ],
        [
          -111.745766246818,
          40.3115795432112
        ],
        [
          -111.745458519625,
          40.311627126531
        ],
        [
          -111.745150102296,
          40.3116720366366
        ],
        [
          -111.744841034765,
          40.3117142677181
        ],
        [
          -111.744531357052,
          40.3117538143123
        ],
        [
          -111.74421067794,
          40.311793421144
        ],
        [
          -111.743889537697,
          40.311830792378
        ],
        [
          -111.743567963127,
          40.3118659248991
        ],
        [
          -111.743245981068,
          40.3118988157785
        ],
        [
          -111.742576460399,
          40.3119522433857
        ],
        [
          -111.742438054268,
          40.3120864982403
        ],
        [
          -111.742460587608,
          40.3122068721349
        ],
        [
          -111.742028956996,
          40.3122542222467
        ],
        [
          -111.741728143546,
          40.3120425620235
        ],
        [
          -111.741481644997,
          40.3120536659501
        ],
        [
          -111.741235029225,
          40.3120631362588
        ],
        [
          -111.74098831485,
          40.3120709722351
        ],
        [
          -111.740741520499,
          40.3120771732881
        ],
        [
          -111.740494664804,
          40.3120817389501
        ],
        [
          -111.740247766403,
          40.3120846688766
        ],
        [
          -111.740000843937,
          40.3120859628468
        ],
        [
          -111.739753916047,
          40.3120856207629
        ],
        [
          -111.73510103454,
          40.3120653401412
        ],
        [
          -111.735101116287,
          40.3120653100014
        ]
      ]
    ]
  }
}