{
  "type": "Feature",
  "properties": {
    "parcel_id": "170310090",
    "owner_name_raw": "UTAH DEPARTMENT OF TRANSPORTATION",
    "owner_class": "STATE",
    "epsg": "EPSG:4326"
  },
  "geometry": {
    "type": "Polygon",
    "coordinates": [
      [
        [
          -111.733644898702,
          40.3116991391669
        ],
        [
          -111.73280778474,
          40.3116976979312
        ],
        [
          -111.732798902199,
          40.3112819837077
        ],
        [
          -111.733643469483,
          40.3112802972323
        ],
        [
          -111.733644898702,
          40.3116991391669
        ]
      ]
    ]
  }
}