{
  "type": "Feature",
  "properties": {
    "parcel_id": "170320113",
    "owner_name_raw": "UTAH DEPARTMENT OF TRANSPORTATION",
    "owner_class": "STATE",
    "epsg": "EPSG:4326"
  },
  "geometry": {
    "type": "Polygon",
    "coordinates": [
      [
        [
          -111.730323022207,
          40.3119833860093
        ],
        [
          -111.730324856566,
          40.3120834876914
        ],
        [
          -111.730313922273,
          40.3120835041313
        ],
        [
          -111.730313584506,
          40.3119833072349
        ],
        [
          -111.730323022207,
          40.3119833860093
        ]
      ]
    ]
  }
}