{
  "type": "Feature",
  "properties": {
    "parcel_id": "170380059",
    "owner_name_raw": "UTAH DEPARTMENT OF TRANSPORTATION",
    "owner_class": "STATE",
    "epsg": "EPSG:4326"
  },
  "geometry": {
    "type": "Polygon",
    "coordinates": [
      [
        [
          -111.703486671459,
          40.3121224213729
        ],
        [
          -111.703737167574,
          40.3121363500328
        ],
        [
          -111.703761378069,
          40.312171471012
        ],
        [
          -111.703487054141,
          40.3121593041622
        ],
        [
          -111.703486671459,
          40.3121224213729
        ]
      ]
    ]
  }
}