{
  "type": "Feature",
  "properties": {
    "parcel_id": "170330334",
    "owner_name_raw": "STATE ROAD COMMISSION OF UTAH",
    "owner_class": "UNCLASSIFIED",
    "epsg": "EPSG:4326"
  },
  "geometry": {
    "type": "Polygon",
    "coordinates": [
      [
        [
          -111.724487143014,
          40.3117889430254
        ],
        [
          -111.724488278485,
          40.3121351965037
        ],
        [
          -111.719860443805,
          40.3121792086945
        ],
        [
          -111.719859218503,
          40.311797743182
        ],
        [
          -111.724487143014,
          40.3117889430254
        ]
      ]
    ]
  }
}