{
  "type": "Feature",
  "properties": {
    "parcel_id": "170480087",
    "owner_name_raw": "UTAH DEPARTMENT OF TRANSPORTATION",
    "owner_class": "STATE",
    "epsg": "EPSG:4326"
  },
  "geometry": {
    "type": "Polygon",
    "coordinates": [
      [
        [
          -111.694940930787,
          40.3121527316511
        ],
        [
          -111.6952958318,
          40.3121517664955
        ],
        [
          -111.695297568243,
          40.3124332468111
        ],
        [
          -111.694942663637,
          40.3124342126477
        ],
        [
          -111.694940930787,
          40.3121527316511
        ]
      ]
    ]
  }
}