{
  "type": "Feature",
  "properties": {
    "parcel_id": "170420108",
    "owner_name_raw": "UTAH DEPARTMENT OF TRANSPORTATION",
    "owner_class": "STATE",
    "epsg": "EPSG:4326"
  },
  "geometry": {
    "type": "Polygon",
    "coordinates": [
      [
        [
          -111.699714465918,
          40.3119581268109
        ],
        [
          -111.699715582523,
          40.3121437308377
        ],
        [
          -111.699582047956,
          40.3121440993642
        ],
        [
          -111.699075676614,
          40.3121153063433
        ],
        [
          -111.698865783451,
          40.312115885163
        ],
        [
          -111.69886485639,
          40.3119611092805
        ],
        [
          -111.699714465918,
          40.3119581268109
        ]
      ]
    ]
  }
}