{
  "type": "Feature",
  "properties": {
    "parcel_id": "170480088",
    "owner_name_raw": "UTAH DEPARTMENT OF TRANSPORTATION",
    "owner_class": "STATE",
    "epsg": "EPSG:4326"
  },
  "geometry": {
    "type": "Polygon",
    "coordinates": [
      [
        [
          -111.69493896707,
          40.3119923854741
        ],
        [
          -111.695293868981,
          40.3119914210012
        ],
        [
          -111.695294858026,
          40.3121517685504
        ],
        [
          -111.694939955217,
          40.3121527337061
        ],
        [
          -111.69493896707,
          40.3119923854741
        ]
      ]
    ]
  }
}