{
  "type": "Feature",
  "properties": {
    "parcel_id": "170420097",
    "owner_name_raw": "UTAH DEPARTMENT OF TRANSPORTATION",
    "owner_class": "STATE",
    "epsg": "EPSG:4326"
  },
  "geometry": {
    "type": "Polygon",
    "coordinates": [
      [
        [
          -111.698075774448,
          40.3121441685485
        ],
        [
          -111.698146869814,
          40.3121439719554
        ],
        [
          -111.698148177761,
          40.3123108512243
        ],
        [
          -111.69807823673,
          40.3123107361456
        ],
        [
          -111.698075774448,
          40.3121441685485
        ]
      ]
    ]
  }
}