{
  "type": "Feature",
  "properties": {
    "parcel_id": "170480085",
    "owner_name_raw": "UTAH DEPARTMENT OF TRANSPORTATION",
    "owner_class": "STATE",
    "epsg": "EPSG:4326"
  },
  "geometry": {
    "type": "Polygon",
    "coordinates": [
      [
        [
          -111.695501790342,
          40.3119908558803
        ],
        [
          -111.695502779387,
          40.3121512034309
        ],
        [
          -111.695294858026,
          40.3121517685504
        ],
        [
          -111.695293868981,
          40.3119914210012
        ],
        [
          -111.695501790342,
          40.3119908558803
        ]
      ]
    ]
  }
}