{
  "type": "Feature",
  "properties": {
    "parcel_id": "170400007",
    "owner_name_raw": "ACE AUTO UTAH",
    "owner_class": "UNCLASSIFIED",
    "epsg": "EPSG:4326"
  },
  "geometry": {
    "type": "Polygon",
    "coordinates": [
      [
        [
          -111.704839094102,
          40.3177794724794
        ],
        [
          -111.704302619316,
          40.3177771868469
        ],
        [
          -111.704192224452,
          40.3175306908326
        ],
        [
          -111.706135253463,
          40.3175292257484
        ],
        [
          -111.706138762282,
          40.3177771868469
        ],
        [
          -111.704839094102,
          40.3177794724794
        ]
      ]
    ]
  }
}