{
  "type": "Feature",
  "properties": {
    "parcel_id": "170510114",
    "owner_name_raw": "UTAH DEPARTMENT OF TRANSPORTATION",
    "owner_class": "STATE",
    "epsg": "EPSG:4326"
  },
  "geometry": {
    "type": "Polygon",
    "coordinates": [
      [
        [
          -111.685743854941,
          40.3121765139316
        ],
        [
          -111.686038002891,
          40.3121770728859
        ],
        [
          -111.686134614903,
          40.3121768269734
        ],
        [
          -111.686136831945,
          40.3123268211203
        ],
        [
          -111.685746077373,
          40.3123278534026
        ],
        [
          -111.685743854941,
          40.3121765139316
        ]
      ]
    ]
  }
}