{
  "type": "Feature",
  "properties": {
    "parcel_id": "170650501",
    "owner_name_raw": "UTAH DEPARTMENT OF TRANSPORTATION",
    "owner_class": "STATE",
    "epsg": "EPSG:4326"
  },
  "geometry": {
    "type": "Polygon",
    "coordinates": [
      [
        [
          -111.69470189987,
          40.296989464019
        ],
        [
          -111.694701951972,
          40.2969894112626
        ],
        [
          -111.694701967008,
          40.2969894455416
        ],
        [
          -111.694703540237,
          40.2969939064721
        ],
        [
          -111.694704406538,
          40.2969984784636
        ],
        [
          -111.694704553608,
          40.2970030965894
        ],
        [
          -111.694703979359,
          40.2970076952671
        ],
        [
          -111.694702691946,
          40.2970122091911
        ],
        [
          -111.694700709651,
          40.2970165742588
        ],
        [
          -111.694698060625,
          40.2970207284819
        ],
        [
          -111.694694782486,
          40.2970246128663
        ],
        [
          -111.694690921789,
          40.2970281722497
        ],
        [
          -111.694686533358,
          40.2970313560854
        ],
        [
          -111.694681679514,
          40.2970341191597
        ],
        [
          -111.694676429187,
          40.2970364222341
        ],
        [
          -111.694670856935,
          40.2970382326027
        ],
        [
          -111.694665041892,
          40.2970395245564
        ],
        [
          -111.694659066637,
          40.2970402797482
        ],
        [
          -111.694653016024,
          40.2970404874537
        ],
        [
          -111.694652968636,
          40.2970404869076
        ],
        [
          -111.694577527444,
          40.2970394056428
        ],
        [
          -111.694589919973,
          40.2970389835649
        ],
        [
          -111.694602159097,
          40.2970374421136
        ],
        [
          -111.69461407159,
          40.2970348029796
        ],
        [
          -111.694625488845,
          40.2970311035165
        ],
        [
          -111.694636249264,
          40.2970263960854
        ],
        [
          -111.694646200548,
          40.2970207473141
        ],
        [
          -111.694655201847,
          40.2970142371537
        ],
        [
          -111.69466312576,
          40.2970069577474
        ],
        [
          -111.694669860133,
          40.2969990121259
        ],
        [
          -111.694675309649,
          40.2969905127496
        ],
        [
          -111.694679397178,
          40.2969815799164
        ],
        [
          -111.694682064865,
          40.2969723400596
        ],
        [
          -111.694683274952,
          40.2969629239577
        ],
        [
          -111.694683010313,
          40.2969534648843
        ],
        [
          -111.694681274693,
          40.2969440967207
        ],
        [
          -111.694678092715,
          40.2969349520365
        ],
        [
          -111.69470189987,
          40.296989464019
        ]
      ]
    ]
  }
}