{
  "type": "Feature",
  "properties": {
    "parcel_id": "180080110",
    "owner_name_raw": "S-C UTAH REALTY LLC",
    "owner_class": "UNCLASSIFIED",
    "epsg": "EPSG:4326"
  },
  "geometry": {
    "type": "Polygon",
    "coordinates": [
      [
        [
          -111.73017587996,
          40.2924762175346
        ],
        [
          -111.730124937398,
          40.2916594571711
        ],
        [
          -111.730903656375,
          40.2916579963221
        ],
        [
          -111.731233015589,
          40.2934686491368
        ],
        [
          -111.729763083425,
          40.2934714015163
        ],
        [
          -111.729759927644,
          40.2924804102299
        ],
        [
          -111.73017587996,
          40.2924762175346
        ]
      ]
    ]
  }
}