{
  "type": "Feature",
  "properties": {
    "parcel_id": "180070132",
    "owner_name_raw": "UTAH COUNTY",
    "owner_class": "UNCLASSIFIED",
    "epsg": "EPSG:4326"
  },
  "geometry": {
    "type": "Polygon",
    "coordinates": [
      [
        [
          -111.705100193931,
          40.2931746749086
        ],
        [
          -111.704548324716,
          40.2931607039682
        ],
        [
          -111.705099897487,
          40.2931597419671
        ],
        [
          -111.705100193931,
          40.2931746749086
        ]
      ]
    ]
  }
}