{
  "type": "Feature",
  "properties": {
    "parcel_id": "180030022",
    "owner_name_raw": "BOARD OF EDUCATION OF ALPINE SCHOOL DISTRICT",
    "owner_class": "SCHOOL_DISTRICT",
    "epsg": "EPSG:4326"
  },
  "geometry": {
    "type": "Polygon",
    "coordinates": [
      [
        [
          -111.712735292636,
          40.3043262214673
        ],
        [
          -111.712233529651,
          40.3043271339842
        ],
        [
          -111.711202275383,
          40.3043296934159
        ],
        [
          -111.711210008979,
          40.3036249766813
        ],
        [
          -111.710619152881,
          40.3036197269142
        ],
        [
          -111.710616102202,
          40.3032722480099
        ],
        [
          -111.710640937026,
          40.3022652623995
        ],
        [
          -111.712683991647,
          40.3022547352497
        ],
        [
          -111.712735292636,
          40.3043262214673
        ]
      ]
    ]
  }
}