{
  "type": "Feature",
  "properties": {
    "parcel_id": "180080067",
    "owner_name_raw": "UTAH COUNTY",
    "owner_class": "UNCLASSIFIED",
    "epsg": "EPSG:4326"
  },
  "geometry": {
    "type": "Polygon",
    "coordinates": [
      [
        [
          -111.727009096699,
          40.2955922050185
        ],
        [
          -111.727005529489,
          40.2955120883734
        ],
        [
          -111.727087087534,
          40.2955119307861
        ],
        [
          -111.727088322717,
          40.2958865352893
        ],
        [
          -111.727023461659,
          40.2956748758468
        ],
        [
          -111.727017863135,
          40.2956544368044
        ],
        [
          -111.727013596389,
          40.2956338116307
        ],
        [
          -111.72701067186,
          40.295613050775
        ],
        [
          -111.727009096699,
          40.2955922050185
        ]
      ]
    ]
  }
}