{
  "type": "Feature",
  "properties": {
    "parcel_id": "180270154",
    "owner_name_raw": "UTAH DEPARTMENT OF TRANSPORTATION",
    "owner_class": "STATE",
    "epsg": "EPSG:4326"
  },
  "geometry": {
    "type": "Polygon",
    "coordinates": [
      [
        [
          -111.728431918515,
          40.2761642339787
        ],
        [
          -111.727636337262,
          40.2752909736172
        ],
        [
          -111.727652257205,
          40.2752909448318
        ],
        [
          -111.727908612133,
          40.2755613613717
        ],
        [
          -111.728080559559,
          40.2757201107661
        ],
        [
          -111.728501466084,
          40.2761640982778
        ],
        [
          -111.728431918515,
          40.2761642339787
        ]
      ]
    ]
  }
}