{
  "type": "Feature",
  "properties": {
    "parcel_id": "180270150",
    "owner_name_raw": "UTAH DEPARTMENT OF TRANSPORTATION",
    "owner_class": "STATE",
    "epsg": "EPSG:4326"
  },
  "geometry": {
    "type": "Polygon",
    "coordinates": [
      [
        [
          -111.73136261823,
          40.2815363254091
        ],
        [
          -111.73140071668,
          40.2815290228113
        ],
        [
          -111.731441327411,
          40.2815958746554
        ],
        [
          -111.73148371858,
          40.2816620800591
        ],
        [
          -111.731527872521,
          40.2817276114317
        ],
        [
          -111.731573770831,
          40.2817924414636
        ],
        [
          -111.73161206691,
          40.2818459052171
        ],
        [
          -111.731609247098,
          40.2818464418076
        ],
        [
          -111.731544729196,
          40.2818588149101
        ],
        [
          -111.731367549083,
          40.2815454248726
        ],
        [
          -111.73136261823,
          40.2815363254091
        ]
      ]
    ]
  }
}