{
  "type": "Feature",
  "properties": {
    "parcel_id": "180270502",
    "owner_name_raw": "UTAH DEPARTMENT OF TRANSPORTATION",
    "owner_class": "STATE",
    "epsg": "EPSG:4326"
  },
  "geometry": {
    "type": "Polygon",
    "coordinates": [
      [
        [
          -111.726554949814,
          40.2753346061301
        ],
        [
          -111.726565408001,
          40.2754061165662
        ],
        [
          -111.725545834526,
          40.2754206428961
        ],
        [
          -111.725544818532,
          40.2753497972809
        ],
        [
          -111.726554949814,
          40.2753346061301
        ]
      ]
    ]
  }
}