{
  "type": "Feature",
  "properties": {
    "parcel_id": "180230021",
    "owner_name_raw": "STATE OF UTAH DIVISION OF FORESTRY FIRE & STATE LANDS",
    "owner_class": "STATE",
    "epsg": "EPSG:4326"
  },
  "geometry": {
    "type": "Polygon",
    "coordinates": [
      [
        [
          -111.751027692014,
          40.2813838704942
        ],
        [
          -111.748277424313,
          40.2790907614864
        ],
        [
          -111.747897383049,
          40.27877144626
        ],
        [
          -111.747913122431,
          40.2786768580634
        ],
        [
          -111.752594037662,
          40.2786146435231
        ],
        [
          -111.752620643965,
          40.2805212204184
        ],
        [
          -111.751027692014,
          40.2813838704942
        ]
      ]
    ]
  }
}