{
  "type": "Feature",
  "properties": {
    "parcel_id": "180310162",
    "owner_name_raw": "UTAH VALLEY UNIVERSITY",
    "owner_class": "UNCLASSIFIED",
    "epsg": "EPSG:4326"
  },
  "geometry": {
    "type": "Polygon",
    "coordinates": [
      [
        [
          -111.704896593467,
          40.2757756381498
        ],
        [
          -111.704921311348,
          40.2757454341206
        ],
        [
          -111.704948078003,
          40.2757162641672
        ],
        [
          -111.704976819279,
          40.2756882091023
        ],
        [
          -111.705007455551,
          40.2756613466505
        ],
        [
          -111.705039901946,
          40.2756357512321
        ],
        [
          -111.705074068575,
          40.2756114937575
        ],
        [
          -111.705109860783,
          40.2755886414302
        ],
        [
          -111.705147179414,
          40.2755672575613
        ],
        [
          -111.705247646097,
          40.2755128039733
        ],
        [
          -111.705255360828,
          40.2758164356936
        ],
        [
          -111.704897345357,
          40.275805492521
        ],
        [
          -111.704896593467,
          40.2757756381498
        ]
      ]
    ]
  }
}