{
  "type": "Feature",
  "properties": {
    "parcel_id": "180570502",
    "owner_name_raw": "UTAH DEPARTMENT OF TRANSPORTATION",
    "owner_class": "STATE",
    "epsg": "EPSG:4326"
  },
  "geometry": {
    "type": "Polygon",
    "coordinates": [
      [
        [
          -111.685653133182,
          40.2764152370696
        ],
        [
          -111.685557448231,
          40.276413769723
        ],
        [
          -111.685557877626,
          40.2763973897188
        ],
        [
          -111.685572463294,
          40.2763966636885
        ],
        [
          -111.685586675789,
          40.276394059373
        ],
        [
          -111.685600102645,
          40.2763896523526
        ],
        [
          -111.685612354199,
          40.2763835705243
        ],
        [
          -111.685623074894,
          40.2763759903899
        ],
        [
          -111.685631953603,
          40.2763671319341
        ],
        [
          -111.685653133182,
          40.2764152370696
        ]
      ]
    ]
  }
}