{
  "type": "Feature",
  "properties": {
    "parcel_id": "190150074",
    "owner_name_raw": "UTAH DEPARTMENT OF TRANSPORTATION",
    "owner_class": "STATE",
    "epsg": "EPSG:4326"
  },
  "geometry": {
    "type": "Polygon",
    "coordinates": [
      [
        [
          -111.688619492421,
          40.2732766565007
        ],
        [
          -111.688618492596,
          40.2732327320553
        ],
        [
          -111.689181765025,
          40.2732376682194
        ],
        [
          -111.689225181501,
          40.2732422116558
        ],
        [
          -111.689190488565,
          40.2732816570879
        ],
        [
          -111.688619492421,
          40.2732766565007
        ]
      ]
    ]
  }
}