{
  "type": "Feature",
  "properties": {
    "parcel_id": "190190038",
    "owner_name_raw": "UTAH DEPARTMENT OF TRANSPORTATION",
    "owner_class": "STATE",
    "epsg": "EPSG:4326"
  },
  "geometry": {
    "type": "Polygon",
    "coordinates": [
      [
        [
          -111.676184360081,
          40.272758955953
        ],
        [
          -111.676096206606,
          40.2727486380493
        ],
        [
          -111.676095496039,
          40.2727057742498
        ],
        [
          -111.676182600282,
          40.2726916469212
        ],
        [
          -111.676184360081,
          40.272758955953
        ]
      ]
    ]
  }
}