{
  "type": "Feature",
  "properties": {
    "parcel_id": "190190036",
    "owner_name_raw": "UTAH DEPARTMENT OF TRANSPORTATION",
    "owner_class": "STATE",
    "epsg": "EPSG:4326"
  },
  "geometry": {
    "type": "Polygon",
    "coordinates": [
      [
        [
          -111.67689479452,
          40.2727757898831
        ],
        [
          -111.676894693909,
          40.272769725529
        ],
        [
          -111.677367447599,
          40.2727799522723
        ],
        [
          -111.677367550007,
          40.2727860166255
        ],
        [
          -111.67689479452,
          40.2727757898831
        ]
      ]
    ]
  }
}