{
  "type": "Feature",
  "properties": {
    "parcel_id": "190190033",
    "owner_name_raw": "UTAH DEPARTMENT OF TRANSPORTATION",
    "owner_class": "STATE",
    "epsg": "EPSG:4326"
  },
  "geometry": {
    "type": "Polygon",
    "coordinates": [
      [
        [
          -111.678473516259,
          40.2729317864328
        ],
        [
          -111.677892564985,
          40.2728284478917
        ],
        [
          -111.678203036222,
          40.2728544482352
        ],
        [
          -111.678545665349,
          40.2728909693283
        ],
        [
          -111.678858217982,
          40.2729185227442
        ],
        [
          -111.678908064599,
          40.2729260462826
        ],
        [
          -111.679249535798,
          40.272998864249
        ],
        [
          -111.67957893364,
          40.2730510292886
        ],
        [
          -111.680493938724,
          40.273184951586
        ],
        [
          -111.680828566557,
          40.2732186822856
        ],
        [
          -111.680829009426,
          40.2732392919034
        ],
        [
          -111.680579346049,
          40.2732429738071
        ],
        [
          -111.680451316927,
          40.2732311650607
        ],
        [
          -111.680323601842,
          40.2732175195959
        ],
        [
          -111.680196246053,
          40.2732020422474
        ],
        [
          -111.680069294696,
          40.273184738499
        ],
        [
          -111.679942792759,
          40.2731656144814
        ],
        [
          -111.679816785074,
          40.2731446769706
        ],
        [
          -111.679691316295,
          40.2731219333847
        ],
        [
          -111.679566430888,
          40.273097391782
        ],
        [
          -111.679287945065,
          40.2730532883334
        ],
        [
          -111.679086235569,
          40.2730158846544
        ],
        [
          -111.678883137158,
          40.2729831472325
        ],
        [
          -111.678678835225,
          40.2729551059577
        ],
        [
          -111.678473516259,
          40.2729317864328
        ]
      ]
    ]
  }
}