{
  "type": "Feature",
  "properties": {
    "parcel_id": "190280082",
    "owner_name_raw": "UTAH DEPARTMENT OF TRANSPORTATION",
    "owner_class": "STATE",
    "epsg": "EPSG:4326"
  },
  "geometry": {
    "type": "Polygon",
    "coordinates": [
      [
        [
          -111.704895951171,
          40.2734160271712
        ],
        [
          -111.70462326577,
          40.2734136824652
        ],
        [
          -111.704624771347,
          40.2732900523987
        ],
        [
          -111.704809286204,
          40.273257336794
        ],
        [
          -111.70480213831,
          40.2733197515991
        ],
        [
          -111.704816019976,
          40.2733245445109
        ],
        [
          -111.704815944034,
          40.273339376905
        ],
        [
          -111.704819141075,
          40.2733540074642
        ],
        [
          -111.70482551989,
          40.2733680187803
        ],
        [
          -111.70483489849,
          40.2733810111119
        ],
        [
          -111.704847009304,
          40.2733926137897
        ],
        [
          -111.704861506813,
          40.2734024957911
        ],
        [
          -111.704877977404,
          40.2734103751841
        ],
        [
          -111.704895951171,
          40.2734160271712
        ]
      ]
    ]
  }
}