{
  "type": "Feature",
  "properties": {
    "parcel_id": "190280083",
    "owner_name_raw": "UTAH DEPARTMENT OF TRANSPORTATION",
    "owner_class": "STATE",
    "epsg": "EPSG:4326"
  },
  "geometry": {
    "type": "Polygon",
    "coordinates": [
      [
        [
          -111.702136551197,
          40.2733289227633
        ],
        [
          -111.701716419919,
          40.2733746949483
        ],
        [
          -111.700856786091,
          40.27336725165
        ],
        [
          -111.70086140433,
          40.2733288549099
        ],
        [
          -111.701537389276,
          40.2733347094855
        ],
        [
          -111.701652201156,
          40.2733247247677
        ],
        [
          -111.701709201057,
          40.273325217561
        ],
        [
          -111.701834596888,
          40.2733263032141
        ],
        [
          -111.702136551197,
          40.2733289227633
        ]
      ]
    ]
  }
}