{
  "type": "Feature",
  "properties": {
    "parcel_id": "190390024",
    "owner_name_raw": "UTAH STATE DEPT OF NATURAL RESOURCES",
    "owner_class": "STATE",
    "epsg": "EPSG:4326"
  },
  "geometry": {
    "type": "Polygon",
    "coordinates": [
      [
        [
          -111.736853819238,
          40.2724705797513
        ],
        [
          -111.736849886414,
          40.2715413460818
        ],
        [
          -111.737198562101,
          40.2715412802828
        ],
        [
          -111.738228459913,
          40.2724926419501
        ],
        [
          -111.737152610579,
          40.2724933300871
        ],
        [
          -111.737152633936,
          40.2724707716621
        ],
        [
          -111.736853819238,
          40.2724705797513
        ]
      ]
    ]
  }
}