{
  "type": "Feature",
  "properties": {
    "parcel_id": "190340150",
    "owner_name_raw": "STATE ROAD COMMISSION OF UTAH",
    "owner_class": "UNCLASSIFIED",
    "epsg": "EPSG:4326"
  },
  "geometry": {
    "type": "Polygon",
    "coordinates": [
      [
        [
          -111.725574628226,
          40.2752871095172
        ],
        [
          -111.725574647091,
          40.2752888482937
        ],
        [
          -111.721815567732,
          40.2753216636645
        ],
        [
          -111.721585659207,
          40.2749925798777
        ],
        [
          -111.72395746578,
          40.2749718933474
        ],
        [
          -111.723959098917,
          40.275081661489
        ],
        [
          -111.725571355663,
          40.2750675716667
        ],
        [
          -111.725574628226,
          40.2752871095172
        ]
      ]
    ]
  }
}