{
  "type": "Feature",
  "properties": {
    "parcel_id": "190350135",
    "owner_name_raw": "UTAH DEPARTMENT OF TRANSPORTATION",
    "owner_class": "STATE",
    "epsg": "EPSG:4326"
  },
  "geometry": {
    "type": "Polygon",
    "coordinates": [
      [
        [
          -111.718377162676,
          40.273240171256
        ],
        [
          -111.718581996527,
          40.2730784277413
        ],
        [
          -111.718906050291,
          40.272618494837
        ],
        [
          -111.719197481736,
          40.2729142849704
        ],
        [
          -111.718579173122,
          40.2734641330354
        ],
        [
          -111.718377162676,
          40.273240171256
        ]
      ]
    ]
  }
}