{
  "type": "Feature",
  "properties": {
    "parcel_id": "190350142",
    "owner_name_raw": "UTAH TRANSIT AUTHORITY",
    "owner_class": "UTA",
    "epsg": "EPSG:4326"
  },
  "geometry": {
    "type": "Polygon",
    "coordinates": [
      [
        [
          -111.719848786368,
          40.2731393506198
        ],
        [
          -111.720251086986,
          40.273540438346
        ],
        [
          -111.720428384597,
          40.2737200781182
        ],
        [
          -111.720601975634,
          40.2739018124554
        ],
        [
          -111.720771817578,
          40.2740855968256
        ],
        [
          -111.720937868825,
          40.2742713861947
        ],
        [
          -111.721100088703,
          40.2744591350375
        ],
        [
          -111.721258437475,
          40.2746487973494
        ],
        [
          -111.721412876355,
          40.2748403266569
        ],
        [
          -111.721563367513,
          40.2750336760299
        ],
        [
          -111.723949756438,
          40.2781543583163
        ],
        [
          -111.723591290012,
          40.2776984547988
        ],
        [
          -111.723450935436,
          40.2775229924428
        ],
        [
          -111.722782941004,
          40.2766893438513
        ],
        [
          -111.722317961335,
          40.276101569587
        ],
        [
          -111.721412723633,
          40.27494240254
        ],
        [
          -111.72112465099,
          40.2745794292674
        ],
        [
          -111.721017240117,
          40.2744502059016
        ],
        [
          -111.720907071675,
          40.2743223407963
        ],
        [
          -111.720794175175,
          40.2741958682099
        ],
        [
          -111.720678580857,
          40.2740708220281
        ],
        [
          -111.720348794943,
          40.2737293137014
        ],
        [
          -111.719799123906,
          40.2731685248786
        ],
        [
          -111.71984875852,
          40.2731393163504
        ],
        [
          -111.719848786368,
          40.2731393506198
        ]
      ]
    ]
  }
}