{
  "type": "Feature",
  "properties": {
    "parcel_id": "190660032",
    "owner_name_raw": "UTAH COUNTY",
    "owner_class": "UNCLASSIFIED",
    "epsg": "EPSG:4326"
  },
  "geometry": {
    "type": "Polygon",
    "coordinates": [
      [
        [
          -111.667892679142,
          40.2571485430912
        ],
        [
          -111.667893562186,
          40.2571493259903
        ],
        [
          -111.667905092018,
          40.2571613095815
        ],
        [
          -111.667914138944,
          40.2571744762567
        ],
        [
          -111.667920498715,
          40.2571885287562
        ],
        [
          -111.667924027748,
          40.2572031498215
        ],
        [
          -111.66792464637,
          40.2572180093581
        ],
        [
          -111.667922340614,
          40.2572327718876
        ],
        [
          -111.667880278798,
          40.2573971789459
        ],
        [
          -111.667877372748,
          40.2574135841184
        ],
        [
          -111.667892679142,
          40.2571485430912
        ]
      ]
    ]
  }
}