{
  "type": "Feature",
  "properties": {
    "parcel_id": "200070012",
    "owner_name_raw": "UTAH DEPARTMENT OF TRANSPORTATION",
    "owner_class": "STATE",
    "epsg": "EPSG:4326"
  },
  "geometry": {
    "type": "Polygon",
    "coordinates": [
      [
        [
          -111.637592246792,
          40.3289685746522
        ],
        [
          -111.637815795245,
          40.3288926811808
        ],
        [
          -111.638308372058,
          40.3288386595393
        ],
        [
          -111.638319293776,
          40.3289104879601
        ],
        [
          -111.638320939323,
          40.3289363947296
        ],
        [
          -111.638318003336,
          40.3289622350902
        ],
        [
          -111.638310539072,
          40.3289875403007
        ],
        [
          -111.638298681932,
          40.3290118513283
        ],
        [
          -111.638042599193,
          40.3291237244959
        ],
        [
          -111.638020142931,
          40.3291210469043
        ],
        [
          -111.637998097205,
          40.3291168294265
        ],
        [
          -111.63797664332,
          40.329111106747
        ],
        [
          -111.637955957715,
          40.3291039259294
        ],
        [
          -111.637936210511,
          40.3290953460288
        ],
        [
          -111.63791756411,
          40.3290854376066
        ],
        [
          -111.637900171862,
          40.3290742821498
        ],
        [
          -111.637884176802,
          40.3290619714014
        ],
        [
          -111.637857542019,
          40.3290425189033
        ],
        [
          -111.637827534759,
          40.3290261670286
        ],
        [
          -111.637794770732,
          40.3290132512992
        ],
        [
          -111.637759922215,
          40.3290040367314
        ],
        [
          -111.637723704253,
          40.3289987123977
        ],
        [
          -111.637686859994,
          40.3289973875477
        ],
        [
          -111.637650145433,
          40.3290000893657
        ],
        [
          -111.637614313907,
          40.3290067624134
        ],
        [
          -111.637592226131,
          40.3289686554613
        ],
        [
          -111.637592246792,
          40.3289685746522
        ]
      ]
    ]
  }
}