{
  "type": "Feature",
  "properties": {
    "parcel_id": "200130011",
    "owner_name_raw": "UTAH DEPARTMENT OF TRANSPORTATION",
    "owner_class": "STATE",
    "epsg": "EPSG:4326"
  },
  "geometry": {
    "type": "Polygon",
    "coordinates": [
      [
        [
          -111.648517600397,
          40.3212869647548
        ],
        [
          -111.648526597024,
          40.3212982532873
        ],
        [
          -111.648528172669,
          40.3220250754695
        ],
        [
          -111.648134211112,
          40.3222252194627
        ],
        [
          -111.647804319196,
          40.3222146611794
        ],
        [
          -111.647448639345,
          40.3224382894592
        ],
        [
          -111.646148679212,
          40.3229034370863
        ],
        [
          -111.644677752613,
          40.3235709768201
        ],
        [
          -111.644738694322,
          40.3229160642971
        ],
        [
          -111.647325352758,
          40.3219066758207
        ],
        [
          -111.647455499935,
          40.3218527817302
        ],
        [
          -111.647582087185,
          40.3217941656174
        ],
        [
          -111.647704820006,
          40.3217309638383
        ],
        [
          -111.647823412866,
          40.3216633234169
        ],
        [
          -111.647937589863,
          40.3215914017031
        ],
        [
          -111.648047085368,
          40.3215153660067
        ],
        [
          -111.648151644644,
          40.3214353932083
        ],
        [
          -111.648251024438,
          40.3213516693481
        ],
        [
          -111.648517600397,
          40.3212869647548
        ]
      ]
    ]
  }
}