{
  "type": "Feature",
  "properties": {
    "parcel_id": "200360004",
    "owner_name_raw": "UNITED STATES OF AMERICA",
    "owner_class": "UNCLASSIFIED",
    "epsg": "EPSG:4326"
  },
  "geometry": {
    "type": "Polygon",
    "coordinates": [
      [
        [
          -111.629096756979,
          40.2903504416235
        ],
        [
          -111.628986323488,
          40.2867113457518
        ],
        [
          -111.633736364979,
          40.2866861990781
        ],
        [
          -111.633823552765,
          40.2903228884592
        ],
        [
          -111.629096756979,
          40.2903504416235
        ]
      ]
    ]
  }
}