{
  "type": "Feature",
  "properties": {
    "parcel_id": "200410001",
    "owner_name_raw": "UNITED STATES OF AMERICA",
    "owner_class": "UNCLASSIFIED",
    "epsg": "EPSG:4326"
  },
  "geometry": {
    "type": "Polygon",
    "coordinates": [
      [
        [
          -111.562410348812,
          40.268987833423
        ],
        [
          -111.562310581018,
          40.2763183626537
        ],
        [
          -111.55238805719,
          40.2764289901016
        ],
        [
          -111.542465501022,
          40.2765387743824
        ],
        [
          -111.542462453936,
          40.2755517491356
        ],
        [
          -111.542440258362,
          40.2683643679926
        ],
        [
          -111.542419646518,
          40.2616884363131
        ],
        [
          -111.552464876621,
          40.2616733106442
        ],
        [
          -111.562510100436,
          40.2616573205498
        ],
        [
          -111.562410348812,
          40.268987833423
        ]
      ]
    ]
  }
}