{
  "type": "Feature",
  "properties": {
    "parcel_id": "200910015",
    "owner_name_raw": "UNITED STATES OF AMERICA",
    "owner_class": "UNCLASSIFIED",
    "epsg": "EPSG:4326"
  },
  "geometry": {
    "type": "Polygon",
    "coordinates": [
      [
        [
          -111.580832503687,
          40.290883704248
        ],
        [
          -111.590313623233,
          40.2911349254027
        ],
        [
          -111.600375540441,
          40.2914007041506
        ],
        [
          -111.600572585899,
          40.2983313545423
        ],
        [
          -111.60077524403,
          40.3054579686017
        ],
        [
          -111.600780312325,
          40.3056361411561
        ],
        [
          -111.590560233236,
          40.305540225913
        ],
        [
          -111.581108186766,
          40.3054507206531
        ],
        [
          -111.580970328608,
          40.2981672237525
        ],
        [
          -111.580832503687,
          40.290883704248
        ]
      ]
    ]
  }
}