{
  "type": "Feature",
  "properties": {
    "parcel_id": "210130105",
    "owner_name_raw": "UTAH TRANSIT AUTHORITY",
    "owner_class": "UTA",
    "epsg": "EPSG:4326"
  },
  "geometry": {
    "type": "Polygon",
    "coordinates": [
      [
        [
          -111.690135917791,
          40.2421840765517
        ],
        [
          -111.688964814698,
          40.2410884596721
        ],
        [
          -111.688626051021,
          40.2407600054602
        ],
        [
          -111.688663133476,
          40.2407561441877
        ],
        [
          -111.690135917791,
          40.2421840765517
        ]
      ]
    ]
  }
}