{
  "type": "Feature",
  "properties": {
    "parcel_id": "210280023",
    "owner_name_raw": "PROVO CITY",
    "owner_class": "STATE",
    "epsg": "EPSG:4326"
  },
  "geometry": {
    "type": "Polygon",
    "coordinates": [
      [
        [
          -111.716206276893,
          40.2438720460814
        ],
        [
          -111.716586705331,
          40.2438713466822
        ],
        [
          -111.716623274848,
          40.2442845861142
        ],
        [
          -111.716629062856,
          40.2443850061492
        ],
        [
          -111.716628626054,
          40.2444855226189
        ],
        [
          -111.716621965419,
          40.2445859108382
        ],
        [
          -111.716609095839,
          40.2446859464095
        ],
        [
          -111.716521244198,
          40.2452357462298
        ],
        [
          -111.716514466409,
          40.2452834922729
        ],
        [
          -111.716133290572,
          40.2452841998855
        ],
        [
          -111.716144433275,
          40.2452003792766
        ],
        [
          -111.716232286713,
          40.2446505798547
        ],
        [
          -111.716243395497,
          40.2445642606508
        ],
        [
          -111.716249144322,
          40.244477636941
        ],
        [
          -111.716249520325,
          40.244390902525
        ],
        [
          -111.716244522666,
          40.2443042514507
        ],
        [
          -111.716206276893,
          40.2438720460814
        ]
      ]
    ]
  }
}