{
  "type": "Feature",
  "properties": {
    "parcel_id": "210290032",
    "owner_name_raw": "UTAH COUNTY",
    "owner_class": "STATE",
    "epsg": "EPSG:4326"
  },
  "geometry": {
    "type": "Polygon",
    "coordinates": [
      [
        [
          -111.71944279008,
          40.2381094393614
        ],
        [
          -111.719355790042,
          40.2381259609855
        ],
        [
          -111.719236795606,
          40.2381315052228
        ],
        [
          -111.719117590066,
          40.2381282143391
        ],
        [
          -111.718992391865,
          40.2381129640846
        ],
        [
          -111.718860106854,
          40.2380527797534
        ],
        [
          -111.7187518931,
          40.2379532013634
        ],
        [
          -111.718665167946,
          40.2377587168268
        ],
        [
          -111.71867516889,
          40.2377375004852
        ],
        [
          -111.718768759868,
          40.2379224127587
        ],
        [
          -111.71877065711,
          40.2379261761312
        ],
        [
          -111.719006857436,
          40.2380943036218
        ],
        [
          -111.71944279008,
          40.2381094393614
        ]
      ]
    ]
  }
}