{
  "type": "Feature",
  "properties": {
    "parcel_id": "210260071",
    "owner_name_raw": "UTAH COUNTY",
    "owner_class": "STATE",
    "epsg": "EPSG:4326"
  },
  "geometry": {
    "type": "Polygon",
    "coordinates": [
      [
        [
          -111.72189609002,
          40.2383762528464
        ],
        [
          -111.721769623397,
          40.2381659446296
        ],
        [
          -111.721791226083,
          40.2381314558493
        ],
        [
          -111.72192931421,
          40.2352820770237
        ],
        [
          -111.723125333875,
          40.235150551223
        ],
        [
          -111.724215021755,
          40.2348185570263
        ],
        [
          -111.724219214193,
          40.2350092384691
        ],
        [
          -111.723185693475,
          40.2353241182918
        ],
        [
          -111.722154708702,
          40.2354374968885
        ],
        [
          -111.722022041907,
          40.2381751740475
        ],
        [
          -111.72189609002,
          40.2383762528464
        ]
      ]
    ]
  }
}