{
  "type": "Feature",
  "properties": {
    "parcel_id": "210260078",
    "owner_name_raw": "LAKESIDE STORAGE LLC",
    "owner_class": "STATE",
    "epsg": "EPSG:4326"
  },
  "geometry": {
    "type": "Polygon",
    "coordinates": [
      [
        [
          -111.73090458703,
          40.2373053992575
        ],
        [
          -111.729743921462,
          40.2372282390869
        ],
        [
          -111.729804634999,
          40.2362525793792
        ],
        [
          -111.729914974167,
          40.2362619187799
        ],
        [
          -111.729923922285,
          40.2361327840837
        ],
        [
          -111.731390086017,
          40.2367716571897
        ],
        [
          -111.731405767008,
          40.236877461242
        ],
        [
          -111.731141100868,
          40.2371864541012
        ],
        [
          -111.730987599447,
          40.2372795786334
        ],
        [
          -111.730904596911,
          40.2373054342308
        ],
        [
          -111.73090458703,
          40.2373053992575
        ]
      ]
    ]
  }
}