{
  "type": "Feature",
  "properties": {
    "parcel_id": "210260053",
    "owner_name_raw": "PROVO CITY CORPORATION",
    "owner_class": "STATE",
    "epsg": "EPSG:4326"
  },
  "geometry": {
    "type": "Polygon",
    "coordinates": [
      [
        [
          -111.724863846139,
          40.2343635807549
        ],
        [
          -111.725182450722,
          40.2343052837931
        ],
        [
          -111.725420178184,
          40.2343179885959
        ],
        [
          -111.725454111146,
          40.2343000142413
        ],
        [
          -111.7255320382,
          40.2338583730421
        ],
        [
          -111.725500369891,
          40.2343626460343
        ],
        [
          -111.725465143356,
          40.234386636734
        ],
        [
          -111.724863846139,
          40.2343635807549
        ]
      ]
    ]
  }
}