{
  "type": "Feature",
  "properties": {
    "parcel_id": "210280069",
    "owner_name_raw": "SKIPPER BAY LLC (ET AL)",
    "owner_class": "STATE",
    "epsg": "EPSG:4326"
  },
  "geometry": {
    "type": "Polygon",
    "coordinates": [
      [
        [
          -111.716127291623,
          40.2438721722475
        ],
        [
          -111.713676041639,
          40.243876683372
        ],
        [
          -111.713673400592,
          40.2430295123633
        ],
        [
          -111.716052343382,
          40.2430251328357
        ],
        [
          -111.716127291623,
          40.2438721722475
        ]
      ]
    ]
  }
}