{
  "type": "Feature",
  "properties": {
    "parcel_id": "210280021",
    "owner_name_raw": "PROVO CITY",
    "owner_class": "STATE",
    "epsg": "EPSG:4326"
  },
  "geometry": {
    "type": "Polygon",
    "coordinates": [
      [
        [
          -111.716483546397,
          40.2452835382128
        ],
        [
          -111.716451428032,
          40.2458484150784
        ],
        [
          -111.716174401073,
          40.2458489279561
        ],
        [
          -111.716158198092,
          40.2457790950267
        ],
        [
          -111.716145134713,
          40.2457088797869
        ],
        [
          -111.71613522623,
          40.2456383644461
        ],
        [
          -111.716128484246,
          40.2455676315652
        ],
        [
          -111.716124916653,
          40.2454967639599
        ],
        [
          -111.716124527628,
          40.2454258446042
        ],
        [
          -111.716127317628,
          40.2453549565327
        ],
        [
          -111.716133283386,
          40.2452841827437
        ],
        [
          -111.716483546397,
          40.2452835382128
        ]
      ]
    ]
  }
}