{
  "type": "Feature",
  "properties": {
    "parcel_id": "210240072",
    "owner_name_raw": "UTAH POWER & LIGHT COMPANY",
    "owner_class": "UNCLASSIFIED",
    "epsg": "EPSG:4326"
  },
  "geometry": {
    "type": "Polygon",
    "coordinates": [
      [
        [
          -111.695230121833,
          40.2411798604414
        ],
        [
          -111.695197859738,
          40.240801808812
        ],
        [
          -111.697152427608,
          40.2407985235439
        ],
        [
          -111.699185412114,
          40.2408549470249
        ],
        [
          -111.698599434766,
          40.2411741758826
        ],
        [
          -111.695230121833,
          40.2411798604414
        ]
      ]
    ]
  }
}