{
  "type": "Feature",
  "properties": {
    "parcel_id": "210360014",
    "owner_name_raw": "PROVO CITY CORPORATION",
    "owner_class": "STATE",
    "epsg": "EPSG:4326"
  },
  "geometry": {
    "type": "Polygon",
    "coordinates": [
      [
        [
          -111.707202176237,
          40.2148892905482
        ],
        [
          -111.70720676034,
          40.2144127859456
        ],
        [
          -111.70731606968,
          40.2143985758541
        ],
        [
          -111.707425851259,
          40.2143866765498
        ],
        [
          -111.707536021324,
          40.2143770971123
        ],
        [
          -111.707646495823,
          40.2143698448508
        ],
        [
          -111.707757190473,
          40.2143649252991
        ],
        [
          -111.707868020823,
          40.2143623422107
        ],
        [
          -111.707978902319,
          40.2143620975568
        ],
        [
          -111.708089750366,
          40.214364191524
        ],
        [
          -111.712673047472,
          40.2166948508843
        ],
        [
          -111.712828419185,
          40.2232479854299
        ],
        [
          -111.712600424969,
          40.2232467974609
        ],
        [
          -111.712599162836,
          40.2228400999949
        ],
        [
          -111.712595610567,
          40.2227271644287
        ],
        [
          -111.712585773333,
          40.2226144460888
        ],
        [
          -111.712569668921,
          40.2225021487946
        ],
        [
          -111.712547326451,
          40.2223904756049
        ],
        [
          -111.712233288902,
          40.2210202785836
        ],
        [
          -111.712209178115,
          40.2209020384851
        ],
        [
          -111.712191154339,
          40.2207831675446
        ],
        [
          -111.712179245265,
          40.2206638483843
        ],
        [
          -111.712173469189,
          40.2205442643161
        ],
        [
          -111.712107877801,
          40.2177768450491
        ],
        [
          -111.712104411508,
          40.2176960853779
        ],
        [
          -111.712097706292,
          40.2176154446277
        ],
        [
          -111.712087768449,
          40.2175349985229
        ],
        [
          -111.71207460731,
          40.2174548226054
        ],
        [
          -111.712058235235,
          40.2173749921637
        ],
        [
          -111.712038667597,
          40.217295582162
        ],
        [
          -111.71201592277,
          40.2172166671702
        ],
        [
          -111.711990022114,
          40.2171383212934
        ],
        [
          -111.711960989948,
          40.2170606181025
        ],
        [
          -111.711928853535,
          40.2169836305655
        ],
        [
          -111.711893643053,
          40.2169074309781
        ],
        [
          -111.711855391564,
          40.2168320908966
        ],
        [
          -111.711814134988,
          40.2167576810705
        ],
        [
          -111.711769912065,
          40.2166842713757
        ],
        [
          -111.711722764324,
          40.2166119307493
        ],
        [
          -111.711672736035,
          40.2165407271246
        ],
        [
          -111.711619874178,
          40.2164707273675
        ],
        [
          -111.711564228391,
          40.2164019972134
        ],
        [
          -111.711505850927,
          40.2163346012059
        ],
        [
          -111.711444796604,
          40.2162686026355
        ],
        [
          -111.711381122753,
          40.2162040634811
        ],
        [
          -111.711314889167,
          40.2161410443507
        ],
        [
          -111.71124615804,
          40.2160796044256
        ],
        [
          -111.711174993912,
          40.2160198014036
        ],
        [
          -111.71110146361,
          40.215961691446
        ],
        [
          -111.711025636178,
          40.215905329124
        ],
        [
          -111.710947582823,
          40.2158507673678
        ],
        [
          -111.710867376837,
          40.2157980574166
        ],
        [
          -111.710785093537,
          40.2157472487711
        ],
        [
          -111.710700810189,
          40.2156983891461
        ],
        [
          -111.710614605936,
          40.2156515244266
        ],
        [
          -111.710526561728,
          40.2156066986238
        ],
        [
          -111.709791128971,
          40.215245225567
        ],
        [
          -111.709719641743,
          40.2152110072948
        ],
        [
          -111.709647072579,
          40.2151781438531
        ],
        [
          -111.709573465502,
          40.2151466551809
        ],
        [
          -111.709498865169,
          40.2151165603834
        ],
        [
          -111.709423316836,
          40.2150878777198
        ],
        [
          -111.709346866336,
          40.2150606245928
        ],
        [
          -111.709269560049,
          40.2150348175377
        ],
        [
          -111.709191444874,
          40.2150104722124
        ],
        [
          -111.709112568202,
          40.214987603388
        ],
        [
          -111.709032977883,
          40.2149662249396
        ],
        [
          -111.708952722203,
          40.2149463498384
        ],
        [
          -111.708871849849,
          40.2149279901431
        ],
        [
          -111.708790409886,
          40.2149111569933
        ],
        [
          -111.708708451718,
          40.214895860602
        ],
        [
          -111.708626025068,
          40.2148821102504
        ],
        [
          -111.708543179942,
          40.214869914281
        ],
        [
          -111.708459966597,
          40.2148592800937
        ],
        [
          -111.708376435518,
          40.2148502141406
        ],
        [
          -111.708292637379,
          40.2148427219222
        ],
        [
          -111.708208623018,
          40.2148368079845
        ],
        [
          -111.708124443404,
          40.2148324759156
        ],
        [
          -111.708040149606,
          40.214829728344
        ],
        [
          -111.707955792761,
          40.2148285669366
        ],
        [
          -111.707871424047,
          40.2148289923982
        ],
        [
          -111.707787094646,
          40.2148310044707
        ],
        [
          -111.707702855719,
          40.2148346019331
        ],
        [
          -111.707618758371,
          40.2148397826028
        ],
        [
          -111.707534853621,
          40.2148465433366
        ],
        [
          -111.70745119237,
          40.2148548800323
        ],
        [
          -111.707367825373,
          40.214864787632
        ],
        [
          -111.707284803207,
          40.2148762601242
        ],
        [
          -111.707202176237,
          40.2148892905482
        ]
      ]
    ]
  }
}