{
  "type": "Feature",
  "properties": {
    "parcel_id": "210300009",
    "owner_name_raw": "DEPARTMENT OF NATURAL RESOURCES (ET AL)",
    "owner_class": "STATE",
    "epsg": "EPSG:4326"
  },
  "geometry": {
    "type": "Polygon",
    "coordinates": [
      [
        [
          -111.734310067034,
          40.2393731286475
        ],
        [
          -111.735119267646,
          40.239475880565
        ],
        [
          -111.735161520803,
          40.2395405400724
        ],
        [
          -111.735210993721,
          40.2395857501926
        ],
        [
          -111.735349193239,
          40.2396801256213
        ],
        [
          -111.735548324585,
          40.2395302465885
        ],
        [
          -111.737010292286,
          40.2397158630084
        ],
        [
          -111.737028469695,
          40.2397322594382
        ],
        [
          -111.737140254253,
          40.2398218990357
        ],
        [
          -111.737217174296,
          40.239909353107
        ],
        [
          -111.737335629742,
          40.2399592176831
        ],
        [
          -111.737368696728,
          40.24009753858
        ],
        [
          -111.737322994938,
          40.240149787277
        ],
        [
          -111.737275925013,
          40.2402036110385
        ],
        [
          -111.737134451136,
          40.2402586848286
        ],
        [
          -111.736986575864,
          40.2403180162186
        ],
        [
          -111.736851917504,
          40.240413461722
        ],
        [
          -111.7367018198,
          40.240490130716
        ],
        [
          -111.736587420247,
          40.2405534678741
        ],
        [
          -111.73649041118,
          40.2406002688708
        ],
        [
          -111.736356392421,
          40.2406398807659
        ],
        [
          -111.736226823916,
          40.2406886558843
        ],
        [
          -111.736122152219,
          40.2407647588502
        ],
        [
          -111.736043929619,
          40.240778128272
        ],
        [
          -111.735970203985,
          40.2407313411126
        ],
        [
          -111.735877175352,
          40.2406500787664
        ],
        [
          -111.735835595931,
          40.2405512413442
        ],
        [
          -111.735803281734,
          40.2404518037727
        ],
        [
          -111.735714918053,
          40.2403717369883
        ],
        [
          -111.735656752138,
          40.2403083722312
        ],
        [
          -111.735575493232,
          40.2402176018357
        ],
        [
          -111.735525242374,
          40.2401534318955
        ],
        [
          -111.73536448526,
          40.2401537802429
        ],
        [
          -111.735357491876,
          40.2402163963356
        ],
        [
          -111.73534954987,
          40.2402382338506
        ],
        [
          -111.735364973944,
          40.2403999399981
        ],
        [
          -111.73531976982,
          40.2405128636923
        ],
        [
          -111.73526439048,
          40.2406084549791
        ],
        [
          -111.735160562301,
          40.2407038328727
        ],
        [
          -111.735047085318,
          40.2407945854733
        ],
        [
          -111.734930773251,
          40.2408840995498
        ],
        [
          -111.734905237741,
          40.2409508032003
        ],
        [
          -111.73491716647,
          40.2410444896407
        ],
        [
          -111.734941754257,
          40.2411548641505
        ],
        [
          -111.734968737852,
          40.2412624215758
        ],
        [
          -111.734972818,
          40.2413969416597
        ],
        [
          -111.73494693574,
          40.2415352411052
        ],
        [
          -111.734895125406,
          40.2416569550531
        ],
        [
          -111.734818498214,
          40.2417820054308
        ],
        [
          -111.734735971785,
          40.2419056320531
        ],
        [
          -111.734693824629,
          40.2420290355959
        ],
        [
          -111.734685145106,
          40.2421585629259
        ],
        [
          -111.734520398575,
          40.2422148645898
        ],
        [
          -111.734349780655,
          40.2421704152981
        ],
        [
          -111.734206917982,
          40.2421430468406
        ],
        [
          -111.734053284509,
          40.2421647177941
        ],
        [
          -111.733884225165,
          40.2421510243086
        ],
        [
          -111.733724542437,
          40.2421081239789
        ],
        [
          -111.733589867908,
          40.2420683593452
        ],
        [
          -111.733498614347,
          40.242018808318
        ],
        [
          -111.733361097548,
          40.2418949391625
        ],
        [
          -111.733376243144,
          40.2415843289473
        ],
        [
          -111.733627550438,
          40.2410231790143
        ],
        [
          -111.733876377483,
          40.2406291993327
        ],
        [
          -111.734057625168,
          40.240179703315
        ],
        [
          -111.73406490242,
          40.2401563763906
        ],
        [
          -111.734310067034,
          40.2393731286475
        ]
      ]
    ]
  }
}