{
  "type": "Feature",
  "properties": {
    "parcel_id": "210450018",
    "owner_name_raw": "UTAH POWER & LIGHT COMPANY",
    "owner_class": "UNCLASSIFIED",
    "epsg": "EPSG:4326"
  },
  "geometry": {
    "type": "Polygon",
    "coordinates": [
      [
        [
          -111.674884834733,
          40.2233386091568
        ],
        [
          -111.673418114047,
          40.2221157160216
        ],
        [
          -111.673631744201,
          40.2221114442002
        ],
        [
          -111.67488700147,
          40.2231495039654
        ],
        [
          -111.674884834733,
          40.2233386091568
        ]
      ]
    ]
  }
}