{
  "type": "Feature",
  "properties": {
    "parcel_id": "210490036",
    "owner_name_raw": "UTAH TRANSIT AUTHORITY",
    "owner_class": "UTA",
    "epsg": "EPSG:4326"
  },
  "geometry": {
    "type": "Polygon",
    "coordinates": [
      [
        [
          -111.663665705081,
          40.2256439550656
        ],
        [
          -111.663429398754,
          40.225643145053
        ],
        [
          -111.66343068065,
          40.2255549441619
        ],
        [
          -111.66362689876,
          40.2255643632271
        ],
        [
          -111.663666642024,
          40.2255795923023
        ],
        [
          -111.663665705081,
          40.2256439550656
        ]
      ]
    ]
  }
}