{
  "type": "Feature",
  "properties": {
    "parcel_id": "210490027",
    "owner_name_raw": "UTAH TRANSIT AUTHORITY",
    "owner_class": "UTA",
    "epsg": "EPSG:4326"
  },
  "geometry": {
    "type": "Polygon",
    "coordinates": [
      [
        [
          -111.662423403316,
          40.2254980010727
        ],
        [
          -111.662423642267,
          40.2254715737511
        ],
        [
          -111.662577327843,
          40.225484216425
        ],
        [
          -111.662575707282,
          40.2254957850217
        ],
        [
          -111.662934795342,
          40.2255212500564
        ],
        [
          -111.662934342591,
          40.2255713076694
        ],
        [
          -111.662423401519,
          40.2254980319369
        ],
        [
          -111.662423403316,
          40.2254980010727
        ]
      ]
    ]
  }
}