{
  "type": "Feature",
  "properties": {
    "parcel_id": "210550064",
    "owner_name_raw": "PROVO CITY CORPORATION",
    "owner_class": "STATE",
    "epsg": "EPSG:4326"
  },
  "geometry": {
    "type": "Polygon",
    "coordinates": [
      [
        [
          -111.692539931662,
          40.2162218903285
        ],
        [
          -111.692614047165,
          40.2125085450774
        ],
        [
          -111.694032164503,
          40.2125061948309
        ],
        [
          -111.693957251297,
          40.2162958620591
        ],
        [
          -111.692685119175,
          40.2162809478127
        ],
        [
          -111.692539919984,
          40.2162219163952
        ],
        [
          -111.692539931662,
          40.2162218903285
        ]
      ]
    ]
  }
}