{
  "type": "Feature",
  "properties": {
    "parcel_id": "210510024",
    "owner_name_raw": "UTAH DEPARTMENT OF TRANSPORTATION",
    "owner_class": "STATE",
    "epsg": "EPSG:4326"
  },
  "geometry": {
    "type": "Polygon",
    "coordinates": [
      [
        [
          -111.661616830276,
          40.2105919283675
        ],
        [
          -111.661463106073,
          40.2104029625353
        ],
        [
          -111.66154200241,
          40.2102311818181
        ],
        [
          -111.66071505019,
          40.2092270379808
        ],
        [
          -111.660885614212,
          40.2089783226242
        ],
        [
          -111.661051651622,
          40.2090463351026
        ],
        [
          -111.661176213816,
          40.2095173486958
        ],
        [
          -111.661494577651,
          40.2099087556456
        ],
        [
          -111.662109874213,
          40.210448819132
        ],
        [
          -111.662175932726,
          40.210460994683
        ],
        [
          -111.662231757631,
          40.2105678407431
        ],
        [
          -111.661616873396,
          40.2105919462041
        ],
        [
          -111.661616830276,
          40.2105919283675
        ]
      ]
    ]
  }
}