{
  "type": "Feature",
  "properties": {
    "parcel_id": "210600007",
    "owner_name_raw": "State",
    "owner_class": "STATE",
    "epsg": "EPSG:4326"
  },
  "geometry": {
    "type": "Polygon",
    "coordinates": [
      [
        [
          -111.699069988482,
          40.2167721284253
        ],
        [
          -111.696330986553,
          40.2158983367996
        ],
        [
          -111.696398585676,
          40.2125022413952
        ],
        [
          -111.699241084306,
          40.2124974222231
        ],
        [
          -111.699253925723,
          40.2169266393414
        ],
        [
          -111.699069988482,
          40.2167721284253
        ]
      ]
    ]
  }
}