{
  "type": "Feature",
  "properties": {
    "parcel_id": "210770004",
    "owner_name_raw": "PBRD LLC",
    "owner_class": "STATE",
    "epsg": "EPSG:4326"
  },
  "geometry": {
    "type": "Polygon",
    "coordinates": [
      [
        [
          -111.730511503126,
          40.1729538189414
        ],
        [
          -111.735234382258,
          40.1729443863869
        ],
        [
          -111.735246804161,
          40.1765673401275
        ],
        [
          -111.730523675298,
          40.1765767735511
        ],
        [
          -111.730511503126,
          40.1729538189414
        ]
      ]
    ]
  }
}