{
  "type": "Feature",
  "properties": {
    "parcel_id": "210700005",
    "owner_name_raw": "UTAH COUNTY",
    "owner_class": "STATE",
    "epsg": "EPSG:4326"
  },
  "geometry": {
    "type": "Polygon",
    "coordinates": [
      [
        [
          -111.713039209765,
          40.2023335336884
        ],
        [
          -111.712684873792,
          40.2023341806864
        ],
        [
          -111.712651177088,
          40.1914663824508
        ],
        [
          -111.713005456466,
          40.1914657360353
        ],
        [
          -111.713039209765,
          40.2023335336884
        ]
      ]
    ]
  }
}