{
  "type": "Feature",
  "properties": {
    "parcel_id": "210980027",
    "owner_name_raw": "Federal",
    "owner_class": "UNCLASSIFIED",
    "epsg": "EPSG:4326"
  },
  "geometry": {
    "type": "Polygon",
    "coordinates": [
      [
        [
          -111.693159241897,
          40.1761469344022
        ],
        [
          -111.693127271754,
          40.1730570909809
        ],
        [
          -111.700508946735,
          40.1730036415047
        ],
        [
          -111.699427861121,
          40.1740134896511
        ],
        [
          -111.695748068867,
          40.1757222142629
        ],
        [
          -111.693159241897,
          40.1761469344022
        ]
      ]
    ]
  }
}