{
  "type": "Feature",
  "properties": {
    "parcel_id": "220030001",
    "owner_name_raw": "UNITED STATES OF AMERICA",
    "owner_class": "UNCLASSIFIED",
    "epsg": "EPSG:4326"
  },
  "geometry": {
    "type": "Polygon",
    "coordinates": [
      [
        [
          -111.599597214028,
          40.2470221873537
        ],
        [
          -111.590074100039,
          40.2471020981718
        ],
        [
          -111.590007261789,
          40.243320824033
        ],
        [
          -111.585249870282,
          40.2433220795333
        ],
        [
          -111.585325595566,
          40.2471400353278
        ],
        [
          -111.580564025995,
          40.2471795055803
        ],
        [
          -111.580439347918,
          40.2395582360015
        ],
        [
          -111.580316090078,
          40.2320220742097
        ],
        [
          -111.589806956345,
          40.2320151571753
        ],
        [
          -111.59931432107,
          40.2322979848514
        ],
        [
          -111.599458739625,
          40.2396400976133
        ],
        [
          -111.599603903782,
          40.2470184142021
        ],
        [
          -111.599597214028,
          40.2470221873537
        ]
      ]
    ]
  }
}