{
  "type": "Feature",
  "properties": {
    "parcel_id": "220090001",
    "owner_name_raw": "BOARD OF EDUCATION OF PROVO CITY SCHOOL DISTRICT",
    "owner_class": "SCHOOL_DISTRICT",
    "epsg": "EPSG:4326"
  },
  "geometry": {
    "type": "Polygon",
    "coordinates": [
      [
        [
          -111.647922054194,
          40.2359311170929
        ],
        [
          -111.647924854243,
          40.2357952879917
        ],
        [
          -111.64816116596,
          40.2357981496985
        ],
        [
          -111.648158365911,
          40.2359339787939
        ],
        [
          -111.647922054194,
          40.2359311170929
        ]
      ]
    ]
  }
}