{
  "type": "Feature",
  "properties": {
    "parcel_id": "220380061",
    "owner_name_raw": "UTAH STATE DEPT ADMIN SERV DIV OF FACILITIES CONST & MANAG",
    "owner_class": "UNCLASSIFIED",
    "epsg": "EPSG:4326"
  },
  "geometry": {
    "type": "Polygon",
    "coordinates": [
      [
        [
          -111.635798350696,
          40.2298572685507
        ],
        [
          -111.635794081901,
          40.2308529948335
        ],
        [
          -111.635743716513,
          40.2308270190357
        ],
        [
          -111.635695603795,
          40.2307986633979
        ],
        [
          -111.635649936384,
          40.2307680414487
        ],
        [
          -111.635606897124,
          40.2307352757908
        ],
        [
          -111.635566658338,
          40.23070049761
        ],
        [
          -111.635529381137,
          40.2306638461497
        ],
        [
          -111.635495214772,
          40.230625468154
        ],
        [
          -111.635464296041,
          40.2305855172798
        ],
        [
          -111.635436748736,
          40.2305441534815
        ],
        [
          -111.635412683155,
          40.2305015423713
        ],
        [
          -111.635392195651,
          40.2304578545551
        ],
        [
          -111.635375368253,
          40.2304132649507
        ],
        [
          -111.635362268337,
          40.2303679520863
        ],
        [
          -111.635352948351,
          40.2303220973866
        ],
        [
          -111.635347445611,
          40.2302758844458
        ],
        [
          -111.63534578215,
          40.230229498293
        ],
        [
          -111.635346657109,
          40.2300407922858
        ],
        [
          -111.635347866413,
          40.2300226359682
        ],
        [
          -111.635351405429,
          40.2300046580864
        ],
        [
          -111.635357239942,
          40.2299870324549
        ],
        [
          -111.635365313542,
          40.2299699294827
        ],
        [
          -111.635375548173,
          40.2299535145256
        ],
        [
          -111.635387844882,
          40.2299379462878
        ],
        [
          -111.635402084783,
          40.2299233752871
        ],
        [
          -111.635418130202,
          40.2299099424
        ],
        [
          -111.635435826007,
          40.2298977774994
        ],
        [
          -111.635455001111,
          40.229886998199
        ],
        [
          -111.635475470126,
          40.2298777087163
        ],
        [
          -111.635497035151,
          40.2298699988647
        ],
        [
          -111.635519487692,
          40.2298639431853
        ],
        [
          -111.635542610673,
          40.2298596002264
        ],
        [
          -111.635566180534,
          40.2298570119769
        ],
        [
          -111.635589969397,
          40.2298562034608
        ],
        [
          -111.635798350696,
          40.2298572685507
        ]
      ]
    ]
  }
}