{
  "type": "Feature",
  "properties": {
    "parcel_id": "220470203",
    "owner_name_raw": "UTAH DEPARTMENT OF TRANSPORTATION",
    "owner_class": "STATE",
    "epsg": "EPSG:4326"
  },
  "geometry": {
    "type": "Polygon",
    "coordinates": [
      [
        [
          -111.63153374531,
          40.2101217509629
        ],
        [
          -111.631321735716,
          40.2098732076529
        ],
        [
          -111.631351832871,
          40.2098726903865
        ],
        [
          -111.631563612496,
          40.2101213167076
        ],
        [
          -111.63153374531,
          40.2101217509629
        ]
      ]
    ]
  }
}