{
  "type": "Feature",
  "properties": {
    "parcel_id": "220520024",
    "owner_name_raw": "LOS ANGELES & SALT LAKE RAILROAD",
    "owner_class": "UNCLASSIFIED",
    "epsg": "EPSG:4326"
  },
  "geometry": {
    "type": "Polygon",
    "coordinates": [
      [
        [
          -111.64094150304,
          40.2065137226082
        ],
        [
          -111.638479059149,
          40.1980362186886
        ],
        [
          -111.639177727454,
          40.1979168992406
        ],
        [
          -111.639641597704,
          40.1995139847611
        ],
        [
          -111.63909423893,
          40.1995228887288
        ],
        [
          -111.640401565248,
          40.2040236696472
        ],
        [
          -111.641127846867,
          40.2065238015696
        ],
        [
          -111.641310703435,
          40.2065220720031
        ],
        [
          -111.641383679873,
          40.2067555973729
        ],
        [
          -111.641415577253,
          40.2069383926649
        ],
        [
          -111.641423183872,
          40.2069891432248
        ],
        [
          -111.641428313693,
          40.2070400746972
        ],
        [
          -111.641430959615,
          40.2070911166035
        ],
        [
          -111.641431117978,
          40.2071421983127
        ],
        [
          -111.641428788562,
          40.2071932491386
        ],
        [
          -111.641423974591,
          40.2072441984381
        ],
        [
          -111.641416682726,
          40.2072949757087
        ],
        [
          -111.641406923058,
          40.2073455106862
        ],
        [
          -111.641394709091,
          40.2073957334415
        ],
        [
          -111.641380057728,
          40.2074455744782
        ],
        [
          -111.641362989243,
          40.2074949648278
        ],
        [
          -111.641343527255,
          40.2075438361459
        ],
        [
          -111.641321698694,
          40.2075921208063
        ],
        [
          -111.641297533768,
          40.2076397519948
        ],
        [
          -111.641271065915,
          40.2076866638016
        ],
        [
          -111.64124233176,
          40.2077327913125
        ],
        [
          -111.640583789402,
          40.2077404565642
        ],
        [
          -111.640646303839,
          40.2076748951346
        ],
        [
          -111.640704030861,
          40.2076068212288
        ],
        [
          -111.640756797751,
          40.2075364385118
        ],
        [
          -111.640804446635,
          40.2074639575568
        ],
        [
          -111.640846834951,
          40.2073895952153
        ],
        [
          -111.640883835876,
          40.2073135739683
        ],
        [
          -111.640915338706,
          40.2072361212607
        ],
        [
          -111.640941249187,
          40.207157468821
        ],
        [
          -111.640961489796,
          40.207077851968
        ],
        [
          -111.640975999975,
          40.2069975089065
        ],
        [
          -111.640984736311,
          40.2069166800153
        ],
        [
          -111.640987672665,
          40.2068356071272
        ],
        [
          -111.640984800252,
          40.206754532806
        ],
        [
          -111.640976127665,
          40.2066736996209
        ],
        [
          -111.640961680853,
          40.2065933494202
        ],
        [
          -111.64094150304,
          40.2065137226082
        ]
      ]
    ]
  }
}