{
  "type": "Feature",
  "properties": {
    "parcel_id": "230050005",
    "owner_name_raw": "UNITED STATES OF AMERICA",
    "owner_class": "UNCLASSIFIED",
    "epsg": "EPSG:4326"
  },
  "geometry": {
    "type": "Polygon",
    "coordinates": [
      [
        [
          -111.56169773506,
          40.1988915021008
        ],
        [
          -111.561349824737,
          40.202602572482
        ],
        [
          -111.551564152055,
          40.2027126645294
        ],
        [
          -111.541778378762,
          40.2028219365072
        ],
        [
          -111.541677875248,
          40.1954908059551
        ],
        [
          -111.541577395091,
          40.1881596609493
        ],
        [
          -111.546298997716,
          40.1881287042293
        ],
        [
          -111.546578293819,
          40.1990922885768
        ],
        [
          -111.56169773506,
          40.1988915021008
        ]
      ]
    ]
  }
}