{
  "type": "Feature",
  "properties": {
    "parcel_id": "230170023",
    "owner_name_raw": "Federal",
    "owner_class": "UNCLASSIFIED",
    "epsg": "EPSG:4326"
  },
  "geometry": {
    "type": "Polygon",
    "coordinates": [
      [
        [
          -111.6078695749,
          40.1885573825169
        ],
        [
          -111.606051349731,
          40.1866311294362
        ],
        [
          -111.605541827997,
          40.1854810927208
        ],
        [
          -111.605856563536,
          40.1857789518755
        ],
        [
          -111.606731043821,
          40.1866332959745
        ],
        [
          -111.607230195404,
          40.1871209410183
        ],
        [
          -111.607795777401,
          40.1876734734285
        ],
        [
          -111.607827934394,
          40.1876728159967
        ],
        [
          -111.607897428962,
          40.1877402164372
        ],
        [
          -111.607869606341,
          40.1885563970685
        ],
        [
          -111.6078695749,
          40.1885573825169
        ]
      ]
    ]
  }
}