{
  "type": "Feature",
  "properties": {
    "parcel_id": "230150510",
    "owner_name_raw": "UTAH DEPARTMENT OF TRANSPORTATION",
    "owner_class": "STATE",
    "epsg": "EPSG:4326"
  },
  "geometry": {
    "type": "Polygon",
    "coordinates": [
      [
        [
          -111.610859548153,
          40.1862764427797
        ],
        [
          -111.610859948802,
          40.1862763418982
        ],
        [
          -111.610859948802,
          40.1862764393483
        ],
        [
          -111.610859548153,
          40.1862764427797
        ]
      ]
    ]
  }
}