{
  "type": "Feature",
  "properties": {
    "parcel_id": "230260059",
    "owner_name_raw": "STATE OF UTAH DEPARTMENT OF NATURAL RESOURCES (ET AL)",
    "owner_class": "STATE",
    "epsg": "EPSG:4326"
  },
  "geometry": {
    "type": "Polygon",
    "coordinates": [
      [
        [
          -111.643794414041,
          40.179118259903
        ],
        [
          -111.644286029657,
          40.1790049593356
        ],
        [
          -111.644575319518,
          40.1790672647535
        ],
        [
          -111.644739310566,
          40.1793956975536
        ],
        [
          -111.644757389161,
          40.179846419787
        ],
        [
          -111.644647712052,
          40.179843619546
        ],
        [
          -111.644566876252,
          40.179378464974
        ],
        [
          -111.644399627015,
          40.1792505924806
        ],
        [
          -111.643794437398,
          40.1791182928474
        ],
        [
          -111.643794414041,
          40.179118259903
        ]
      ]
    ]
  }
}