{
  "type": "Feature",
  "properties": {
    "parcel_id": "230240065",
    "owner_name_raw": "L H PERRY INVESTMENTS LLC",
    "owner_class": "STATE",
    "epsg": "EPSG:4326"
  },
  "geometry": {
    "type": "Polygon",
    "coordinates": [
      [
        [
          -111.647256043243,
          40.1844864476629
        ],
        [
          -111.647246314488,
          40.1844516824329
        ],
        [
          -111.647239431596,
          40.1842128349316
        ],
        [
          -111.647965234413,
          40.1845117647714
        ],
        [
          -111.649059288106,
          40.1848758050806
        ],
        [
          -111.655052102979,
          40.1848927713588
        ],
        [
          -111.655291387221,
          40.1869638621072
        ],
        [
          -111.65526602239,
          40.187004846321
        ],
        [
          -111.651817105249,
          40.1870093866245
        ],
        [
          -111.651797769911,
          40.1851037974107
        ],
        [
          -111.651725645075,
          40.1850480734806
        ],
        [
          -111.649198614112,
          40.1850409409625
        ],
        [
          -111.649094405629,
          40.1850384440139
        ],
        [
          -111.648990535853,
          40.1850315615426
        ],
        [
          -111.648887320766,
          40.1850203144845
        ],
        [
          -111.648785074357,
          40.1850047370519
        ],
        [
          -111.648684107669,
          40.1849848766299
        ],
        [
          -111.648584727853,
          40.184960793632
        ],
        [
          -111.64848723723,
          40.1849325613164
        ],
        [
          -111.648391932377,
          40.1849002655633
        ],
        [
          -111.647256043243,
          40.1844864476629
        ]
      ]
    ]
  }
}