{
  "type": "Feature",
  "properties": {
    "parcel_id": "230310075",
    "owner_name_raw": "UTAH DEPARTMENT OF TRANSPORTATION",
    "owner_class": "STATE",
    "epsg": "EPSG:4326"
  },
  "geometry": {
    "type": "Polygon",
    "coordinates": [
      [
        [
          -111.627451836591,
          40.1613081675637
        ],
        [
          -111.627581096076,
          40.1613097417564
        ],
        [
          -111.627707816921,
          40.1613110523251
        ],
        [
          -111.627724088157,
          40.1613149329578
        ],
        [
          -111.627739347247,
          40.161320737978
        ],
        [
          -111.627753207374,
          40.1613283202282
        ],
        [
          -111.627765317184,
          40.1613374874981
        ],
        [
          -111.627451823116,
          40.1613286766903
        ],
        [
          -111.627451836591,
          40.1613081675637
        ]
      ]
    ]
  }
}