{
  "type": "Feature",
  "properties": {
    "parcel_id": "230310079",
    "owner_name_raw": "UTAH DEPARTMENT OF TRANSPORTATION",
    "owner_class": "STATE",
    "epsg": "EPSG:4326"
  },
  "geometry": {
    "type": "Polygon",
    "coordinates": [
      [
        [
          -111.630334132384,
          40.1611089024783
        ],
        [
          -111.630334349777,
          40.1610799215876
        ],
        [
          -111.630371275925,
          40.1610809596109
        ],
        [
          -111.631027950991,
          40.1610972136928
        ],
        [
          -111.631684773011,
          40.1611095205299
        ],
        [
          -111.632341701364,
          40.161117879363
        ],
        [
          -111.632998695417,
          40.1611222896766
        ],
        [
          -111.63734177044,
          40.1611369105538
        ],
        [
          -111.637341995917,
          40.1611694496661
        ],
        [
          -111.632999370052,
          40.1611526284909
        ],
        [
          -111.632342058219,
          40.1611478823034
        ],
        [
          -111.631684815531,
          40.1611391866655
        ],
        [
          -111.631027682619,
          40.1611265421132
        ],
        [
          -111.630370700105,
          40.1611099494259
        ],
        [
          -111.630334132384,
          40.1611089024783
        ]
      ]
    ]
  }
}