{
  "type": "Feature",
  "properties": {
    "parcel_id": "230380085",
    "owner_name_raw": "UTAH COUNTY",
    "owner_class": "UNCLASSIFIED",
    "epsg": "EPSG:4326"
  },
  "geometry": {
    "type": "Polygon",
    "coordinates": [
      [
        [
          -111.610830458009,
          40.172785910765
        ],
        [
          -111.61083045262,
          40.1727785010229
        ],
        [
          -111.611294607635,
          40.1727801298621
        ],
        [
          -111.611294657043,
          40.1727852689763
        ],
        [
          -111.611207284203,
          40.172784509126
        ],
        [
          -111.610830458009,
          40.172785910765
        ]
      ]
    ]
  }
}