{
  "type": "Feature",
  "properties": {
    "parcel_id": "230340131",
    "owner_name_raw": "UTAH DEPARTMENT OF TRANSPORTATION",
    "owner_class": "STATE",
    "epsg": "EPSG:4326"
  },
  "geometry": {
    "type": "Polygon",
    "coordinates": [
      [
        [
          -111.624146918491,
          40.1609356355077
        ],
        [
          -111.624148232726,
          40.1609931696952
        ],
        [
          -111.623287575717,
          40.1609825951616
        ],
        [
          -111.623287499361,
          40.1609398926479
        ],
        [
          -111.623434805999,
          40.1609376250565
        ],
        [
          -111.623790850914,
          40.1609342614833
        ],
        [
          -111.624146918491,
          40.1609356355077
        ]
      ]
    ]
  }
}