{
  "type": "Feature",
  "properties": {
    "parcel_id": "230480150",
    "owner_name_raw": "BOARD OF EDUCATION OF NEBO SCHOOL DISTRICT",
    "owner_class": "SCHOOL_DISTRICT",
    "epsg": "EPSG:4326"
  },
  "geometry": {
    "type": "Polygon",
    "coordinates": [
      [
        [
          -111.591782165703,
          40.1600085433253
        ],
        [
          -111.591822475805,
          40.1600229269016
        ],
        [
          -111.591822356329,
          40.1600276749708
        ],
        [
          -111.591797349028,
          40.1600187514014
        ],
        [
          -111.59179020832,
          40.1602860350708
        ],
        [
          -111.591774583922,
          40.1602923099674
        ],
        [
          -111.591782165703,
          40.1600085433253
        ]
      ]
    ]
  }
}