{
  "type": "Feature",
  "properties": {
    "parcel_id": "230450060",
    "owner_name_raw": "BOARD OF EDUCATION OF NEBO SCHOOL DISTRICT",
    "owner_class": "SCHOOL_DISTRICT",
    "epsg": "EPSG:4326"
  },
  "geometry": {
    "type": "Polygon",
    "coordinates": [
      [
        [
          -111.597986647911,
          40.1594390141445
        ],
        [
          -111.598239570376,
          40.1594390086522
        ],
        [
          -111.598499974909,
          40.1594394967821
        ],
        [
          -111.598502057204,
          40.1598463624742
        ],
        [
          -111.599328597097,
          40.1598469741776
        ],
        [
          -111.59932991762,
          40.1601728801878
        ],
        [
          -111.598794686102,
          40.1601730566267
        ],
        [
          -111.598794943919,
          40.1603518864424
        ],
        [
          -111.598795787437,
          40.160937916143
        ],
        [
          -111.597110538981,
          40.1609324424807
        ],
        [
          -111.597102938335,
          40.1606866338747
        ],
        [
          -111.597099614569,
          40.1605398267116
        ],
        [
          -111.597093867147,
          40.1603908655856
        ],
        [
          -111.597088187998,
          40.1602361935608
        ],
        [
          -111.597080570285,
          40.1600898920855
        ],
        [
          -111.597086362621,
          40.1600900396901
        ],
        [
          -111.597088232914,
          40.1599333911325
        ],
        [
          -111.597069819247,
          40.1594848633262
        ],
        [
          -111.597044509214,
          40.1589853875391
        ],
        [
          -111.597987860637,
          40.1589866967795
        ],
        [
          -111.597986647911,
          40.1594390141445
        ]
      ]
    ]
  }
}