{
  "type": "Feature",
  "properties": {
    "parcel_id": "230530017",
    "owner_name_raw": "UNITED STATES OF AMERICA",
    "owner_class": "UNCLASSIFIED",
    "epsg": "EPSG:4326"
  },
  "geometry": {
    "type": "Polygon",
    "coordinates": [
      [
        [
          -111.583850660684,
          40.1739839205397
        ],
        [
          -111.583938182644,
          40.1703376248093
        ],
        [
          -111.588683125297,
          40.170369867779
        ],
        [
          -111.588663205155,
          40.174041421704
        ],
        [
          -111.583850569056,
          40.1739840166347
        ],
        [
          -111.583850660684,
          40.1739839205397
        ]
      ]
    ]
  }
}