{
  "type": "Feature",
  "properties": {
    "parcel_id": "240380075",
    "owner_name_raw": "UTAH COUNTY",
    "owner_class": "UNCLASSIFIED",
    "epsg": "EPSG:4326"
  },
  "geometry": {
    "type": "Polygon",
    "coordinates": [
      [
        [
          -111.698556301259,
          40.1342178452606
        ],
        [
          -111.698413364026,
          40.1342140575866
        ],
        [
          -111.698573984596,
          40.1306429865367
        ],
        [
          -111.698716915541,
          40.1306467744097
        ],
        [
          -111.698556301259,
          40.1342178452606
        ]
      ]
    ]
  }
}