{
  "type": "Feature",
  "properties": {
    "parcel_id": "240480035",
    "owner_name_raw": "UTAH COUNTY",
    "owner_class": "UNCLASSIFIED",
    "epsg": "EPSG:4326"
  },
  "geometry": {
    "type": "Polygon",
    "coordinates": [
      [
        [
          -111.669994529396,
          40.124847536759
        ],
        [
          -111.671802869504,
          40.1238003174348
        ],
        [
          -111.671806262441,
          40.1240144067077
        ],
        [
          -111.671745533607,
          40.1240408859465
        ],
        [
          -111.67168611713,
          40.1240690522336
        ],
        [
          -111.671628093128,
          40.1240988675862
        ],
        [
          -111.671571539843,
          40.1241302917977
        ],
        [
          -111.670586224521,
          40.1246996506437
        ],
        [
          -111.670529701557,
          40.1247339577709
        ],
        [
          -111.670475329064,
          40.1247702401421
        ],
        [
          -111.670423224993,
          40.1248084190451
        ],
        [
          -111.670373502376,
          40.1248484116536
        ],
        [
          -111.67032626908,
          40.1248901312067
        ],
        [
          -111.670281627568,
          40.1249334871972
        ],
        [
          -111.670239674685,
          40.1249783855679
        ],
        [
          -111.67020050144,
          40.1250247289158
        ],
        [
          -111.670164192813,
          40.1250724167034
        ],
        [
          -111.670130827572,
          40.1251213454766
        ],
        [
          -111.670100478095,
          40.1251714090895
        ],
        [
          -111.670073210223,
          40.1252224989345
        ],
        [
          -111.670049083107,
          40.1252745041777
        ],
        [
          -111.670028149089,
          40.125327312
        ],
        [
          -111.670010453582,
          40.1253808078412
        ],
        [
          -111.669996034972,
          40.1254348756488
        ],
        [
          -111.669994529396,
          40.124847536759
        ]
      ]
    ]
  }
}