{
  "type": "Feature",
  "properties": {
    "parcel_id": "250060036",
    "owner_name_raw": "ZEEMAN POULTRY RANCH INC A UTAH CORPORATION",
    "owner_class": "UNCLASSIFIED",
    "epsg": "EPSG:4326"
  },
  "geometry": {
    "type": "Polygon",
    "coordinates": [
      [
        [
          -111.725693579543,
          40.1128319024843
        ],
        [
          -111.725692086543,
          40.1123772034343
        ],
        [
          -111.725703232839,
          40.1123693597771
        ],
        [
          -111.725705169606,
          40.1110503531933
        ],
        [
          -111.72570522081,
          40.1110146750822
        ],
        [
          -111.730404035872,
          40.1109928296068
        ],
        [
          -111.730405810943,
          40.1115218196978
        ],
        [
          -111.729994756242,
          40.1115226324474
        ],
        [
          -111.729995675219,
          40.111797075392
        ],
        [
          -111.730406730818,
          40.1117962633327
        ],
        [
          -111.730410174073,
          40.1128226619154
        ],
        [
          -111.725693579543,
          40.1128319024843
        ]
      ]
    ]
  }
}