{
  "type": "Feature",
  "properties": {
    "parcel_id": "250120019",
    "owner_name_raw": "UTAH COUNTY",
    "owner_class": "UNCLASSIFIED",
    "epsg": "EPSG:4326"
  },
  "geometry": {
    "type": "Polygon",
    "coordinates": [
      [
        [
          -111.699741017422,
          40.1075181012347
        ],
        [
          -111.699695854622,
          40.1074415250876
        ],
        [
          -111.699986712941,
          40.1074431245759
        ],
        [
          -111.699940358974,
          40.1075168281039
        ],
        [
          -111.699741017422,
          40.1075181012347
        ]
      ]
    ]
  }
}