{
  "type": "Feature",
  "properties": {
    "parcel_id": "250380043",
    "owner_name_raw": "UTAH STATE ROAD COMMISSION OF THE",
    "owner_class": "UNCLASSIFIED",
    "epsg": "EPSG:4326"
  },
  "geometry": {
    "type": "Polygon",
    "coordinates": [
      [
        [
          -111.730712040335,
          40.0988379462776
        ],
        [
          -111.730741357753,
          40.0986517181237
        ],
        [
          -111.730875977485,
          40.0986514515079
        ],
        [
          -111.730829645077,
          40.0988370557282
        ],
        [
          -111.730712040335,
          40.0988379462776
        ]
      ]
    ]
  }
}