{
  "type": "Feature",
  "properties": {
    "parcel_id": "250450150",
    "owner_name_raw": "UTAH COUNTY",
    "owner_class": "UNCLASSIFIED",
    "epsg": "EPSG:4326"
  },
  "geometry": {
    "type": "Polygon",
    "coordinates": [
      [
        [
          -111.761544017517,
          40.0977492553473
        ],
        [
          -111.761546464528,
          40.0955599631606
        ],
        [
          -111.761545234168,
          40.0955110302924
        ],
        [
          -111.761541390135,
          40.0954621767576
        ],
        [
          -111.761534938855,
          40.0954134842166
        ],
        [
          -111.761525891112,
          40.095365034061
        ],
        [
          -111.761514262028,
          40.0953169072775
        ],
        [
          -111.761500071042,
          40.0952691843122
        ],
        [
          -111.761483341875,
          40.0952219449368
        ],
        [
          -111.761464102491,
          40.0951752681143
        ],
        [
          -111.761433286719,
          40.0950993359406
        ],
        [
          -111.761408388563,
          40.0950221437045
        ],
        [
          -111.76138949499,
          40.0949439610241
        ],
        [
          -111.761376671991,
          40.094865060978
        ],
        [
          -111.761369964357,
          40.094785719151
        ],
        [
          -111.761369395515,
          40.0947062126723
        ],
        [
          -111.761374967453,
          40.0946268192471
        ],
        [
          -111.761386660709,
          40.0945478161866
        ],
        [
          -111.76140443444,
          40.0944694794394
        ],
        [
          -111.761428226564,
          40.094392082628
        ],
        [
          -111.761457953979,
          40.0943158960923
        ],
        [
          -111.761493512851,
          40.0942411859461
        ],
        [
          -111.761534778978,
          40.094168213147
        ],
        [
          -111.761581608223,
          40.0940972325849
        ],
        [
          -111.761633837018,
          40.0940284921918
        ],
        [
          -111.761691282934,
          40.0939622320757
        ],
        [
          -111.761753745322,
          40.0938986836816
        ],
        [
          -111.761821006008,
          40.0938380689832
        ],
        [
          -111.76189283006,
          40.0937805997076
        ],
        [
          -111.761968966607,
          40.0937264765952
        ],
        [
          -111.762049149713,
          40.0936758886988
        ],
        [
          -111.762133099311,
          40.0936290127232
        ],
        [
          -111.762220522176,
          40.0935860124075
        ],
        [
          -111.762311112952,
          40.0935470379534
        ],
        [
          -111.762404555218,
          40.0935122255003
        ],
        [
          -111.762500522592,
          40.09348169665
        ],
        [
          -111.762598679874,
          40.0934555580411
        ],
        [
          -111.762698684214,
          40.0934339009776
        ],
        [
          -111.76280018631,
          40.0934168011088
        ],
        [
          -111.76290283163,
          40.0934043181657
        ],
        [
          -111.763006261647,
          40.093396495752
        ],
        [
          -111.763110115094,
          40.093393361192
        ],
        [
          -111.763214029227,
          40.0933949254349
        ],
        [
          -111.763317641086,
          40.0934011830168
        ],
        [
          -111.763420588769,
          40.0934121120793
        ],
        [
          -111.763522512696,
          40.0934276744466
        ],
        [
          -111.763623056859,
          40.0934478157584
        ],
        [
          -111.763721870071,
          40.0934724656597
        ],
        [
          -111.763818607191,
          40.0935015380469
        ],
        [
          -111.76391293033,
          40.0935349313686
        ],
        [
          -111.764004510031,
          40.0935725289803
        ],
        [
          -111.764093026416,
          40.0936141995517
        ],
        [
          -111.764178170312,
          40.093659797526
        ],
        [
          -111.764259644322,
          40.0937091636279
        ],
        [
          -111.764337163869,
          40.0937621254204
        ],
        [
          -111.764410458187,
          40.093818497907
        ],
        [
          -111.764479271269,
          40.0938780841782
        ],
        [
          -111.764543362761,
          40.0939406760991
        ],
        [
          -111.7646025088,
          40.0940060550367
        ],
        [
          -111.764656502796,
          40.0940739926236
        ],
        [
          -111.764705156157,
          40.0941442515559
        ],
        [
          -111.764748298943,
          40.0942165864219
        ],
        [
          -111.764785780461,
          40.0942907445597
        ],
        [
          -111.764817469795,
          40.0943664669394
        ],
        [
          -111.764843256257,
          40.0944434890685
        ],
        [
          -111.764863049779,
          40.0945215419152
        ],
        [
          -111.764876781224,
          40.0946003528486
        ],
        [
          -111.764884402632,
          40.0946796465907
        ],
        [
          -111.764885887381,
          40.094759146178
        ],
        [
          -111.764881230286,
          40.0948385739293
        ],
        [
          -111.764870447612,
          40.094917652415
        ],
        [
          -111.764853577023,
          40.0949961054264
        ],
        [
          -111.764830677444,
          40.0950736589406
        ],
        [
          -111.764801828862,
          40.0951500420773
        ],
        [
          -111.764785237015,
          40.0951929134167
        ],
        [
          -111.764770753799,
          40.0952362296291
        ],
        [
          -111.764758399497,
          40.095279930045
        ],
        [
          -111.764748191414,
          40.095323953457
        ],
        [
          -111.764740143846,
          40.0953682382052
        ],
        [
          -111.764734268065,
          40.0954127222639
        ],
        [
          -111.764730572301,
          40.0954573433284
        ],
        [
          -111.76472906173,
          40.0955020389022
        ],
        [
          -111.764706398134,
          40.0977325325388
        ],
        [
          -111.764506235522,
          40.0977335942064
        ],
        [
          -111.764528929661,
          40.0955008493832
        ],
        [
          -111.764530658218,
          40.0954504076281
        ],
        [
          -111.764534846178,
          40.0954000503112
        ],
        [
          -111.764541487709,
          40.0953498475799
        ],
        [
          -111.764550573558,
          40.0952998693664
        ],
        [
          -111.764562091069,
          40.0952501852902
        ],
        [
          -111.764576024198,
          40.0952008645613
        ],
        [
          -111.764592353537,
          40.0951519758838
        ],
        [
          -111.76461105634,
          40.0951035873599
        ],
        [
          -111.764636618208,
          40.095035906972
        ],
        [
          -111.764656908873,
          40.094967189554
        ],
        [
          -111.764671857462,
          40.0948976751243
        ],
        [
          -111.764681411761,
          40.0948276064854
        ],
        [
          -111.7646855384,
          40.0947572283767
        ],
        [
          -111.764684222963,
          40.0946867866193
        ],
        [
          -111.764677470045,
          40.094616527257
        ],
        [
          -111.764665303234,
          40.0945466956976
        ],
        [
          -111.764647765027,
          40.0944775358554
        ],
        [
          -111.764624916682,
          40.0944092892991
        ],
        [
          -111.764596838006,
          40.0943421944081
        ],
        [
          -111.764563627073,
          40.0942764855397
        ],
        [
          -111.764525399886,
          40.094212392211
        ],
        [
          -111.764482289966,
          40.0941501382963
        ],
        [
          -111.764434447892,
          40.0940899412458
        ],
        [
          -111.764382040768,
          40.0940320113256
        ],
        [
          -111.764325251647,
          40.0939765508836
        ],
        [
          -111.764264278886,
          40.0939237536419
        ],
        [
          -111.764199335454,
          40.093873804021
        ],
        [
          -111.76413064819,
          40.0938268764947
        ],
        [
          -111.76405845701,
          40.0937831349812
        ],
        [
          -111.763983014068,
          40.0937427322701
        ],
        [
          -111.763904582877,
          40.093705809489
        ],
        [
          -111.763823437386,
          40.09367249561
        ],
        [
          -111.763739861027,
          40.0936429069996
        ],
        [
          -111.76365414572,
          40.0936171470118
        ],
        [
          -111.763566590858,
          40.0935953056273
        ],
        [
          -111.763477502258,
          40.093577459139
        ],
        [
          -111.763387191096,
          40.0935636698855
        ],
        [
          -111.763295972816,
          40.0935539860334
        ],
        [
          -111.763204166032,
          40.0935484414088
        ],
        [
          -111.763112091414,
          40.0935470553795
        ],
        [
          -111.763020070565,
          40.0935498327868
        ],
        [
          -111.762928424902,
          40.0935567639292
        ],
        [
          -111.762837474533,
          40.0935678245959
        ],
        [
          -111.762747537134,
          40.0935829761512
        ],
        [
          -111.762658926846,
          40.0936021656702
        ],
        [
          -111.762571953172,
          40.093625326123
        ],
        [
          -111.7624869199,
          40.0936523766091
        ],
        [
          -111.76240412404,
          40.0936832226401
        ],
        [
          -111.762323854788,
          40.0937177564698
        ],
        [
          -111.762246392513,
          40.0937558574705
        ],
        [
          -111.762172007781,
          40.0937973925545
        ],
        [
          -111.762100960408,
          40.0938422166391
        ],
        [
          -111.762033498553,
          40.0938901731532
        ],
        [
          -111.761969857853,
          40.0939410945846
        ],
        [
          -111.761910260594,
          40.0939948030649
        ],
        [
          -111.761854914944,
          40.0940511109909
        ],
        [
          -111.761804014217,
          40.0941098216804
        ],
        [
          -111.761757736202,
          40.0941707300585
        ],
        [
          -111.761716242543,
          40.0942336233746
        ],
        [
          -111.761679678172,
          40.0942982819455
        ],
        [
          -111.761648170803,
          40.0943644799223
        ],
        [
          -111.761621830487,
          40.0944319860802
        ],
        [
          -111.761600749228,
          40.0945005646254
        ],
        [
          -111.761585000659,
          40.094569976019
        ],
        [
          -111.761574639789,
          40.0946399778141
        ],
        [
          -111.761569702807,
          40.0947103255019
        ],
        [
          -111.761570206956,
          40.0947807733666
        ],
        [
          -111.761576150476,
          40.0948510753429
        ],
        [
          -111.761587512607,
          40.0949209858762
        ],
        [
          -111.761604253663,
          40.0949902607796
        ],
        [
          -111.761626315168,
          40.0950586580872
        ],
        [
          -111.761653620066,
          40.0951259388992
        ],
        [
          -111.761675317869,
          40.0951786222347
        ],
        [
          -111.761694187004,
          40.0952319390235
        ],
        [
          -111.761710196032,
          40.0952858004281
        ],
        [
          -111.76172331828,
          40.0953401167038
        ],
        [
          -111.761733531883,
          40.0953947973484
        ],
        [
          -111.761740819823,
          40.0954497512526
        ],
        [
          -111.761745169957,
          40.095504886852
        ],
        [
          -111.761746575037,
          40.0955601122798
        ],
        [
          -111.761744138806,
          40.0977482156692
        ],
        [
          -111.761544017517,
          40.0977492553473
        ]
      ]
    ]
  }
}