{
  "type": "Feature",
  "properties": {
    "parcel_id": "250680066",
    "owner_name_raw": "UTAH DEPARTMENT OF TRANSPORTATION",
    "owner_class": "STATE",
    "epsg": "EPSG:4326"
  },
  "geometry": {
    "type": "Polygon",
    "coordinates": [
      [
        [
          -111.659484485812,
          40.079067700361
        ],
        [
          -111.659613623125,
          40.0787155181906
        ],
        [
          -111.659688912726,
          40.0787154178367
        ],
        [
          -111.659551308791,
          40.0790886927732
        ],
        [
          -111.659467241752,
          40.0790888075609
        ],
        [
          -111.659484485812,
          40.079067700361
        ]
      ]
    ]
  }
}