{
  "type": "Feature",
  "properties": {
    "parcel_id": "250620029",
    "owner_name_raw": "UTAH COUNTY",
    "owner_class": "UNCLASSIFIED",
    "epsg": "EPSG:4326"
  },
  "geometry": {
    "type": "Polygon",
    "coordinates": [
      [
        [
          -111.683477179104,
          40.0708562420707
        ],
        [
          -111.683476985966,
          40.0708404070078
        ],
        [
          -111.686435078009,
          40.0708333394884
        ],
        [
          -111.686438638033,
          40.0708457765622
        ],
        [
          -111.686436429974,
          40.0708457861863
        ],
        [
          -111.686436361702,
          40.0708455448966
        ],
        [
          -111.683477179104,
          40.0708562420707
        ]
      ]
    ]
  }
}