{
  "type": "Feature",
  "properties": {
    "parcel_id": "250680151",
    "owner_name_raw": "UTAH DEPARTMENT OF TRANSPORTATION",
    "owner_class": "STATE",
    "epsg": "EPSG:4326"
  },
  "geometry": {
    "type": "Polygon",
    "coordinates": [
      [
        [
          -111.656085000265,
          40.0864454448768
        ],
        [
          -111.656028166552,
          40.0864463878214
        ],
        [
          -111.656117791468,
          40.0862291033364
        ],
        [
          -111.656227238609,
          40.0860944204491
        ],
        [
          -111.65704526427,
          40.0842669597361
        ],
        [
          -111.657059741519,
          40.0842174487278
        ],
        [
          -111.65708017909,
          40.0842250770695
        ],
        [
          -111.656085037096,
          40.0864454373167
        ],
        [
          -111.656085000265,
          40.0864454448768
        ]
      ]
    ]
  }
}