{
  "type": "Feature",
  "properties": {
    "parcel_id": "260440089",
    "owner_name_raw": "UTAH DEPARTMENT OF TRANSPORTATION",
    "owner_class": "STATE",
    "epsg": "EPSG:4326"
  },
  "geometry": {
    "type": "Polygon",
    "coordinates": [
      [
        [
          -111.647541135276,
          40.1465894753204
        ],
        [
          -111.647411488618,
          40.1465892315526
        ],
        [
          -111.647413522403,
          40.1459454576576
        ],
        [
          -111.647417606145,
          40.1451176415957
        ],
        [
          -111.647418903808,
          40.145097867315
        ],
        [
          -111.64742268543,
          40.1450782803277
        ],
        [
          -111.647428915894,
          40.1450590625314
        ],
        [
          -111.647437537339,
          40.1450403923953
        ],
        [
          -111.6474484697,
          40.145022443303
        ],
        [
          -111.647461611453,
          40.145005381942
        ],
        [
          -111.647476840555,
          40.1449893667557
        ],
        [
          -111.647494015578,
          40.1449745464724
        ],
        [
          -111.647512977025,
          40.1449610587236
        ],
        [
          -111.647533548806,
          40.1449490287661
        ],
        [
          -111.64755553988,
          40.1449385683187
        ],
        [
          -111.647578746022,
          40.1449297745246
        ],
        [
          -111.647602951726,
          40.1449227290493
        ],
        [
          -111.647627932202,
          40.1449174973222
        ],
        [
          -111.647653455465,
          40.1449141279289
        ],
        [
          -111.647679284489,
          40.14491265216
        ],
        [
          -111.648017101341,
          40.1449063401346
        ],
        [
          -111.648018640155,
          40.1456095333761
        ],
        [
          -111.647918341457,
          40.1456367725833
        ],
        [
          -111.647731183756,
          40.1457902493949
        ],
        [
          -111.647541135276,
          40.1465894753204
        ]
      ]
    ]
  }
}