{
  "type": "Feature",
  "properties": {
    "parcel_id": "260400072",
    "owner_name_raw": "UTAH DEPARTMENT OF TRANSPORTATION",
    "owner_class": "STATE",
    "epsg": "EPSG:4326"
  },
  "geometry": {
    "type": "Polygon",
    "coordinates": [
      [
        [
          -111.631831297874,
          40.1447904369059
        ],
        [
          -111.635917947003,
          40.1447567555359
        ],
        [
          -111.634820676443,
          40.1447658273755
        ],
        [
          -111.634537689162,
          40.1448011197109
        ],
        [
          -111.631788655746,
          40.1448237680485
        ],
        [
          -111.631831297874,
          40.1447904369059
        ]
      ]
    ]
  }
}