{
  "type": "Feature",
  "properties": {
    "parcel_id": "260440077",
    "owner_name_raw": "UTAH DEPARTMENT OF TRANSPORTATION",
    "owner_class": "STATE",
    "epsg": "EPSG:4326"
  },
  "geometry": {
    "type": "Polygon",
    "coordinates": [
      [
        [
          -111.645925414626,
          40.1449461961154
        ],
        [
          -111.645952249605,
          40.1449467309068
        ],
        [
          -111.645978880908,
          40.1449493095176
        ],
        [
          -111.64600504281,
          40.1449539062182
        ],
        [
          -111.646030474269,
          40.1449604751427
        ],
        [
          -111.646054921532,
          40.1449689507462
        ],
        [
          -111.646078140665,
          40.1449792484588
        ],
        [
          -111.646099899988,
          40.1449912655299
        ],
        [
          -111.64611998239,
          40.1450048820528
        ],
        [
          -111.646138187488,
          40.1450199621619
        ],
        [
          -111.646154333634,
          40.1450363553876
        ],
        [
          -111.646168259721,
          40.1450538981586
        ],
        [
          -111.646179826797,
          40.1450724154331
        ],
        [
          -111.646188919445,
          40.1450917224461
        ],
        [
          -111.64619544694,
          40.145111626553
        ],
        [
          -111.646199344151,
          40.145131929151
        ],
        [
          -111.646200572191,
          40.1451524276619
        ],
        [
          -111.646197808973,
          40.1458769534156
        ],
        [
          -111.645975075292,
          40.1458865408
        ],
        [
          -111.645957125156,
          40.145860482091
        ],
        [
          -111.645957435973,
          40.1458110832002
        ],
        [
          -111.645818553735,
          40.1457172554914
        ],
        [
          -111.645784280312,
          40.1454811028524
        ],
        [
          -111.645787632825,
          40.1449488178843
        ],
        [
          -111.645925414626,
          40.1449461961154
        ]
      ]
    ]
  }
}