{
  "type": "Feature",
  "properties": {
    "parcel_id": "260500056",
    "owner_name_raw": "UTAH DEPARTMENT OF TRANSPORTATION",
    "owner_class": "STATE",
    "epsg": "EPSG:4326"
  },
  "geometry": {
    "type": "Polygon",
    "coordinates": [
      [
        [
          -111.63591758049,
          40.1445756542812
        ],
        [
          -111.635916891482,
          40.1442254509845
        ],
        [
          -111.6359973976,
          40.1441980244305
        ],
        [
          -111.635998027319,
          40.1445744869078
        ],
        [
          -111.63591758049,
          40.1445756542812
        ]
      ]
    ]
  }
}