{
  "type": "Feature",
  "properties": {
    "parcel_id": "260500047",
    "owner_name_raw": "UTAH TRANSIT AUTHORITY",
    "owner_class": "UTA",
    "epsg": "EPSG:4326"
  },
  "geometry": {
    "type": "Polygon",
    "coordinates": [
      [
        [
          -111.638948871754,
          40.1392237816946
        ],
        [
          -111.637640506984,
          40.1402476877646
        ],
        [
          -111.637588825109,
          40.1402087609258
        ],
        [
          -111.638948286951,
          40.1391621621602
        ],
        [
          -111.638948871754,
          40.1392237816946
        ]
      ]
    ]
  }
}