{
  "type": "Feature",
  "properties": {
    "parcel_id": "260620074",
    "owner_name_raw": "UTAH COUNTY",
    "owner_class": "UNCLASSIFIED",
    "epsg": "EPSG:4326"
  },
  "geometry": {
    "type": "Polygon",
    "coordinates": [
      [
        [
          -111.578827877198,
          40.1413370698303
        ],
        [
          -111.578827843062,
          40.1413066617314
        ],
        [
          -111.582161491081,
          40.1413043591484
        ],
        [
          -111.58216149737,
          40.1413096283758
        ],
        [
          -111.581574057564,
          40.1413126156218
        ],
        [
          -111.581573665,
          40.141570589567
        ],
        [
          -111.582158565269,
          40.1415676146933
        ],
        [
          -111.582158567065,
          40.1415689318234
        ],
        [
          -111.581545571987,
          40.1415772905861
        ],
        [
          -111.581545560309,
          40.1413177790933
        ],
        [
          -111.579739752551,
          40.1413326679361
        ],
        [
          -111.579739757941,
          40.1413364284311
        ],
        [
          -111.578827898758,
          40.1413370485419
        ],
        [
          -111.578827877198,
          40.1413370698303
        ]
      ]
    ]
  }
}