{
  "type": "Feature",
  "properties": {
    "parcel_id": "270090094",
    "owner_name_raw": "UTAH DEPARTMENT OF TRANSPORTATION",
    "owner_class": "STATE",
    "epsg": "EPSG:4326"
  },
  "geometry": {
    "type": "Polygon",
    "coordinates": [
      [
        [
          -111.632017213206,
          40.1153910952675
        ],
        [
          -111.631656142564,
          40.1153950069607
        ],
        [
          -111.631656993268,
          40.1153539005086
        ],
        [
          -111.6320258011,
          40.1153515173558
        ],
        [
          -111.632017213206,
          40.1153910952675
        ]
      ]
    ]
  }
}