{
  "type": "Feature",
  "properties": {
    "parcel_id": "270090009",
    "owner_name_raw": "UTAH COUNTY FARMS LLC",
    "owner_class": "UNCLASSIFIED",
    "epsg": "EPSG:4326"
  },
  "geometry": {
    "type": "Polygon",
    "coordinates": [
      [
        [
          -111.626981040331,
          40.1189845466994
        ],
        [
          -111.626982297074,
          40.1196637879999
        ],
        [
          -111.625330748915,
          40.1196655761098
        ],
        [
          -111.62532950924,
          40.1189863348272
        ],
        [
          -111.626981040331,
          40.1189845466994
        ]
      ]
    ]
  }
}