{
  "type": "Feature",
  "properties": {
    "parcel_id": "270110012",
    "owner_name_raw": "UTAH POWER AND LIGHT COMPANY",
    "owner_class": "UNCLASSIFIED",
    "epsg": "EPSG:4326"
  },
  "geometry": {
    "type": "Polygon",
    "coordinates": [
      [
        [
          -111.621033443955,
          40.1282176172218
        ],
        [
          -111.619138542186,
          40.128219569952
        ],
        [
          -111.619135398981,
          40.1264082336457
        ],
        [
          -111.619242655131,
          40.1264081237459
        ],
        [
          -111.616748715408,
          40.1228538523982
        ],
        [
          -111.616747520649,
          40.1221512726862
        ],
        [
          -111.620401167437,
          40.127358224326
        ],
        [
          -111.621290769961,
          40.1278688853483
        ],
        [
          -111.621033553549,
          40.1282175512836
        ],
        [
          -111.621033443955,
          40.1282176172218
        ]
      ]
    ]
  }
}