{
  "type": "Feature",
  "properties": {
    "parcel_id": "270170140",
    "owner_name_raw": "UTAH COUNTY",
    "owner_class": "UNCLASSIFIED",
    "epsg": "EPSG:4326"
  },
  "geometry": {
    "type": "Polygon",
    "coordinates": [
      [
        [
          -111.638077574201,
          40.1156268674674
        ],
        [
          -111.638078124868,
          40.115590341272
        ],
        [
          -111.638126769539,
          40.1155907699495
        ],
        [
          -111.638124524649,
          40.1156261832326
        ],
        [
          -111.638077574201,
          40.1156268674674
        ]
      ]
    ]
  }
}