{
  "type": "Feature",
  "properties": {
    "parcel_id": "270370092",
    "owner_name_raw": "UTAH DEPARTMENT OF TRANSPORTATION",
    "owner_class": "STATE",
    "epsg": "EPSG:4326"
  },
  "geometry": {
    "type": "Polygon",
    "coordinates": [
      [
        [
          -111.596738405586,
          40.0894136139585
        ],
        [
          -111.596743708341,
          40.0901088437088
        ],
        [
          -111.596348432548,
          40.0899643636179
        ],
        [
          -111.596376053947,
          40.0894117453326
        ],
        [
          -111.596738408281,
          40.0894130634733
        ],
        [
          -111.596738405586,
          40.0894136139585
        ]
      ]
    ]
  }
}