{
  "type": "Feature",
  "properties": {
    "parcel_id": "270330212",
    "owner_name_raw": "UTAH DEPARTMENT OF TRANSPORTATION",
    "owner_class": "STATE",
    "epsg": "EPSG:4326"
  },
  "geometry": {
    "type": "Polygon",
    "coordinates": [
      [
        [
          -111.596815505292,
          40.1155203280389
        ],
        [
          -111.596986929001,
          40.1155183385337
        ],
        [
          -111.596987158071,
          40.1155503018234
        ],
        [
          -111.595991790601,
          40.1155576422419
        ],
        [
          -111.596815505292,
          40.1155203280389
        ]
      ]
    ]
  }
}