{
  "type": "Feature",
  "properties": {
    "parcel_id": "270360069",
    "owner_name_raw": "UTAH POWER & LIGHT COMPANY",
    "owner_class": "UNCLASSIFIED",
    "epsg": "EPSG:4326"
  },
  "geometry": {
    "type": "Polygon",
    "coordinates": [
      [
        [
          -111.578527201191,
          40.0927390834389
        ],
        [
          -111.578531540952,
          40.0936885775935
        ],
        [
          -111.576995016676,
          40.0936896035896
        ],
        [
          -111.576988010715,
          40.0936595906219
        ],
        [
          -111.573802208324,
          40.093699519947
        ],
        [
          -111.573805772839,
          40.093691667264
        ],
        [
          -111.570983872579,
          40.0936934210093
        ],
        [
          -111.571140235134,
          40.0928931566225
        ],
        [
          -111.571134577544,
          40.0928909218079
        ],
        [
          -111.571177235842,
          40.092672596148
        ],
        [
          -111.571633509039,
          40.0926687264426
        ],
        [
          -111.571640381151,
          40.0926665514083
        ],
        [
          -111.572730665513,
          40.0926572973754
        ],
        [
          -111.572733280509,
          40.0926552309206
        ],
        [
          -111.573927726325,
          40.0926544797949
        ],
        [
          -111.573927453237,
          40.0927532269868
        ],
        [
          -111.578527201191,
          40.0927390834389
        ]
      ]
    ]
  }
}