{
  "type": "Feature",
  "properties": {
    "parcel_id": "270560096",
    "owner_name_raw": "EDGE HOMES UTAH LLC",
    "owner_class": "UNCLASSIFIED",
    "epsg": "EPSG:4326"
  },
  "geometry": {
    "type": "Polygon",
    "coordinates": [
      [
        [
          -111.578478712827,
          40.087560192905
        ],
        [
          -111.5779153856,
          40.0872023592585
        ],
        [
          -111.577917460709,
          40.0871971071424
        ],
        [
          -111.577932845383,
          40.0871998418619
        ],
        [
          -111.57794857031,
          40.0872009745328
        ],
        [
          -111.577964351796,
          40.0872004847205
        ],
        [
          -111.577979905126,
          40.0871983812618
        ],
        [
          -111.577994949701,
          40.0871947021051
        ],
        [
          -111.578009214101,
          40.0871895136261
        ],
        [
          -111.578022440981,
          40.0871829094301
        ],
        [
          -111.578034391714,
          40.0871750086636
        ],
        [
          -111.57814532377,
          40.0870911857158
        ],
        [
          -111.57860473119,
          40.0874498694092
        ],
        [
          -111.578562972106,
          40.0874636504919
        ],
        [
          -111.578478712827,
          40.087560192905
        ]
      ]
    ]
  }
}