{
  "type": "Feature",
  "properties": {
    "parcel_id": "280140002",
    "owner_name_raw": "UNITED STATES OF AMERICA",
    "owner_class": "UNCLASSIFIED",
    "epsg": "EPSG:4326"
  },
  "geometry": {
    "type": "Polygon",
    "coordinates": [
      [
        [
          -111.825739777388,
          40.1140813269609
        ],
        [
          -111.806866256812,
          40.1141325708362
        ],
        [
          -111.806833884225,
          40.1068872300467
        ],
        [
          -111.807306494184,
          40.106885985074
        ],
        [
          -111.807274078477,
          40.0996406330295
        ],
        [
          -111.825671057168,
          40.0995906460181
        ],
        [
          -111.825739777388,
          40.1140813269609
        ]
      ]
    ]
  }
}