{
  "type": "Feature",
  "properties": {
    "parcel_id": "280150036",
    "owner_name_raw": "COUNTY OF UTAH",
    "owner_class": "UNCLASSIFIED",
    "epsg": "EPSG:4326"
  },
  "geometry": {
    "type": "Polygon",
    "coordinates": [
      [
        [
          -111.797296911926,
          40.1068919921358
        ],
        [
          -111.79731165867,
          40.1048332173786
        ],
        [
          -111.797378137594,
          40.1048330469799
        ],
        [
          -111.797366593344,
          40.1068914211798
        ],
        [
          -111.797296911926,
          40.1068919921358
        ]
      ]
    ]
  }
}