{
  "type": "Feature",
  "properties": {
    "parcel_id": "280290004",
    "owner_name_raw": "UNITED STATES OF AMERICA HE",
    "owner_class": "UNCLASSIFIED",
    "epsg": "EPSG:4326"
  },
  "geometry": {
    "type": "Polygon",
    "coordinates": [
      [
        [
          -111.441979534725,
          40.1216292688448
        ],
        [
          -111.441958935457,
          40.1252223576357
        ],
        [
          -111.441958903118,
          40.1252223672521
        ],
        [
          -111.437136666723,
          40.1252311717537
        ],
        [
          -111.437154758792,
          40.1216364272597
        ],
        [
          -111.441979534725,
          40.1216292688448
        ]
      ]
    ]
  }
}