{
  "type": "Feature",
  "properties": {
    "parcel_id": "280270002",
    "owner_name_raw": "UNITED STATES OF AMERICA",
    "owner_class": "UNCLASSIFIED",
    "epsg": "EPSG:4326"
  },
  "geometry": {
    "type": "Polygon",
    "coordinates": [
      [
        [
          -111.541578040979,
          40.1247038564777
        ],
        [
          -111.541578042776,
          40.124704012402
        ],
        [
          -111.541563431678,
          40.1310742889529
        ],
        [
          -111.540857104336,
          40.131074538271
        ],
        [
          -111.540857720581,
          40.1321106228211
        ],
        [
          -111.541565667585,
          40.1321103735069
        ],
        [
          -111.541579274366,
          40.1381975485785
        ],
        [
          -111.54158420971,
          40.1392045878752
        ],
        [
          -111.525780793009,
          40.139589327838
        ],
        [
          -111.515925405671,
          40.139828173056
        ],
        [
          -111.516669659884,
          40.1323619064242
        ],
        [
          -111.517413925775,
          40.124895328459
        ],
        [
          -111.526698908958,
          40.1248223485131
        ],
        [
          -111.541578040979,
          40.1247038564777
        ]
      ]
    ]
  }
}