{
  "type": "Feature",
  "properties": {
    "parcel_id": "280290006",
    "owner_name_raw": "UNITED STATES OF AMERICA",
    "owner_class": "UNCLASSIFIED",
    "epsg": "EPSG:4326"
  },
  "geometry": {
    "type": "Polygon",
    "coordinates": [
      [
        [
          -111.432780060377,
          40.1252477744662
        ],
        [
          -111.423593675381,
          40.1252636490761
        ],
        [
          -111.423633286593,
          40.1180645291495
        ],
        [
          -111.428222205356,
          40.1180598468428
        ],
        [
          -111.432811123221,
          40.1180549824918
        ],
        [
          -111.432795586858,
          40.1216513836114
        ],
        [
          -111.437620367282,
          40.1216444051717
        ],
        [
          -111.437602299467,
          40.1252391513045
        ],
        [
          -111.432780060377,
          40.1252477744662
        ]
      ]
    ]
  }
}