{
  "type": "Feature",
  "properties": {
    "parcel_id": "280310001",
    "owner_name_raw": "UNITED STATES OF AMERICA",
    "owner_class": "UNCLASSIFIED",
    "epsg": "EPSG:4326"
  },
  "geometry": {
    "type": "Polygon",
    "coordinates": [
      [
        [
          -111.498536597241,
          40.1178176160315
        ],
        [
          -111.498517163088,
          40.1249671756476
        ],
        [
          -111.489170473729,
          40.1249956176287
        ],
        [
          -111.479823740353,
          40.1250233156985
        ],
        [
          -111.479869898487,
          40.117861055972
        ],
        [
          -111.479916045842,
          40.1106987823819
        ],
        [
          -111.489236038168,
          40.1106837789639
        ],
        [
          -111.498556026902,
          40.110668031486
        ],
        [
          -111.498536597241,
          40.1178176160315
        ]
      ]
    ]
  }
}