{
  "type": "Feature",
  "properties": {
    "parcel_id": "280420007",
    "owner_name_raw": "Federal",
    "owner_class": "UNCLASSIFIED",
    "epsg": "EPSG:4326"
  },
  "geometry": {
    "type": "Polygon",
    "coordinates": [
      [
        [
          -111.396255547275,
          40.1398953998852
        ],
        [
          -111.39662207608,
          40.1398957253988
        ],
        [
          -111.396816583797,
          40.141066356925
        ],
        [
          -111.396450047805,
          40.1410660321037
        ],
        [
          -111.396255547275,
          40.1398953998852
        ]
      ]
    ]
  }
}