{
  "type": "Feature",
  "properties": {
    "parcel_id": "280510002",
    "owner_name_raw": "UNITED STATES OF AMERICA",
    "owner_class": "UNCLASSIFIED",
    "epsg": "EPSG:4326"
  },
  "geometry": {
    "type": "Polygon",
    "coordinates": [
      [
        [
          -111.386002020315,
          40.1001499664653
        ],
        [
          -111.38597379435,
          40.0965356412711
        ],
        [
          -111.385973840164,
          40.096535652266
        ],
        [
          -111.405703807346,
          40.0965451455958
        ],
        [
          -111.405624503174,
          40.1109902058409
        ],
        [
          -111.386086725158,
          40.1109928831952
        ],
        [
          -111.386030255263,
          40.1037642783228
        ],
        [
          -111.388484495738,
          40.1037648815988
        ],
        [
          -111.388462279503,
          40.1001509463256
        ],
        [
          -111.386002020315,
          40.1001499664653
        ]
      ]
    ]
  }
}