{
  "type": "Feature",
  "properties": {
    "parcel_id": "280570010",
    "owner_name_raw": "USA",
    "owner_class": "UNCLASSIFIED",
    "epsg": "EPSG:4326"
  },
  "geometry": {
    "type": "Polygon",
    "coordinates": [
      [
        [
          -111.479681740961,
          40.1250693138121
        ],
        [
          -111.479635558572,
          40.1322315339574
        ],
        [
          -111.479589367201,
          40.1393937664929
        ],
        [
          -111.470184764354,
          40.1394176342273
        ],
        [
          -111.460780155219,
          40.1394407451636
        ],
        [
          -111.460822946468,
          40.1322674117885
        ],
        [
          -111.460865729631,
          40.1250940644193
        ],
        [
          -111.470273773026,
          40.1250820679351
        ],
        [
          -111.479681740961,
          40.1250693138121
        ]
      ]
    ]
  }
}