{
  "type": "Feature",
  "properties": {
    "parcel_id": "280590015",
    "owner_name_raw": "UNITED STATES OF AMERICA",
    "owner_class": "UNCLASSIFIED",
    "epsg": "EPSG:4326"
  },
  "geometry": {
    "type": "Polygon",
    "coordinates": [
      [
        [
          -111.236257451047,
          40.1184572860154
        ],
        [
          -111.236417531729,
          40.1114685237735
        ],
        [
          -111.245779142104,
          40.1113309634165
        ],
        [
          -111.255140713852,
          40.111192651173
        ],
        [
          -111.255063658164,
          40.1183842167239
        ],
        [
          -111.254986587204,
          40.1255757683908
        ],
        [
          -111.245580935125,
          40.125571362728
        ],
        [
          -111.236097334432,
          40.1254460320122
        ],
        [
          -111.236257451047,
          40.1184572860154
        ]
      ]
    ]
  }
}