{
  "type": "Feature",
  "properties": {
    "parcel_id": "280590031",
    "owner_name_raw": "UNITED STATES OF AMERICA",
    "owner_class": "UNCLASSIFIED",
    "epsg": "EPSG:4326"
  },
  "geometry": {
    "type": "Polygon",
    "coordinates": [
      [
        [
          -111.29301410754,
          40.0751135055759
        ],
        [
          -111.2930408432,
          40.0679241457275
        ],
        [
          -111.302494213787,
          40.0679708156079
        ],
        [
          -111.308936418066,
          40.0676815982275
        ],
        [
          -111.311561259394,
          40.0676849083803
        ],
        [
          -111.311524507519,
          40.0749052557728
        ],
        [
          -111.311487747559,
          40.0821255903373
        ],
        [
          -111.302384441455,
          40.0822131886633
        ],
        [
          -111.292987477882,
          40.0823028639555
        ],
        [
          -111.292987368288,
          40.0823028529583
        ],
        [
          -111.29301410754,
          40.0751135055759
        ]
      ]
    ]
  }
}