{
  "type": "Feature",
  "properties": {
    "parcel_id": "290290051",
    "owner_name_raw": "UTAH COUNTY",
    "owner_class": "UNCLASSIFIED",
    "epsg": "EPSG:4326"
  },
  "geometry": {
    "type": "Polygon",
    "coordinates": [
      [
        [
          -111.822125748999,
          39.999162721367
        ],
        [
          -111.822131825204,
          40.000459648532
        ],
        [
          -111.821161871971,
          40.0004623316085
        ],
        [
          -111.821296132376,
          40.0003268027374
        ],
        [
          -111.821563783619,
          39.9999738654341
        ],
        [
          -111.821970297336,
          39.9993657193789
        ],
        [
          -111.822125748999,
          39.999162721367
        ]
      ]
    ]
  }
}