{
  "type": "Feature",
  "properties": {
    "parcel_id": "290210021",
    "owner_name_raw": "UTAH COUNTY",
    "owner_class": "UNCLASSIFIED",
    "epsg": "EPSG:4326"
  },
  "geometry": {
    "type": "Polygon",
    "coordinates": [
      [
        [
          -111.786792498084,
          40.0119397131326
        ],
        [
          -111.784550538493,
          40.0119517708413
        ],
        [
          -111.784633445807,
          40.0118249793695
        ],
        [
          -111.786791997722,
          40.011819672592
        ],
        [
          -111.786792498084,
          40.0119397131326
        ]
      ]
    ]
  }
}