{
  "type": "Feature",
  "properties": {
    "parcel_id": "290230501",
    "owner_name_raw": "UTAH COUNTY",
    "owner_class": "UNCLASSIFIED",
    "epsg": "EPSG:4326"
  },
  "geometry": {
    "type": "Polygon",
    "coordinates": [
      [
        [
          -111.768108790629,
          40.0250207999169
        ],
        [
          -111.768102392827,
          40.0233797147175
        ],
        [
          -111.768209878946,
          40.0233794670685
        ],
        [
          -111.768218689622,
          40.0241615345379
        ],
        [
          -111.768234192747,
          40.0250197068482
        ],
        [
          -111.76810882746,
          40.025020786159
        ],
        [
          -111.768108790629,
          40.0250207999169
        ]
      ]
    ]
  }
}