{
  "type": "Feature",
  "properties": {
    "parcel_id": "290200020",
    "owner_name_raw": "UNITED STATES OF AMERICA",
    "owner_class": "UNCLASSIFIED",
    "epsg": "EPSG:4326"
  },
  "geometry": {
    "type": "Polygon",
    "coordinates": [
      [
        [
          -111.796647144311,
          40.0263649543264
        ],
        [
          -111.796630830906,
          40.0191607867115
        ],
        [
          -111.806005204545,
          40.0188273699443
        ],
        [
          -111.806022499809,
          40.0260315383686
        ],
        [
          -111.796647144311,
          40.0263649543264
        ]
      ]
    ]
  }
}