{
  "type": "Feature",
  "properties": {
    "parcel_id": "290240504",
    "owner_name_raw": "UTAH COUNTY",
    "owner_class": "UNCLASSIFIED",
    "epsg": "EPSG:4326"
  },
  "geometry": {
    "type": "Polygon",
    "coordinates": [
      [
        [
          -111.775497011632,
          40.0130190454146
        ],
        [
          -111.774689534888,
          40.013014077235
        ],
        [
          -111.774689601364,
          40.0130075149165
        ],
        [
          -111.775497772506,
          40.0130130128707
        ],
        [
          -111.775497011632,
          40.0130190454146
        ]
      ]
    ]
  }
}