{
  "type": "Feature",
  "properties": {
    "parcel_id": "290340080",
    "owner_name_raw": "UTAH COUNTY",
    "owner_class": "UNCLASSIFIED",
    "epsg": "EPSG:4326"
  },
  "geometry": {
    "type": "Polygon",
    "coordinates": [
      [
        [
          -111.852653641067,
          39.9892704574495
        ],
        [
          -111.857416956065,
          39.9892289479357
        ],
        [
          -111.857417340544,
          39.9892968755223
        ],
        [
          -111.85265432199,
          39.9893383829301
        ],
        [
          -111.852653641067,
          39.9892704574495
        ]
      ]
    ]
  }
}