{
  "type": "Feature",
  "properties": {
    "parcel_id": "290320003",
    "owner_name_raw": "UNITED STATES OF AMERICA",
    "owner_class": "UNCLASSIFIED",
    "epsg": "EPSG:4326"
  },
  "geometry": {
    "type": "Polygon",
    "coordinates": [
      [
        [
          -111.871770456863,
          40.0108795786717
        ],
        [
          -111.862345326614,
          40.0109171552657
        ],
        [
          -111.862267619647,
          40.0036730439726
        ],
        [
          -111.871716613642,
          40.0036377320987
        ],
        [
          -111.871770456863,
          40.0108795786717
        ]
      ]
    ]
  }
}