{
  "type": "Feature",
  "properties": {
    "parcel_id": "290420079",
    "owner_name_raw": "BOARD OF EDUCATION NEBO SCHOOL DISTRICT",
    "owner_class": "SCHOOL_DISTRICT",
    "epsg": "EPSG:4326"
  },
  "geometry": {
    "type": "Polygon",
    "coordinates": [
      [
        [
          -111.777121423483,
          39.9935367570655
        ],
        [
          -111.777114271995,
          39.9931070159582
        ],
        [
          -111.777077342253,
          39.9931073937904
        ],
        [
          -111.77705883606,
          39.9917328093158
        ],
        [
          -111.777053934852,
          39.9913062055426
        ],
        [
          -111.777701509679,
          39.9913017650371
        ],
        [
          -111.77769747804,
          39.9909512387965
        ],
        [
          -111.778661020895,
          39.9910795446211
        ],
        [
          -111.779158644444,
          39.9910783512141
        ],
        [
          -111.779160578516,
          39.9912462593819
        ],
        [
          -111.780691025689,
          39.9912425890105
        ],
        [
          -111.780701650512,
          39.9912433984475
        ],
        [
          -111.780711855726,
          39.9912458037773
        ],
        [
          -111.780721237157,
          39.9912497097376
        ],
        [
          -111.780729423257,
          39.9912549616335
        ],
        [
          -111.780736089818,
          39.9912613514652
        ],
        [
          -111.780740972813,
          39.9912686261649
        ],
        [
          -111.780743878851,
          39.9912764976203
        ],
        [
          -111.780744692841,
          39.9912846540845
        ],
        [
          -111.780680246804,
          39.9935898858327
        ],
        [
          -111.780767171385,
          39.9935896759275
        ],
        [
          -111.780772795737,
          39.9939790277761
        ],
        [
          -111.78059617168,
          39.9939805363326
        ],
        [
          -111.780604240348,
          39.994539219559
        ],
        [
          -111.780548322917,
          39.9945233715848
        ],
        [
          -111.780548111813,
          39.9945105544607
        ],
        [
          -111.77712136599,
          39.9935368011112
        ],
        [
          -111.777121423483,
          39.9935367570655
        ]
      ]
    ]
  }
}