{
  "type": "Feature",
  "properties": {
    "parcel_id": "290510225",
    "owner_name_raw": "UTAH COUNTY",
    "owner_class": "UNCLASSIFIED",
    "epsg": "EPSG:4326"
  },
  "geometry": {
    "type": "Polygon",
    "coordinates": [
      [
        [
          -111.654225393304,
          40.0536321790394
        ],
        [
          -111.654392320047,
          40.0531773835502
        ],
        [
          -111.654393239023,
          40.0530585185006
        ],
        [
          -111.653932809321,
          40.0530591284147
        ],
        [
          -111.653683588813,
          40.0530547091167
        ],
        [
          -111.653545336295,
          40.0530547916304
        ],
        [
          -111.653545140462,
          40.052967377212
        ],
        [
          -111.653934897904,
          40.0529635822629
        ],
        [
          -111.653975619151,
          40.0529644486764
        ],
        [
          -111.654016179246,
          40.0529673513205
        ],
        [
          -111.654056404595,
          40.0529722777718
        ],
        [
          -111.65409612304,
          40.0529792069452
        ],
        [
          -111.654644815812,
          40.0530062872898
        ],
        [
          -111.654696035054,
          40.053046798112
        ],
        [
          -111.654701907341,
          40.0533738364253
        ],
        [
          -111.654732739319,
          40.0533996259673
        ],
        [
          -111.654603769092,
          40.0534786709284
        ],
        [
          -111.654569307921,
          40.0534784006976
        ],
        [
          -111.653231943736,
          40.0543602852992
        ],
        [
          -111.652951426823,
          40.05453223766
        ],
        [
          -111.651894771792,
          40.0551191164718
        ],
        [
          -111.651790761255,
          40.0551913790854
        ],
        [
          -111.651793071722,
          40.0551157603273
        ],
        [
          -111.6518461379,
          40.0550788936082
        ],
        [
          -111.652908210671,
          40.0544884987513
        ],
        [
          -111.653186408135,
          40.0543179668653
        ],
        [
          -111.654225034876,
          40.0536330798067
        ],
        [
          -111.654225393304,
          40.0536321790394
        ]
      ]
    ]
  }
}