{
  "type": "Feature",
  "properties": {
    "parcel_id": "290620074",
    "owner_name_raw": "UTAH COUNTY",
    "owner_class": "UNCLASSIFIED",
    "epsg": "EPSG:4326"
  },
  "geometry": {
    "type": "Polygon",
    "coordinates": [
      [
        [
          -111.653266238719,
          40.0408612613057
        ],
        [
          -111.653282640159,
          40.0409315205281
        ],
        [
          -111.653297274342,
          40.0409844724944
        ],
        [
          -111.653316433548,
          40.0410365712419
        ],
        [
          -111.653340034525,
          40.0410875903891
        ],
        [
          -111.653367974722,
          40.0411373082462
        ],
        [
          -111.653314173721,
          40.0411673794382
        ],
        [
          -111.653257640943,
          40.0412865224363
        ],
        [
          -111.653122155236,
          40.0418077630402
        ],
        [
          -111.652956967631,
          40.041976590405
        ],
        [
          -111.652934845719,
          40.0419874434115
        ],
        [
          -111.652379460498,
          40.0419881730888
        ],
        [
          -111.6527579351,
          40.0417994876098
        ],
        [
          -111.652884515809,
          40.0416576882659
        ],
        [
          -111.652912315972,
          40.0415061579226
        ],
        [
          -111.652934485495,
          40.0412633513265
        ],
        [
          -111.653025271034,
          40.0410007363826
        ],
        [
          -111.653266238719,
          40.0408612613057
        ]
      ]
    ]
  }
}