{
  "type": "Feature",
  "properties": {
    "parcel_id": "290640001",
    "owner_name_raw": "UTAH STATE DEPT OF NATURAL RESOURCES",
    "owner_class": "STATE",
    "epsg": "EPSG:4326"
  },
  "geometry": {
    "type": "Polygon",
    "coordinates": [
      [
        [
          -111.612143092472,
          40.0166248301957
        ],
        [
          -111.612148751859,
          40.0129937414763
        ],
        [
          -111.621506742922,
          40.0129893677427
        ],
        [
          -111.630805055307,
          40.0129916925573
        ],
        [
          -111.634791667147,
          40.0129991197164
        ],
        [
          -111.63491065799,
          40.0202402806588
        ],
        [
          -111.634914059011,
          40.0275178499688
        ],
        [
          -111.62560535761,
          40.027514601837
        ],
        [
          -111.612126010109,
          40.0275184257177
        ],
        [
          -111.61213100564,
          40.0243298690242
        ],
        [
          -111.612131698241,
          40.0238868758717
        ],
        [
          -111.612137362119,
          40.0202559279753
        ],
        [
          -111.616249058972,
          40.0202545128719
        ],
        [
          -111.616220412596,
          40.0166232141263
        ],
        [
          -111.612143092472,
          40.0166248301957
        ]
      ]
    ]
  }
}