{
  "type": "Feature",
  "properties": {
    "parcel_id": "290620098",
    "owner_name_raw": "UTAH COUNTY",
    "owner_class": "UNCLASSIFIED",
    "epsg": "EPSG:4326"
  },
  "geometry": {
    "type": "Polygon",
    "coordinates": [
      [
        [
          -111.653915963215,
          40.0418762717093
        ],
        [
          -111.653897157497,
          40.0418370237664
        ],
        [
          -111.653875490608,
          40.0417986501774
        ],
        [
          -111.653851031509,
          40.0417612730802
        ],
        [
          -111.65382385805,
          40.0417250114415
        ],
        [
          -111.653425209982,
          40.0412266662415
        ],
        [
          -111.653399924783,
          40.0411932924119
        ],
        [
          -111.653376690821,
          40.0411590557882
        ],
        [
          -111.653355558207,
          40.0411240302113
        ],
        [
          -111.65333657252,
          40.0410882912238
        ],
        [
          -111.653319774708,
          40.041051915907
        ],
        [
          -111.653305201002,
          40.0410149827148
        ],
        [
          -111.653292882834,
          40.0409775713045
        ],
        [
          -111.653282846772,
          40.0409397623648
        ],
        [
          -111.65325057749,
          40.040801474199
        ],
        [
          -111.653212295161,
          40.0406455275424
        ],
        [
          -111.653169400331,
          40.0404902857713
        ],
        [
          -111.653409467006,
          40.040485842963
        ],
        [
          -111.653448233805,
          40.0406273222475
        ],
        [
          -111.653482596159,
          40.0407694668622
        ],
        [
          -111.65351486544,
          40.0409077544052
        ],
        [
          -111.65352268602,
          40.0409372769916
        ],
        [
          -111.653532292932,
          40.0409664889016
        ],
        [
          -111.653543665355,
          40.0409953268199
        ],
        [
          -111.653556778639,
          40.0410237282425
        ],
        [
          -111.653571604361,
          40.041051631611
        ],
        [
          -111.653588110387,
          40.0410789764469
        ],
        [
          -111.653606260942,
          40.0411057034824
        ],
        [
          -111.653626016685,
          40.0411317547885
        ],
        [
          -111.653911009006,
          40.041488019704
        ],
        [
          -111.653915999147,
          40.0418762194421
        ],
        [
          -111.653915963215,
          40.0418762717093
        ]
      ]
    ]
  }
}