{
  "type": "Feature",
  "properties": {
    "parcel_id": "290620049",
    "owner_name_raw": "CENTRAL UTAH WATER CONSERVANCY DISTRICT",
    "owner_class": "SPECIAL_DISTRICT",
    "epsg": "EPSG:4326"
  },
  "geometry": {
    "type": "Polygon",
    "coordinates": [
      [
        [
          -111.648242883905,
          40.0404416294396
        ],
        [
          -111.648187360834,
          40.0404381948575
        ],
        [
          -111.646587816147,
          40.040503498654
        ],
        [
          -111.644571611272,
          40.0406307299447
        ],
        [
          -111.644569805659,
          40.0397719253007
        ],
        [
          -111.645580769679,
          40.0397706646577
        ],
        [
          -111.645582293222,
          40.0404898607473
        ],
        [
          -111.646581086867,
          40.0404268292368
        ],
        [
          -111.648242635071,
          40.0403589937867
        ],
        [
          -111.648242883905,
          40.0404416294396
        ]
      ]
    ]
  }
}