{
  "type": "Feature",
  "properties": {
    "parcel_id": "290730002",
    "owner_name_raw": "UTAH STATE DEPT OF NATURAL RESOURCES",
    "owner_class": "STATE",
    "epsg": "EPSG:4326"
  },
  "geometry": {
    "type": "Polygon",
    "coordinates": [
      [
        [
          -111.630901172348,
          40.0057579996294
        ],
        [
          -111.630864711527,
          40.0129842358125
        ],
        [
          -111.625540952895,
          40.0129872424535
        ],
        [
          -111.621507216334,
          40.0129893594865
        ],
        [
          -111.612149726531,
          40.0129937345961
        ],
        [
          -111.61215454689,
          40.0098774861062
        ],
        [
          -111.612165724628,
          40.0026514075268
        ],
        [
          -111.61217131125,
          39.999038363557
        ],
        [
          -111.61217689967,
          39.9954253162833
        ],
        [
          -111.62156508311,
          39.9954252639804
        ],
        [
          -111.626259190999,
          39.9954249536042
        ],
        [
          -111.626244138828,
          39.9990380669604
        ],
        [
          -111.630935068478,
          39.9990375845609
        ],
        [
          -111.630916846153,
          40.0026507138991
        ],
        [
          -111.630901172348,
          40.0057579996294
        ]
      ]
    ]
  }
}