{
  "type": "Feature",
  "properties": {
    "parcel_id": "290810010",
    "owner_name_raw": "USA",
    "owner_class": "UNCLASSIFIED",
    "epsg": "EPSG:4326"
  },
  "geometry": {
    "type": "Polygon",
    "coordinates": [
      [
        [
          -111.825187587475,
          40.0407876926147
        ],
        [
          -111.825142563015,
          40.0555911898026
        ],
        [
          -111.806362902013,
          40.0553939587781
        ],
        [
          -111.806255420386,
          40.0481052538657
        ],
        [
          -111.806147453668,
          40.0408164600097
        ],
        [
          -111.815667595132,
          40.0408024473484
        ],
        [
          -111.825187587475,
          40.0407876926147
        ]
      ]
    ]
  }
}