{
  "type": "Feature",
  "properties": {
    "parcel_id": "290810019",
    "owner_name_raw": "USA",
    "owner_class": "UNCLASSIFIED",
    "epsg": "EPSG:4326"
  },
  "geometry": {
    "type": "Polygon",
    "coordinates": [
      [
        [
          -111.881281566665,
          40.0253152736298
        ],
        [
          -111.86237881491,
          40.0253983725788
        ],
        [
          -111.862359876627,
          40.0181553126095
        ],
        [
          -111.862340942835,
          40.0109122406
        ],
        [
          -111.871766086559,
          40.0108746626273
        ],
        [
          -111.881224123894,
          40.0108361853654
        ],
        [
          -111.881281566665,
          40.0253152736298
        ]
      ]
    ]
  }
}