{
  "type": "Feature",
  "properties": {
    "parcel_id": "300060010",
    "owner_name_raw": "UTAH COUNTY",
    "owner_class": "UNCLASSIFIED",
    "epsg": "EPSG:4326"
  },
  "geometry": {
    "type": "Polygon",
    "coordinates": [
      [
        [
          -111.687227000424,
          40.0622352914513
        ],
        [
          -111.687241327655,
          40.0622352673881
        ],
        [
          -111.687242869088,
          40.0623328035265
        ],
        [
          -111.687246699292,
          40.0624303026013
        ],
        [
          -111.687252817032,
          40.0625277331556
        ],
        [
          -111.687261220333,
          40.0626250637547
        ],
        [
          -111.687271906484,
          40.0627222629964
        ],
        [
          -111.687284872038,
          40.062819299521
        ],
        [
          -111.687300112812,
          40.0629161420215
        ],
        [
          -111.687317623887,
          40.0630127592535
        ],
        [
          -111.687337399615,
          40.0631091200455
        ],
        [
          -111.687359433615,
          40.0632051933088
        ],
        [
          -111.687383718777,
          40.0633009480477
        ],
        [
          -111.687410247267,
          40.0633963533692
        ],
        [
          -111.687439010526,
          40.0634913784934
        ],
        [
          -111.687469999272,
          40.0635859927631
        ],
        [
          -111.687503203508,
          40.0636801656536
        ],
        [
          -111.687538612522,
          40.063773866783
        ],
        [
          -111.688136734194,
          40.0653053633383
        ],
        [
          -111.688205119526,
          40.0654870562946
        ],
        [
          -111.688268874585,
          40.0656697322647
        ],
        [
          -111.688327975252,
          40.0658533221368
        ],
        [
          -111.68838239917,
          40.0660377564538
        ],
        [
          -111.688397077642,
          40.0660379510116
        ],
        [
          -111.688455506778,
          40.0662584863184
        ],
        [
          -111.688507229559,
          40.0664799996601
        ],
        [
          -111.6885522181,
          40.0667023716017
        ],
        [
          -111.688590448146,
          40.0669254822468
        ],
        [
          -111.688621899084,
          40.0671492113015
        ],
        [
          -111.688646553959,
          40.06737343814
        ],
        [
          -111.688664399479,
          40.0675980418691
        ],
        [
          -111.688675426022,
          40.0678229013937
        ],
        [
          -111.688646788629,
          40.0678222751127
        ],
        [
          -111.688639671973,
          40.0676628123369
        ],
        [
          -111.688629111789,
          40.0675034610073
        ],
        [
          -111.688615110964,
          40.0673442646726
        ],
        [
          -111.688597673323,
          40.0671852668391
        ],
        [
          -111.688576803633,
          40.0670265109595
        ],
        [
          -111.688552507597,
          40.0668680404204
        ],
        [
          -111.688524791853,
          40.066709898531
        ],
        [
          -111.688493663977,
          40.0665521285106
        ],
        [
          -111.688459132475,
          40.0663947734775
        ],
        [
          -111.688421206784,
          40.0662378764368
        ],
        [
          -111.688379897267,
          40.0660814802687
        ],
        [
          -111.688335215215,
          40.0659256277167
        ],
        [
          -111.688287172837,
          40.0657703613763
        ],
        [
          -111.688235783264,
          40.0656157236828
        ],
        [
          -111.688181060538,
          40.0654617569
        ],
        [
          -111.688123019615,
          40.0653085031089
        ],
        [
          -111.687524898841,
          40.0637770079992
        ],
        [
          -111.687489434615,
          40.0636831140141
        ],
        [
          -111.687456177428,
          40.063588748009
        ],
        [
          -111.687425137985,
          40.0634939403659
        ],
        [
          -111.687396326281,
          40.0633987216088
        ],
        [
          -111.687369751594,
          40.0633031223943
        ],
        [
          -111.687345422479,
          40.0632071735017
        ],
        [
          -111.68732334677,
          40.063110905823
        ],
        [
          -111.687303531574,
          40.0630143503528
        ],
        [
          -111.687285983273,
          40.0629175381786
        ],
        [
          -111.687270707515,
          40.0628205004709
        ],
        [
          -111.68725770922,
          40.0627232684725
        ],
        [
          -111.687246992572,
          40.0626258734892
        ],
        [
          -111.687238561022,
          40.0625283468794
        ],
        [
          -111.687232417285,
          40.062430720044
        ],
        [
          -111.687228563339,
          40.0623330244161
        ],
        [
          -111.687227000424,
          40.0622352914513
        ]
      ]
    ]
  }
}