{
  "type": "Feature",
  "properties": {
    "parcel_id": "300050062",
    "owner_name_raw": "UTAH COUNTY",
    "owner_class": "UNCLASSIFIED",
    "epsg": "EPSG:4326"
  },
  "geometry": {
    "type": "Polygon",
    "coordinates": [
      [
        [
          -111.688755195521,
          40.0583958696188
        ],
        [
          -111.688938880335,
          40.058675797638
        ],
        [
          -111.688850799323,
          40.0587559904758
        ],
        [
          -111.688764741764,
          40.0588374600642
        ],
        [
          -111.688680739246,
          40.0589201764938
        ],
        [
          -111.688598822605,
          40.0590041093973
        ],
        [
          -111.688519021909,
          40.0590892279613
        ],
        [
          -111.688441366452,
          40.0591755009368
        ],
        [
          -111.688365884737,
          40.0592628966515
        ],
        [
          -111.688292604472,
          40.0593513830209
        ],
        [
          -111.688138578435,
          40.0590001164756
        ],
        [
          -111.688209791397,
          40.0589211998243
        ],
        [
          -111.688282721968,
          40.0588432074177
        ],
        [
          -111.688357349674,
          40.0587661611563
        ],
        [
          -111.688433653561,
          40.0586900826751
        ],
        [
          -111.688511612205,
          40.0586149933376
        ],
        [
          -111.68859120372,
          40.0585409142292
        ],
        [
          -111.688672405758,
          40.0584678661521
        ],
        [
          -111.688755195521,
          40.0583958696188
        ]
      ]
    ]
  }
}