{
  "type": "Feature",
  "properties": {
    "parcel_id": "300130501",
    "owner_name_raw": "UTAH COUNTY",
    "owner_class": "UNCLASSIFIED",
    "epsg": "EPSG:4326"
  },
  "geometry": {
    "type": "Polygon",
    "coordinates": [
      [
        [
          -111.738412392662,
          40.0659558049402
        ],
        [
          -111.739726303631,
          40.0645554923293
        ],
        [
          -111.73978017675,
          40.0645004995056
        ],
        [
          -111.739837076236,
          40.0644473218695
        ],
        [
          -111.739896897789,
          40.0643960569023
        ],
        [
          -111.739959531755,
          40.0643467985795
        ],
        [
          -111.740024863321,
          40.0642996371983
        ],
        [
          -111.740092772733,
          40.064254659212
        ],
        [
          -111.740163135509,
          40.0642119470718
        ],
        [
          -111.740235822671,
          40.0641715790753
        ],
        [
          -111.740234871355,
          40.0643647332546
        ],
        [
          -111.740186480351,
          40.0643958446436
        ],
        [
          -111.740139473749,
          40.064428175317
        ],
        [
          -111.740093903976,
          40.064461689214
        ],
        [
          -111.740049821856,
          40.0644963489547
        ],
        [
          -111.740007276555,
          40.0645321158808
        ],
        [
          -111.739966315525,
          40.0645689500993
        ],
        [
          -111.739926984449,
          40.0646068105268
        ],
        [
          -111.739889327194,
          40.0646456549355
        ],
        [
          -111.738649731154,
          40.0659688492655
        ],
        [
          -111.738606921611,
          40.0660130162213
        ],
        [
          -111.738562263372,
          40.0660560976655
        ],
        [
          -111.738515803398,
          40.066098048298
        ],
        [
          -111.738467590543,
          40.0661388240079
        ],
        [
          -111.738409411154,
          40.0661885681557
        ],
        [
          -111.738412392662,
          40.0659558049402
        ]
      ]
    ]
  }
}