{
  "type": "Feature",
  "properties": {
    "parcel_id": "300350156",
    "owner_name_raw": "UTAH COUNTY",
    "owner_class": "UNCLASSIFIED",
    "epsg": "EPSG:4326"
  },
  "geometry": {
    "type": "Polygon",
    "coordinates": [
      [
        [
          -111.691904688907,
          40.0508120004924
        ],
        [
          -111.69185557683,
          40.0507199158657
        ],
        [
          -111.69180946889,
          40.0506269254597
        ],
        [
          -111.691766393554,
          40.0505330866872
        ],
        [
          -111.69172637742,
          40.0504384574852
        ],
        [
          -111.691689445195,
          40.050343096279
        ],
        [
          -111.691655619684,
          40.0502470619458
        ],
        [
          -111.691624921772,
          40.050150413779
        ],
        [
          -111.691597370412,
          40.050053211451
        ],
        [
          -111.691572982616,
          40.0499555149767
        ],
        [
          -111.691551773443,
          40.0498573846765
        ],
        [
          -111.691533755988,
          40.0497588811386
        ],
        [
          -111.691518941376,
          40.0496600651822
        ],
        [
          -111.691507338754,
          40.0495609978194
        ],
        [
          -111.691498955285,
          40.049461740218
        ],
        [
          -111.691493796147,
          40.0493623536635
        ],
        [
          -111.691491864525,
          40.0492628995213
        ],
        [
          -111.691490920396,
          40.0489626270538
        ],
        [
          -111.691954598406,
          40.0488153021544
        ],
        [
          -111.691956104881,
          40.0492620468319
        ],
        [
          -111.69195788728,
          40.0493534687254
        ],
        [
          -111.691962665912,
          40.0494448274736
        ],
        [
          -111.691970437767,
          40.0495360655447
        ],
        [
          -111.691981197951,
          40.0496271254828
        ],
        [
          -111.691994939688,
          40.0497179499447
        ],
        [
          -111.692011654323,
          40.0498084817355
        ],
        [
          -111.692031331332,
          40.049898663845
        ],
        [
          -111.692053958322,
          40.0499884394834
        ],
        [
          -111.692079521045,
          40.0500777521169
        ],
        [
          -111.692108003402,
          40.0501665455037
        ],
        [
          -111.692139387458,
          40.0502547637291
        ],
        [
          -111.692173653447,
          40.0503423512409
        ],
        [
          -111.692210779793,
          40.0504292528841
        ],
        [
          -111.692250743114,
          40.050515413936
        ],
        [
          -111.692293518244,
          40.0506007801404
        ],
        [
          -111.692339078246,
          40.0506852977418
        ],
        [
          -111.691904677229,
          40.0508120321237
        ],
        [
          -111.691904688907,
          40.0508120004924
        ]
      ]
    ]
  }
}