{
  "type": "Feature",
  "properties": {
    "parcel_id": "300350027",
    "owner_name_raw": "UTAH DEPARTMENT OF TRANSPORTATION THE",
    "owner_class": "STATE",
    "epsg": "EPSG:4326"
  },
  "geometry": {
    "type": "Polygon",
    "coordinates": [
      [
        [
          -111.68355126586,
          40.0510592660857
        ],
        [
          -111.683558833268,
          40.050818370762
        ],
        [
          -111.684315556097,
          40.0504063442941
        ],
        [
          -111.684308561814,
          40.0506291300424
        ],
        [
          -111.68355126586,
          40.0510592660857
        ]
      ]
    ]
  }
}