{
  "type": "Feature",
  "properties": {
    "parcel_id": "300340112",
    "owner_name_raw": "UTAH COUNTY",
    "owner_class": "UNCLASSIFIED",
    "epsg": "EPSG:4326"
  },
  "geometry": {
    "type": "Polygon",
    "coordinates": [
      [
        [
          -111.691640292261,
          40.0478802311405
        ],
        [
          -111.69144574951,
          40.0479166451432
        ],
        [
          -111.691452079485,
          40.0477530604031
        ],
        [
          -111.691464492602,
          40.0475896796174
        ],
        [
          -111.691482978792,
          40.0474266353213
        ],
        [
          -111.691507523059,
          40.0472640597781
        ],
        [
          -111.691566140826,
          40.0469204831047
        ],
        [
          -111.691666666798,
          40.046584602587
        ],
        [
          -111.691819236666,
          40.0456903118746
        ],
        [
          -111.691842120349,
          40.0455336816426
        ],
        [
          -111.691851152011,
          40.0459322004605
        ],
        [
          -111.69166729472,
          40.0470338932165
        ],
        [
          -111.69164976906,
          40.0471557989999
        ],
        [
          -111.69163806675,
          40.0472781129765
        ],
        [
          -111.69163220338,
          40.0474006721835
        ],
        [
          -111.691632186762,
          40.0475233133328
        ],
        [
          -111.691640274295,
          40.0478802056969
        ],
        [
          -111.691640292261,
          40.0478802311405
        ]
      ]
    ]
  }
}