{
  "type": "Feature",
  "properties": {
    "parcel_id": "300450044",
    "owner_name_raw": "UTAH COUNTY",
    "owner_class": "UNCLASSIFIED",
    "epsg": "EPSG:4326"
  },
  "geometry": {
    "type": "Polygon",
    "coordinates": [
      [
        [
          -111.69127920545,
          40.0271149463113
        ],
        [
          -111.691281541968,
          40.0272092320461
        ],
        [
          -111.690924575728,
          40.027212521465
        ],
        [
          -111.690922174532,
          40.0271154684092
        ],
        [
          -111.69127920545,
          40.0271149463113
        ]
      ]
    ]
  }
}