{
  "type": "Feature",
  "properties": {
    "parcel_id": "300460142",
    "owner_name_raw": "UTAH COUNTY",
    "owner_class": "UNCLASSIFIED",
    "epsg": "EPSG:4326"
  },
  "geometry": {
    "type": "Polygon",
    "coordinates": [
      [
        [
          -111.691310805486,
          40.0375620822131
        ],
        [
          -111.691439640789,
          40.0375250939974
        ],
        [
          -111.6915662612,
          40.0374838654415
        ],
        [
          -111.691849581756,
          40.0373860092391
        ],
        [
          -111.691852617163,
          40.0375037557911
        ],
        [
          -111.691702373034,
          40.0375556481175
        ],
        [
          -111.691310805486,
          40.0375620822131
        ]
      ]
    ]
  }
}