{
  "type": "Feature",
  "properties": {
    "parcel_id": "300450064",
    "owner_name_raw": "UTAH COUNTY",
    "owner_class": "UNCLASSIFIED",
    "epsg": "EPSG:4326"
  },
  "geometry": {
    "type": "Polygon",
    "coordinates": [
      [
        [
          -111.691637503891,
          40.0282683087201
        ],
        [
          -111.691637553298,
          40.0282683444891
        ],
        [
          -111.691637503891,
          40.0282683637492
        ],
        [
          -111.691637503891,
          40.0282683087201
        ]
      ]
    ]
  }
}