{
  "type": "Feature",
  "properties": {
    "parcel_id": "300570050",
    "owner_name_raw": "UTAH DEPARTMENT OF TRANSPORTATION",
    "owner_class": "STATE",
    "epsg": "EPSG:4326"
  },
  "geometry": {
    "type": "Polygon",
    "coordinates": [
      [
        [
          -111.748528952593,
          40.0312489412118
        ],
        [
          -111.748528777421,
          40.0312210515845
        ],
        [
          -111.748521639408,
          40.0312209470337
        ],
        [
          -111.748521001604,
          40.031116850053
        ],
        [
          -111.748534105329,
          40.0311168713759
        ],
        [
          -111.748534030769,
          40.0311443160162
        ],
        [
          -111.748623095136,
          40.0312185643743
        ],
        [
          -111.74865879688,
          40.0312186214646
        ],
        [
          -111.748658709744,
          40.0312508410104
        ],
        [
          -111.748528952593,
          40.0312489412118
        ]
      ]
    ]
  }
}