{
  "type": "Feature",
  "properties": {
    "parcel_id": "300670053",
    "owner_name_raw": "BOARD OF EDUCATION OF THE NEBO SCHOOL DISTRICT",
    "owner_class": "SCHOOL_DISTRICT",
    "epsg": "EPSG:4326"
  },
  "geometry": {
    "type": "Polygon",
    "coordinates": [
      [
        [
          -111.751389837041,
          40.0186628861607
        ],
        [
          -111.751410418687,
          40.0186482829528
        ],
        [
          -111.751428814335,
          40.0186320586988
        ],
        [
          -111.751444807617,
          40.0186144042251
        ],
        [
          -111.751458210423,
          40.0185955271799
        ],
        [
          -111.751468865111,
          40.0185756495916
        ],
        [
          -111.751476646362,
          40.0185550052567
        ],
        [
          -111.751481462654,
          40.0185338369903
        ],
        [
          -111.751483257339,
          40.0185123937701
        ],
        [
          -111.751500878691,
          40.0170259829821
        ],
        [
          -111.751501979745,
          40.0170179943337
        ],
        [
          -111.751505089275,
          40.0170103224172
        ],
        [
          -111.751510088433,
          40.01700326046
        ],
        [
          -111.751516786147,
          40.0169970783765
        ],
        [
          -111.751524926424,
          40.0169920124514
        ],
        [
          -111.751534198137,
          40.0169882563091
        ],
        [
          -111.751544246911,
          40.0169859535128
        ],
        [
          -111.751554688675,
          40.0169851920774
        ],
        [
          -111.754275333531,
          40.0169957174554
        ],
        [
          -111.754264181845,
          40.0187052122793
        ],
        [
          -111.751862214336,
          40.0186862623941
        ],
        [
          -111.75186221254,
          40.018665512797
        ],
        [
          -111.751786968753,
          40.0186650635583
        ],
        [
          -111.751786898685,
          40.0186650745657
        ],
        [
          -111.751389832549,
          40.0186629219348
        ],
        [
          -111.751389837041,
          40.0186628861607
        ]
      ]
    ]
  }
}