{
  "type": "Feature",
  "properties": {
    "parcel_id": "300760131",
    "owner_name_raw": "UTAH COUNTY",
    "owner_class": "UNCLASSIFIED",
    "epsg": "EPSG:4326"
  },
  "geometry": {
    "type": "Polygon",
    "coordinates": [
      [
        [
          -111.672678104373,
          40.0272711978741
        ],
        [
          -111.672662038903,
          40.0271274553368
        ],
        [
          -111.672574463942,
          40.0268075791938
        ],
        [
          -111.672439560343,
          40.0265039851014
        ],
        [
          -111.67215386554,
          40.0260030928588
        ],
        [
          -111.671778813519,
          40.025471905592
        ],
        [
          -111.671103485241,
          40.0246321444549
        ],
        [
          -111.670371368166,
          40.0235436285461
        ],
        [
          -111.670048690621,
          40.0229125226831
        ],
        [
          -111.669363356908,
          40.0208187611805
        ],
        [
          -111.669214961511,
          40.0200310795794
        ],
        [
          -111.669328399867,
          40.0200309137841
        ],
        [
          -111.66947679706,
          40.020818596075
        ],
        [
          -111.670162133468,
          40.0229123568948
        ],
        [
          -111.67048481281,
          40.0235434620714
        ],
        [
          -111.671216931682,
          40.0246319772949
        ],
        [
          -111.67189225996,
          40.0254717377462
        ],
        [
          -111.672267314675,
          40.0260029250143
        ],
        [
          -111.672553009479,
          40.0265038165702
        ],
        [
          -111.672687913976,
          40.0268074106634
        ],
        [
          -111.672775427851,
          40.0271272964375
        ],
        [
          -111.672802571346,
          40.0272710224661
        ],
        [
          -111.672760554445,
          40.0272710850628
        ],
        [
          -111.672678104373,
          40.0272711978741
        ]
      ]
    ]
  }
}