{
  "type": "Feature",
  "properties": {
    "parcel_id": "300740135",
    "owner_name_raw": "UTAH COUNTY",
    "owner_class": "UNCLASSIFIED",
    "epsg": "EPSG:4326"
  },
  "geometry": {
    "type": "Polygon",
    "coordinates": [
      [
        [
          -111.685097086801,
          40.0270851757155
        ],
        [
          -111.687637233167,
          40.0270618683957
        ],
        [
          -111.687637394864,
          40.0271212039198
        ],
        [
          -111.683992160798,
          40.0271270254143
        ],
        [
          -111.684288844692,
          40.0271108672059
        ],
        [
          -111.684490707027,
          40.0271011619188
        ],
        [
          -111.68469272844,
          40.0270936439778
        ],
        [
          -111.684894868513,
          40.0270883148878
        ],
        [
          -111.685097086801,
          40.0270851757155
        ]
      ]
    ]
  }
}