{
  "type": "Feature",
  "properties": {
    "parcel_id": "300780201",
    "owner_name_raw": "UTAH COUNTY",
    "owner_class": "UNCLASSIFIED",
    "epsg": "EPSG:4326"
  },
  "geometry": {
    "type": "Polygon",
    "coordinates": [
      [
        [
          -111.679776838785,
          40.0124892879149
        ],
        [
          -111.679067591021,
          40.0126018766836
        ],
        [
          -111.679060937199,
          40.0125235253342
        ],
        [
          -111.679756385943,
          40.0124131250416
        ],
        [
          -111.679776838785,
          40.0124892879149
        ]
      ]
    ]
  }
}