{
  "type": "Feature",
  "properties": {
    "parcel_id": "300720147",
    "owner_name_raw": "UTAH COUNTY",
    "owner_class": "UNCLASSIFIED",
    "epsg": "EPSG:4326"
  },
  "geometry": {
    "type": "Polygon",
    "coordinates": [
      [
        [
          -111.710603310192,
          40.0135773203699
        ],
        [
          -111.710603382956,
          40.0135773444503
        ],
        [
          -111.710598488036,
          40.0133522449392
        ],
        [
          -111.710878100346,
          40.0135747974277
        ],
        [
          -111.711353740323,
          40.0138454445378
        ],
        [
          -111.711703875773,
          40.0140490944697
        ],
        [
          -111.711960264836,
          40.0142701028652
        ],
        [
          -111.712139228106,
          40.0144638876224
        ],
        [
          -111.712474251198,
          40.0148065139525
        ],
        [
          -111.712727439564,
          40.0150328532552
        ],
        [
          -111.713009524038,
          40.0152669854213
        ],
        [
          -111.713279099471,
          40.0154388093408
        ],
        [
          -111.713719361097,
          40.0156880958763
        ],
        [
          -111.714403305117,
          40.01604301453
        ],
        [
          -111.714053539773,
          40.01604692918
        ],
        [
          -111.713604125212,
          40.0158137140284
        ],
        [
          -111.713155929666,
          40.0155599374243
        ],
        [
          -111.712871783559,
          40.0153788348297
        ],
        [
          -111.712578259938,
          40.0151351935552
        ],
        [
          -111.712318380021,
          40.0149028896388
        ],
        [
          -111.711977781984,
          40.0145545588742
        ],
        [
          -111.711803670516,
          40.0143660355461
        ],
        [
          -111.711567653447,
          40.0141625730098
        ],
        [
          -111.711233937403,
          40.0139684784812
        ],
        [
          -111.71074578659,
          40.013690713693
        ],
        [
          -111.710603310192,
          40.0135773203699
        ]
      ]
    ]
  }
}