{
  "type": "Feature",
  "properties": {
    "parcel_id": "300800500",
    "owner_name_raw": "UTAH COUNTY",
    "owner_class": "UNCLASSIFIED",
    "epsg": "EPSG:4326"
  },
  "geometry": {
    "type": "Polygon",
    "coordinates": [
      [
        [
          -111.746576483187,
          39.9994707201783
        ],
        [
          -111.748583936675,
          39.9981363172446
        ],
        [
          -111.748586667553,
          39.9983376495047
        ],
        [
          -111.746879633155,
          39.9994723586747
        ],
        [
          -111.746576483187,
          39.9994707201783
        ]
      ]
    ]
  }
}