{
  "type": "Feature",
  "properties": {
    "parcel_id": "310090003",
    "owner_name_raw": "UNITED STATES OF AMERICA",
    "owner_class": "UNCLASSIFIED",
    "epsg": "EPSG:4326"
  },
  "geometry": {
    "type": "Polygon",
    "coordinates": [
      [
        [
          -111.433234345603,
          40.0529723699868
        ],
        [
          -111.432896919517,
          40.045897281804
        ],
        [
          -111.442373584318,
          40.0459195215869
        ],
        [
          -111.44258143561,
          40.0528644143019
        ],
        [
          -111.433234345603,
          40.0529723699868
        ]
      ]
    ]
  }
}