{
  "type": "Feature",
  "properties": {
    "parcel_id": "310130003",
    "owner_name_raw": "UNITED STATES OF AMERICA",
    "owner_class": "UNCLASSIFIED",
    "epsg": "EPSG:4326"
  },
  "geometry": {
    "type": "Polygon",
    "coordinates": [
      [
        [
          -111.489351193205,
          40.0234868014796
        ],
        [
          -111.489350071209,
          40.0307318824381
        ],
        [
          -111.479925279625,
          40.0307306374484
        ],
        [
          -111.479927394259,
          40.0234855570456
        ],
        [
          -111.489351193205,
          40.0234868014796
        ]
      ]
    ]
  }
}