{
  "type": "Feature",
  "properties": {
    "parcel_id": "310480004",
    "owner_name_raw": "UNITED STATES OF AMERICA",
    "owner_class": "UNCLASSIFIED",
    "epsg": "EPSG:4326"
  },
  "geometry": {
    "type": "Polygon",
    "coordinates": [
      [
        [
          -111.331508570365,
          39.9894964925559
        ],
        [
          -111.331440304692,
          39.9858832137286
        ],
        [
          -111.336154395605,
          39.9857978138852
        ],
        [
          -111.33605151425,
          39.9821740082941
        ],
        [
          -111.340795980796,
          39.9820928514978
        ],
        [
          -111.340942586749,
          39.9893481279583
        ],
        [
          -111.34562784264,
          39.9892744624201
        ],
        [
          -111.345954372161,
          39.9965276183883
        ],
        [
          -111.33640711505,
          39.9966209209925
        ],
        [
          -111.326857210605,
          39.9967801093461
        ],
        [
          -111.326808526408,
          39.993175651994
        ],
        [
          -111.331570363677,
          39.993098556371
        ],
        [
          -111.331508570365,
          39.9894964925559
        ]
      ]
    ]
  }
}