{
  "type": "Feature",
  "properties": {
    "parcel_id": "310460001",
    "owner_name_raw": "UNITED STATES OF AMERICA",
    "owner_class": "UNCLASSIFIED",
    "epsg": "EPSG:4326"
  },
  "geometry": {
    "type": "Polygon",
    "coordinates": [
      [
        [
          -111.364426584757,
          39.9963574955456
        ],
        [
          -111.364598925646,
          39.9889738811206
        ],
        [
          -111.364541899693,
          39.9816210073171
        ],
        [
          -111.374046948561,
          39.9814069851637
        ],
        [
          -111.383551937243,
          39.9811921852053
        ],
        [
          -111.383842790172,
          39.9886215727187
        ],
        [
          -111.384133704187,
          39.9960509471592
        ],
        [
          -111.374306103538,
          39.9962042342559
        ],
        [
          -111.364426584757,
          39.9963574955456
        ]
      ]
    ]
  }
}