{
  "type": "Feature",
  "properties": {
    "parcel_id": "310520034",
    "owner_name_raw": "UNITED STATES OF AMERICA",
    "owner_class": "UNCLASSIFIED",
    "epsg": "EPSG:4326"
  },
  "geometry": {
    "type": "Polygon",
    "coordinates": [
      [
        [
          -111.242718254944,
          39.9877862490165
        ],
        [
          -111.242659601244,
          39.9950258217371
        ],
        [
          -111.24260093407,
          40.0022654184521
        ],
        [
          -111.23317775586,
          40.0022509636633
        ],
        [
          -111.223754583938,
          40.0022357429861
        ],
        [
          -111.223819183587,
          39.9949984265717
        ],
        [
          -111.223883770659,
          39.9877610995345
        ],
        [
          -111.233301042446,
          39.9877740548914
        ],
        [
          -111.242718254944,
          39.9877862490165
        ]
      ]
    ]
  }
}