{
  "type": "Feature",
  "properties": {
    "parcel_id": "310520018",
    "owner_name_raw": "UNITED STATES OF AMERICA",
    "owner_class": "UNCLASSIFIED",
    "epsg": "EPSG:4326"
  },
  "geometry": {
    "type": "Polygon",
    "coordinates": [
      [
        [
          -111.30914039762,
          40.0331745662812
        ],
        [
          -111.309097862391,
          40.0404165811949
        ],
        [
          -111.309066679172,
          40.0457249590002
        ],
        [
          -111.29893090338,
          40.0457159709123
        ],
        [
          -111.28948907884,
          40.0457068047118
        ],
        [
          -111.280047259689,
          40.0456968717372
        ],
        [
          -111.280090022192,
          40.038463318647
        ],
        [
          -111.280132774813,
          40.0312297533806
        ],
        [
          -111.289574434961,
          40.031235389497
        ],
        [
          -111.29901609511,
          40.0312402593654
        ],
        [
          -111.309151737053,
          40.0312446326169
        ],
        [
          -111.30914039762,
          40.0331745662812
        ]
      ]
    ]
  }
}