{
  "type": "Feature",
  "properties": {
    "parcel_id": "320030068",
    "owner_name_raw": "UTAH DEPARTMENT OF TRANSPORTATION",
    "owner_class": "STATE",
    "epsg": "EPSG:4326"
  },
  "geometry": {
    "type": "Polygon",
    "coordinates": [
      [
        [
          -111.770488364036,
          39.9754656914849
        ],
        [
          -111.770527034712,
          39.9752986800641
        ],
        [
          -111.77074281723,
          39.9753015555038
        ],
        [
          -111.770634258523,
          39.9754658945619
        ],
        [
          -111.770488364036,
          39.9754656914849
        ]
      ]
    ]
  }
}