{
  "type": "Feature",
  "properties": {
    "parcel_id": "320060097",
    "owner_name_raw": "UTAH DEPARTMENT OF TRANSPORTATION",
    "owner_class": "STATE",
    "epsg": "EPSG:4326"
  },
  "geometry": {
    "type": "Polygon",
    "coordinates": [
      [
        [
          -111.803252068523,
          39.9804737159583
        ],
        [
          -111.803118093782,
          39.9808045129916
        ],
        [
          -111.802532378742,
          39.9804256741967
        ],
        [
          -111.802532298792,
          39.9804075603519
        ],
        [
          -111.799418246638,
          39.9785156569159
        ],
        [
          -111.803252068523,
          39.9804737159583
        ]
      ]
    ]
  }
}