{
  "type": "Feature",
  "properties": {
    "parcel_id": "320120006",
    "owner_name_raw": "UNITED STATES OF AMERICA",
    "owner_class": "UNCLASSIFIED",
    "epsg": "EPSG:4326"
  },
  "geometry": {
    "type": "Polygon",
    "coordinates": [
      [
        [
          -111.866747561986,
          39.9819291602646
        ],
        [
          -111.862038348027,
          39.9819439180907
        ],
        [
          -111.862028941768,
          39.9801561157358
        ],
        [
          -111.866738033556,
          39.9801413568352
        ],
        [
          -111.866747561986,
          39.9819291602646
        ]
      ]
    ]
  }
}