{
  "type": "Feature",
  "properties": {
    "parcel_id": "320180375",
    "owner_name_raw": "UTAH COUNTY",
    "owner_class": "UNCLASSIFIED",
    "epsg": "EPSG:4326"
  },
  "geometry": {
    "type": "Polygon",
    "coordinates": [
      [
        [
          -111.783108513392,
          39.9606649894978
        ],
        [
          -111.78510755236,
          39.960618094012
        ],
        [
          -111.785111029738,
          39.9607058560492
        ],
        [
          -111.783111988973,
          39.9607527549174
        ],
        [
          -111.783069132527,
          39.9607546459366
        ],
        [
          -111.783026471408,
          39.9607583051074
        ],
        [
          -111.782984129697,
          39.9607637217867
        ],
        [
          -111.782942230542,
          39.96077088022
        ],
        [
          -111.782900895808,
          39.9607797595864
        ],
        [
          -111.782860245714,
          39.9607903340601
        ],
        [
          -111.782820398491,
          39.9608025728844
        ],
        [
          -111.782781470034,
          39.9608164404623
        ],
        [
          -111.782686101291,
          39.9606684074385
        ],
        [
          -111.783108513392,
          39.9606649894978
        ]
      ]
    ]
  }
}