{
  "type": "Feature",
  "properties": {
    "parcel_id": "320130012",
    "owner_name_raw": "UNITED STATES OF AMERICA",
    "owner_class": "UNCLASSIFIED",
    "epsg": "EPSG:4326"
  },
  "geometry": {
    "type": "Polygon",
    "coordinates": [
      [
        [
          -111.876140967333,
          39.9671739750735
        ],
        [
          -111.871426748859,
          39.9671786718849
        ],
        [
          -111.871358145419,
          39.9635293745766
        ],
        [
          -111.876077702581,
          39.9635379011686
        ],
        [
          -111.876140967333,
          39.9671739750735
        ]
      ]
    ]
  }
}