{
  "type": "Feature",
  "properties": {
    "parcel_id": "320210100",
    "owner_name_raw": "STATE ROAD COMMISSION OF UTAH",
    "owner_class": "UNCLASSIFIED",
    "epsg": "EPSG:4326"
  },
  "geometry": {
    "type": "Polygon",
    "coordinates": [
      [
        [
          -111.807452770455,
          39.9459873786098
        ],
        [
          -111.806939691392,
          39.9465779575651
        ],
        [
          -111.80696489283,
          39.9465011734573
        ],
        [
          -111.8069935187,
          39.9464250980034
        ],
        [
          -111.807025535239,
          39.94634982094
        ],
        [
          -111.807060904681,
          39.9462754310619
        ],
        [
          -111.807099585306,
          39.9462020161178
        ],
        [
          -111.80714153149,
          39.9461296627067
        ],
        [
          -111.807186693754,
          39.9460584561757
        ],
        [
          -111.80723501883,
          39.9459884805194
        ],
        [
          -111.807235398817,
          39.9459879529802
        ],
        [
          -111.807452770455,
          39.9459873786098
        ]
      ]
    ]
  }
}