{
  "type": "Feature",
  "properties": {
    "parcel_id": "320320001",
    "owner_name_raw": "UTAH STATE DEPT OF NATURAL RESOURCES",
    "owner_class": "STATE",
    "epsg": "EPSG:4326"
  },
  "geometry": {
    "type": "Polygon",
    "coordinates": [
      [
        [
          -111.787515001389,
          39.9243121754016
        ],
        [
          -111.785436254905,
          39.9243313071633
        ],
        [
          -111.78535645127,
          39.9169505207438
        ],
        [
          -111.785276663805,
          39.9095696250839
        ],
        [
          -111.787279888024,
          39.9095706483379
        ],
        [
          -111.787304500066,
          39.9097394326682
        ],
        [
          -111.787275855487,
          39.9101361664374
        ],
        [
          -111.787239012882,
          39.9107038035157
        ],
        [
          -111.787121700093,
          39.9116360667287
        ],
        [
          -111.787139822705,
          39.9119218464952
        ],
        [
          -111.7871489433,
          39.9121857000233
        ],
        [
          -111.787189550744,
          39.9125205020162
        ],
        [
          -111.78723728632,
          39.9128549385664
        ],
        [
          -111.787385879346,
          39.9132258441777
        ],
        [
          -111.787610753713,
          39.9137214746513
        ],
        [
          -111.787712529241,
          39.9139778840131
        ],
        [
          -111.78800457693,
          39.9143401998331
        ],
        [
          -111.788131847545,
          39.9145131595261
        ],
        [
          -111.788329380787,
          39.9146519790935
        ],
        [
          -111.788551263764,
          39.9148562857463
        ],
        [
          -111.788720212615,
          39.9149790480357
        ],
        [
          -111.788904514572,
          39.9151453654966
        ],
        [
          -111.789028715643,
          39.9152250012031
        ],
        [
          -111.789111184579,
          39.9153387148593
        ],
        [
          -111.789110142533,
          39.9155150887823
        ],
        [
          -111.789043818119,
          39.9156374041085
        ],
        [
          -111.788802447989,
          39.9158850567329
        ],
        [
          -111.788404193383,
          39.9161303658823
        ],
        [
          -111.788033526937,
          39.9163642761664
        ],
        [
          -111.787725912342,
          39.9165469062313
        ],
        [
          -111.787499697689,
          39.9167996774979
        ],
        [
          -111.787303056474,
          39.9170901077223
        ],
        [
          -111.787161456832,
          39.9173299689098
        ],
        [
          -111.787032972594,
          39.9177235238644
        ],
        [
          -111.786887229024,
          39.918040270388
        ],
        [
          -111.786815979147,
          39.9182672740902
        ],
        [
          -111.786745621297,
          39.9184946132573
        ],
        [
          -111.786790319669,
          39.9187412131414
        ],
        [
          -111.786907232708,
          39.919206217197
        ],
        [
          -111.786970263899,
          39.9197880184752
        ],
        [
          -111.786888594463,
          39.9200816127938
        ],
        [
          -111.786669553755,
          39.9203505014362
        ],
        [
          -111.786453581693,
          39.9207127050029
        ],
        [
          -111.786354659214,
          39.9209298134769
        ],
        [
          -111.786263932964,
          39.9211901490062
        ],
        [
          -111.786270034321,
          39.9213716508055
        ],
        [
          -111.786471503083,
          39.9220220839912
        ],
        [
          -111.786550797373,
          39.922229136788
        ],
        [
          -111.78681945922,
          39.9229607338002
        ],
        [
          -111.787015798602,
          39.9234461474045
        ],
        [
          -111.787116584187,
          39.923674780389
        ],
        [
          -111.787515001389,
          39.9243121754016
        ]
      ]
    ]
  }
}