{
  "type": "Feature",
  "properties": {
    "parcel_id": "320380004",
    "owner_name_raw": "UTAH STATE DEPT OF NATURAL RESOURCES",
    "owner_class": "STATE",
    "epsg": "EPSG:4326"
  },
  "geometry": {
    "type": "Polygon",
    "coordinates": [
      [
        [
          -111.784959474068,
          39.9012825732348
        ],
        [
          -111.784956264388,
          39.9021868617719
        ],
        [
          -111.782599351882,
          39.9022028676007
        ],
        [
          -111.782602225592,
          39.9012980327843
        ],
        [
          -111.784959474068,
          39.9012825732348
        ]
      ]
    ]
  }
}