{
  "type": "Feature",
  "properties": {
    "parcel_id": "320490008",
    "owner_name_raw": "UTAH STATE DEPT OF NATURAL RESOURCES",
    "owner_class": "STATE",
    "epsg": "EPSG:4326"
  },
  "geometry": {
    "type": "Polygon",
    "coordinates": [
      [
        [
          -111.529388773041,
          39.951355867523
        ],
        [
          -111.529295329387,
          39.9439153557853
        ],
        [
          -111.53405048858,
          39.9441273548107
        ],
        [
          -111.534126933414,
          39.9513655869791
        ],
        [
          -111.529388773041,
          39.951355867523
        ]
      ]
    ]
  }
}