{
  "type": "Feature",
  "properties": {
    "parcel_id": "320860009",
    "owner_name_raw": "STATE OF UTAH DEPT OF NATURAL RESOURCES (ET AL)",
    "owner_class": "STATE",
    "epsg": "EPSG:4326"
  },
  "geometry": {
    "type": "Polygon",
    "coordinates": [
      [
        [
          -111.3117838197,
          39.9644231358905
        ],
        [
          -111.311772694066,
          39.9571526435814
        ],
        [
          -111.321230646959,
          39.9571946766218
        ],
        [
          -111.330731705511,
          39.9572863603827
        ],
        [
          -111.330699102954,
          39.9609375029438
        ],
        [
          -111.321227888232,
          39.9608504572896
        ],
        [
          -111.316503073231,
          39.9608192449026
        ],
        [
          -111.316504470112,
          39.964464760308
        ],
        [
          -111.321225123218,
          39.9645062304745
        ],
        [
          -111.321224273412,
          39.9656373740953
        ],
        [
          -111.320978179041,
          39.9654868839354
        ],
        [
          -111.319588384685,
          39.9649298819808
        ],
        [
          -111.318052776691,
          39.9647308954492
        ],
        [
          -111.316576937206,
          39.9649603158606
        ],
        [
          -111.315077744218,
          39.9652394933878
        ],
        [
          -111.313704452812,
          39.9654861789144
        ],
        [
          -111.312264430954,
          39.9655749984297
        ],
        [
          -111.311777057183,
          39.9655249826019
        ],
        [
          -111.3117838197,
          39.9644231358905
        ]
      ]
    ]
  }
}