{
  "type": "Feature",
  "properties": {
    "parcel_id": "320890001",
    "owner_name_raw": "UTAH STATE DEPT OF NATURAL RESOURCES",
    "owner_class": "STATE",
    "epsg": "EPSG:4326"
  },
  "geometry": {
    "type": "Polygon",
    "coordinates": [
      [
        [
          -111.368150483393,
          39.9536609058982
        ],
        [
          -111.368109966679,
          39.957284008883
        ],
        [
          -111.368109928051,
          39.9572840157688
        ],
        [
          -111.363437050945,
          39.9572759160049
        ],
        [
          -111.358764172941,
          39.9572676303235
        ],
        [
          -111.354091295835,
          39.9572591559702
        ],
        [
          -111.354148145717,
          39.9500421498847
        ],
        [
          -111.349467188265,
          39.9500432386445
        ],
        [
          -111.349491591898,
          39.9464396131878
        ],
        [
          -111.349515993735,
          39.9428359859215
        ],
        [
          -111.354204999193,
          39.9428251646705
        ],
        [
          -111.358894001059,
          39.9428141560844
        ],
        [
          -111.363583002924,
          39.9428029574084
        ],
        [
          -111.363546522341,
          39.9464212079741
        ],
        [
          -111.368231506042,
          39.9464146922863
        ],
        [
          -111.368190997413,
          39.9500378010431
        ],
        [
          -111.368150483393,
          39.9536609058982
        ]
      ]
    ]
  }
}