{
  "type": "Feature",
  "properties": {
    "parcel_id": "320990026",
    "owner_name_raw": "UTAH DEPARTMENT OF TRANSPORTATION",
    "owner_class": "STATE",
    "epsg": "EPSG:4326"
  },
  "geometry": {
    "type": "Polygon",
    "coordinates": [
      [
        [
          -111.221857522619,
          39.9514440436118
        ],
        [
          -111.222616669103,
          39.9517417234963
        ],
        [
          -111.222445719247,
          39.9517109990846
        ],
        [
          -111.222273828955,
          39.9516835305752
        ],
        [
          -111.222101103733,
          39.9516593348323
        ],
        [
          -111.221927649602,
          39.9516384267109
        ],
        [
          -111.221741362368,
          39.9516195057298
        ],
        [
          -111.221857522619,
          39.9514440436118
        ]
      ]
    ]
  }
}