{
  "type": "Feature",
  "properties": {
    "parcel_id": "320990007",
    "owner_name_raw": "UTAH DEPARTMENT OF TRANSPORTATION",
    "owner_class": "STATE",
    "epsg": "EPSG:4326"
  },
  "geometry": {
    "type": "Polygon",
    "coordinates": [
      [
        [
          -111.221444185299,
          39.9519193643764
        ],
        [
          -111.221097627839,
          39.9519192025475
        ],
        [
          -111.216410186347,
          39.9500931728288
        ],
        [
          -111.216893339833,
          39.9493585554216
        ],
        [
          -111.221856733898,
          39.9512920712489
        ],
        [
          -111.221444219435,
          39.9519193526697
        ],
        [
          -111.221444185299,
          39.9519193643764
        ]
      ]
    ]
  }
}