{
  "type": "Feature",
  "properties": {
    "parcel_id": "320980006",
    "owner_name_raw": "UNITED STATES OF AMERICA",
    "owner_class": "UNCLASSIFIED",
    "epsg": "EPSG:4326"
  },
  "geometry": {
    "type": "Polygon",
    "coordinates": [
      [
        [
          -111.289897116998,
          39.9737642140624
        ],
        [
          -111.280460429024,
          39.9737462182358
        ],
        [
          -111.28049456231,
          39.9664878261275
        ],
        [
          -111.289924653955,
          39.9665012061835
        ],
        [
          -111.294641947362,
          39.966507612554
        ],
        [
          -111.299359244362,
          39.966513825459
        ],
        [
          -111.304076540464,
          39.9665198483411
        ],
        [
          -111.306435188515,
          39.9665227881794
        ],
        [
          -111.308793839261,
          39.9665256798234
        ],
        [
          -111.311752752365,
          39.9665292413649
        ],
        [
          -111.311710944771,
          39.9716168601556
        ],
        [
          -111.311674696851,
          39.9738028319984
        ],
        [
          -111.299333832819,
          39.9737814498756
        ],
        [
          -111.289897116998,
          39.9737642140624
        ]
      ]
    ]
  }
}