{
  "type": "Feature",
  "properties": {
    "parcel_id": "320950001",
    "owner_name_raw": "UNITED STATES OF AMERICA",
    "owner_class": "UNCLASSIFIED",
    "epsg": "EPSG:4326"
  },
  "geometry": {
    "type": "Polygon",
    "coordinates": [
      [
        [
          -111.324321040182,
          39.8971955443197
        ],
        [
          -111.333517220408,
          39.8971486983734
        ],
        [
          -111.332390717771,
          39.9050737177584
        ],
        [
          -111.331263957316,
          39.9129987038744
        ],
        [
          -111.321721911333,
          39.9138732203987
        ],
        [
          -111.312179623703,
          39.9147469554462
        ],
        [
          -111.312287802423,
          39.9086279954789
        ],
        [
          -111.312320230706,
          39.9067935710121
        ],
        [
          -111.313910059214,
          39.9013966091246
        ],
        [
          -111.315124851871,
          39.8972416748609
        ],
        [
          -111.324321040182,
          39.8971955443197
        ]
      ]
    ]
  }
}