{
  "type": "Feature",
  "properties": {
    "parcel_id": "321080001",
    "owner_name_raw": "UNITED STATES OF AMERICA",
    "owner_class": "UNCLASSIFIED",
    "epsg": "EPSG:4326"
  },
  "geometry": {
    "type": "Polygon",
    "coordinates": [
      [
        [
          -111.205346948533,
          39.9265757148436
        ],
        [
          -111.210120246508,
          39.9266001070151
        ],
        [
          -111.210137714249,
          39.9229622425464
        ],
        [
          -111.214910274707,
          39.9229851341489
        ],
        [
          -111.214943668679,
          39.9157239416254
        ],
        [
          -111.224485835037,
          39.9157811311932
        ],
        [
          -111.224430722496,
          39.9230302235841
        ],
        [
          -111.224427752666,
          39.9266720634571
        ],
        [
          -111.224424188151,
          39.926672045546
        ],
        [
          -111.219660611744,
          39.9266482906217
        ],
        [
          -111.219650766208,
          39.9302887752553
        ],
        [
          -111.214876719936,
          39.9302634723584
        ],
        [
          -111.205328754055,
          39.9302122789456
        ],
        [
          -111.205346948533,
          39.9265757148436
        ]
      ]
    ]
  }
}