{
  "type": "Feature",
  "properties": {
    "parcel_id": "321110002",
    "owner_name_raw": "UTAH STATE DEPT OF NATURAL RESOURCES",
    "owner_class": "STATE",
    "epsg": "EPSG:4326"
  },
  "geometry": {
    "type": "Polygon",
    "coordinates": [
      [
        [
          -111.177025897318,
          39.9336554030485
        ],
        [
          -111.172337535053,
          39.9336493765831
        ],
        [
          -111.172342967165,
          39.9309423468331
        ],
        [
          -111.177031868419,
          39.9301426263047
        ],
        [
          -111.177025897318,
          39.9336554030485
        ]
      ]
    ]
  }
}