{
  "type": "Feature",
  "properties": {
    "parcel_id": "321220023",
    "owner_name_raw": "UNITED STATES OF AMERICA",
    "owner_class": "UNCLASSIFIED",
    "epsg": "EPSG:4326"
  },
  "geometry": {
    "type": "Polygon",
    "coordinates": [
      [
        [
          -111.464092988375,
          39.9331312418523
        ],
        [
          -111.464089245994,
          39.9403934149512
        ],
        [
          -111.45468157001,
          39.940367236256
        ],
        [
          -111.445273898519,
          39.940340295793
        ],
        [
          -111.445280212777,
          39.9330867955425
        ],
        [
          -111.445286523442,
          39.9258332863648
        ],
        [
          -111.454691641023,
          39.9258515531368
        ],
        [
          -111.464096730756,
          39.9258690586739
        ],
        [
          -111.464092988375,
          39.9331312418523
        ]
      ]
    ]
  }
}