{
  "type": "Feature",
  "properties": {
    "parcel_id": "321240030",
    "owner_name_raw": "UNITED STATES OF AMERICA",
    "owner_class": "UNCLASSIFIED",
    "epsg": "EPSG:4326"
  },
  "geometry": {
    "type": "Polygon",
    "coordinates": [
      [
        [
          -111.40714430621,
          39.9189893774664
        ],
        [
          -111.407261552524,
          39.9116898296758
        ],
        [
          -111.416775039268,
          39.9115224716414
        ],
        [
          -111.426145777425,
          39.9113568612975
        ],
        [
          -111.425965577175,
          39.9185589685504
        ],
        [
          -111.425963856003,
          39.9186278172377
        ],
        [
          -111.425784162404,
          39.9258081533563
        ],
        [
          -111.425781896853,
          39.9258987349271
        ],
        [
          -111.416511202272,
          39.9260919829724
        ],
        [
          -111.407027037437,
          39.9262889153541
        ],
        [
          -111.40714430621,
          39.9189893774664
        ]
      ]
    ]
  }
}