{
  "type": "Feature",
  "properties": {
    "parcel_id": "321250008",
    "owner_name_raw": "UNITED STATES OF AMERICA",
    "owner_class": "UNCLASSIFIED",
    "epsg": "EPSG:4326"
  },
  "geometry": {
    "type": "Polygon",
    "coordinates": [
      [
        [
          -111.261591071241,
          39.9736329416926
        ],
        [
          -111.261622959637,
          39.966572338549
        ],
        [
          -111.261623718714,
          39.9664042623378
        ],
        [
          -111.261655192088,
          39.9594339991924
        ],
        [
          -111.261885300938,
          39.9594350217011
        ],
        [
          -111.271128655293,
          39.9594411746558
        ],
        [
          -111.27137064526,
          39.9594412442002
        ],
        [
          -111.280526909745,
          39.9594434530942
        ],
        [
          -111.280493793352,
          39.9664877318048
        ],
        [
          -111.280459661863,
          39.9737461308073
        ],
        [
          -111.271024991505,
          39.9737739255147
        ],
        [
          -111.261590313961,
          39.9738009553835
        ],
        [
          -111.261591071241,
          39.9736329416926
        ]
      ]
    ]
  }
}