{
  "type": "Feature",
  "properties": {
    "parcel_id": "321240031",
    "owner_name_raw": "UNITED STATES OF AMERICA",
    "owner_class": "UNCLASSIFIED",
    "epsg": "EPSG:4326"
  },
  "geometry": {
    "type": "Polygon",
    "coordinates": [
      [
        [
          -111.407503778749,
          39.904317190516
        ],
        [
          -111.407745157862,
          39.8969444795018
        ],
        [
          -111.407745209964,
          39.8969445484205
        ],
        [
          -111.41023244556,
          39.8969390852357
        ],
        [
          -111.415998390009,
          39.8969262181139
        ],
        [
          -111.417050590295,
          39.8969238390399
        ],
        [
          -111.425395941081,
          39.8968278689775
        ],
        [
          -111.426510303886,
          39.8968150080375
        ],
        [
          -111.426329048116,
          39.9040624133395
        ],
        [
          -111.426328459719,
          39.9040859576496
        ],
        [
          -111.426147709701,
          39.9113116201661
        ],
        [
          -111.426146576925,
          39.9113569240004
        ],
        [
          -111.41677583787,
          39.911522534344
        ],
        [
          -111.407262350228,
          39.9116898930673
        ],
        [
          -111.407503778749,
          39.904317190516
        ]
      ]
    ]
  }
}