{
  "type": "Feature",
  "properties": {
    "parcel_id": "321250028",
    "owner_name_raw": "UNITED STATES OF AMERICA",
    "owner_class": "UNCLASSIFIED",
    "epsg": "EPSG:4326"
  },
  "geometry": {
    "type": "Polygon",
    "coordinates": [
      [
        [
          -111.242935556513,
          39.9231703927104
        ],
        [
          -111.242977292241,
          39.915884633
        ],
        [
          -111.252423864378,
          39.9159104434894
        ],
        [
          -111.261870442803,
          39.9159354836717
        ],
        [
          -111.261819732905,
          39.9231636267963
        ],
        [
          -111.261818943286,
          39.9232760975447
        ],
        [
          -111.261769012228,
          39.930391757095
        ],
        [
          -111.261769804542,
          39.9306129707218
        ],
        [
          -111.252552599246,
          39.9305366628301
        ],
        [
          -111.252332543443,
          39.9305348311807
        ],
        [
          -111.24323474491,
          39.9304587780764
        ],
        [
          -111.242893730954,
          39.9304561818016
        ],
        [
          -111.242893811802,
          39.9304561418483
        ],
        [
          -111.242935556513,
          39.9231703927104
        ]
      ]
    ]
  }
}