{
  "type": "Feature",
  "properties": {
    "parcel_id": "321230020",
    "owner_name_raw": "USA",
    "owner_class": "UNCLASSIFIED",
    "epsg": "EPSG:4326"
  },
  "geometry": {
    "type": "Polygon",
    "coordinates": [
      [
        [
          -111.729256792931,
          39.9316838926103
        ],
        [
          -111.729266096783,
          39.9243799374031
        ],
        [
          -111.738689719659,
          39.9242621032206
        ],
        [
          -111.748122018464,
          39.9242531494293
        ],
        [
          -111.74815181648,
          39.9315868780555
        ],
        [
          -111.748181619886,
          39.9389205958709
        ],
        [
          -111.738714567059,
          39.9389545994819
        ],
        [
          -111.729247495368,
          39.9389878330379
        ],
        [
          -111.729256792931,
          39.9316838926103
        ]
      ]
    ]
  }
}