{
  "type": "Feature",
  "properties": {
    "parcel_id": "321260008",
    "owner_name_raw": "UNITED STATES OF AMERICA",
    "owner_class": "UNCLASSIFIED",
    "epsg": "EPSG:4326"
  },
  "geometry": {
    "type": "Polygon",
    "coordinates": [
      [
        [
          -111.148870270862,
          39.9651046278836
        ],
        [
          -111.14890272879,
          39.9578660015698
        ],
        [
          -111.158332210478,
          39.9579127144052
        ],
        [
          -111.167608456647,
          39.9579579219884
        ],
        [
          -111.167623831313,
          39.9589509436947
        ],
        [
          -111.167615493151,
          39.9651788145123
        ],
        [
          -111.167614170831,
          39.9661665263674
        ],
        [
          -111.167584553376,
          39.9723961349742
        ],
        [
          -111.158273701407,
          39.9723702838267
        ],
        [
          -111.148837825511,
          39.9723433249886
        ],
        [
          -111.148837807544,
          39.9723432430656
        ],
        [
          -111.148870270862,
          39.9651046278836
        ]
      ]
    ]
  }
}