{
  "type": "Feature",
  "properties": {
    "parcel_id": "321240001",
    "owner_name_raw": "UNITED STATES OF AMERICA",
    "owner_class": "UNCLASSIFIED",
    "epsg": "EPSG:4326"
  },
  "geometry": {
    "type": "Polygon",
    "coordinates": [
      [
        [
          -111.311555905435,
          39.9810250810867
        ],
        [
          -111.311592115626,
          39.9788417495213
        ],
        [
          -111.311675677812,
          39.9738028595349
        ],
        [
          -111.31171192124,
          39.9716168904467
        ],
        [
          -111.321029477336,
          39.9715244865207
        ],
        [
          -111.33034700738,
          39.9714313362038
        ],
        [
          -111.330300437817,
          39.9786673987501
        ],
        [
          -111.33027691633,
          39.9823216113508
        ],
        [
          -111.326621296842,
          39.9823907813524
        ],
        [
          -111.32090576405,
          39.9824272241202
        ],
        [
          -111.317277271886,
          39.9824502149097
        ],
        [
          -111.31153090532,
          39.9825287466965
        ],
        [
          -111.311530965508,
          39.9825287260468
        ],
        [
          -111.311555905435,
          39.9810250810867
        ]
      ]
    ]
  }
}