{
  "type": "Feature",
  "properties": {
    "parcel_id": "321260006",
    "owner_name_raw": "UNITED STATES OF AMERICA",
    "owner_class": "UNCLASSIFIED",
    "epsg": "EPSG:4326"
  },
  "geometry": {
    "type": "Polygon",
    "coordinates": [
      [
        [
          -111.167604789724,
          39.9814242988964
        ],
        [
          -111.167615932427,
          39.9805214919847
        ],
        [
          -111.167705069558,
          39.973299035466
        ],
        [
          -111.177046757097,
          39.9733257798291
        ],
        [
          -111.186337085256,
          39.9733516340573
        ],
        [
          -111.186232356966,
          39.980470188184
        ],
        [
          -111.186213599244,
          39.987701317513
        ],
        [
          -111.176870761861,
          39.9876787593498
        ],
        [
          -111.167527929869,
          39.9876554530256
        ],
        [
          -111.167527871478,
          39.9876554578435
        ],
        [
          -111.167604789724,
          39.9814242988964
        ]
      ]
    ]
  }
}