{
  "type": "Feature",
  "properties": {
    "parcel_id": "321240024",
    "owner_name_raw": "UNITED STATES OF AMERICA",
    "owner_class": "UNCLASSIFIED",
    "epsg": "EPSG:4326"
  },
  "geometry": {
    "type": "Polygon",
    "coordinates": [
      [
        [
          -111.312030820471,
          39.9376459741437
        ],
        [
          -111.312043175001,
          39.9354380914154
        ],
        [
          -111.312071253642,
          39.9304193779253
        ],
        [
          -111.312083573138,
          39.9282171753474
        ],
        [
          -111.321467366511,
          39.9284076696332
        ],
        [
          -111.330851209291,
          39.9285974070113
        ],
        [
          -111.330829985694,
          39.9357814303158
        ],
        [
          -111.330808757606,
          39.9429654427175
        ],
        [
          -111.321405757354,
          39.9428104280137
        ],
        [
          -111.312002793932,
          39.9426546588027
        ],
        [
          -111.312030820471,
          39.9376459741437
        ]
      ]
    ]
  }
}