{
  "type": "Feature",
  "properties": {
    "parcel_id": "330040008",
    "owner_name_raw": "UTAH STATE DEPT OF NATURAL RESOURCES",
    "owner_class": "STATE",
    "epsg": "EPSG:4326"
  },
  "geometry": {
    "type": "Polygon",
    "coordinates": [
      [
        [
          -111.537780830832,
          39.8485028940037
        ],
        [
          -111.533084399899,
          39.8484962896869
        ],
        [
          -111.533073994713,
          39.8448381737157
        ],
        [
          -111.537776591682,
          39.8448383909745
        ],
        [
          -111.537788422495,
          39.848496997982
        ],
        [
          -111.537780830832,
          39.8485028940037
        ]
      ]
    ]
  }
}