{
  "type": "Feature",
  "properties": {
    "parcel_id": "330030018",
    "owner_name_raw": "UTAH STATE DEPT OF NATURAL RESOURCES",
    "owner_class": "STATE",
    "epsg": "EPSG:4326"
  },
  "geometry": {
    "type": "Polygon",
    "coordinates": [
      [
        [
          -111.537817891728,
          39.8594536736248
        ],
        [
          -111.537801612458,
          39.8558157600187
        ],
        [
          -111.542501192884,
          39.8558171978354
        ],
        [
          -111.542513980402,
          39.8594538198123
        ],
        [
          -111.537817891728,
          39.8594536736248
        ]
      ]
    ]
  }
}