{
  "type": "Feature",
  "properties": {
    "parcel_id": "330140002",
    "owner_name_raw": "UNITED STATES OF AMERICA",
    "owner_class": "UNCLASSIFIED",
    "epsg": "EPSG:4326"
  },
  "geometry": {
    "type": "Polygon",
    "coordinates": [
      [
        [
          -111.219408902903,
          39.8133894968949
        ],
        [
          -111.219380366121,
          39.8205805858629
        ],
        [
          -111.209718832527,
          39.8205671745311
        ],
        [
          -111.209907894656,
          39.8130578100472
        ],
        [
          -111.219408902903,
          39.8133894968949
        ]
      ]
    ]
  }
}