{
  "type": "Feature",
  "properties": {
    "parcel_id": "330310002",
    "owner_name_raw": "UTAH STATE DEPT OF NATURAL RESOURCES",
    "owner_class": "STATE",
    "epsg": "EPSG:4326"
  },
  "geometry": {
    "type": "Polygon",
    "coordinates": [
      [
        [
          -111.163199833355,
          39.8715301301431
        ],
        [
          -111.163297851231,
          39.8569640570337
        ],
        [
          -111.172769153987,
          39.8570011996555
        ],
        [
          -111.172731681663,
          39.8642771999692
        ],
        [
          -111.172694200356,
          39.8715531926775
        ],
        [
          -111.172694158136,
          39.871553210603
        ],
        [
          -111.163199833355,
          39.8715301301431
        ]
      ]
    ]
  }
}