{
  "type": "Feature",
  "properties": {
    "parcel_id": "330360019",
    "owner_name_raw": "UTAH POWER & LIGHT COMPANY",
    "owner_class": "UNCLASSIFIED",
    "epsg": "EPSG:4326"
  },
  "geometry": {
    "type": "Polygon",
    "coordinates": [
      [
        [
          -111.134982524979,
          39.8412703307276
        ],
        [
          -111.134965734568,
          39.8420374328008
        ],
        [
          -111.134949337619,
          39.8427159378805
        ],
        [
          -111.12896623623,
          39.8426969599035
        ],
        [
          -111.129187688914,
          39.8412519544998
        ],
        [
          -111.134982524979,
          39.8412703307276
        ]
      ]
    ]
  }
}