{
  "type": "Feature",
  "properties": {
    "parcel_id": "330330001",
    "owner_name_raw": "UTAH STATE DEPT OF NATURAL RESOURCES",
    "owner_class": "STATE",
    "epsg": "EPSG:4326"
  },
  "geometry": {
    "type": "Polygon",
    "coordinates": [
      [
        [
          -111.186946012763,
          39.8572221523963
        ],
        [
          -111.182220540195,
          39.8571487203907
        ],
        [
          -111.182233188475,
          39.8535049234857
        ],
        [
          -111.182245836754,
          39.8498611241678
        ],
        [
          -111.186965218744,
          39.849928770831
        ],
        [
          -111.186974827124,
          39.8462821097971
        ],
        [
          -111.186984434606,
          39.8426354454259
        ],
        [
          -111.191085020198,
          39.8426891204076
        ],
        [
          -111.191072159916,
          39.8463382200019
        ],
        [
          -111.191059295143,
          39.849987319448
        ],
        [
          -111.191046432166,
          39.8536364145728
        ],
        [
          -111.191033562003,
          39.8572855122373
        ],
        [
          -111.186946012763,
          39.8572221523963
        ]
      ]
    ]
  }
}