{
  "type": "Feature",
  "properties": {
    "parcel_id": "330470503",
    "owner_name_raw": "State",
    "owner_class": "STATE",
    "epsg": "EPSG:4326"
  },
  "geometry": {
    "type": "Polygon",
    "coordinates": [
      [
        [
          -111.135582831354,
          39.8203149295084
        ],
        [
          -111.135301673043,
          39.8203156670723
        ],
        [
          -111.135318426623,
          39.8203138842237
        ],
        [
          -111.135312069246,
          39.8186671512163
        ],
        [
          -111.135593239235,
          39.8186682075656
        ],
        [
          -111.135582831354,
          39.8203149295084
        ]
      ]
    ]
  }
}