{
  "type": "Feature",
  "properties": {
    "parcel_id": "330580041",
    "owner_name_raw": "UTAH DEPARTMENT OF TRANSPORTATION",
    "owner_class": "STATE",
    "epsg": "EPSG:4326"
  },
  "geometry": {
    "type": "Polygon",
    "coordinates": [
      [
        [
          -110.987522655346,
          39.839499152775
        ],
        [
          -110.987211583136,
          39.8393656556715
        ],
        [
          -110.987280851329,
          39.8392697333519
        ],
        [
          -110.987591851674,
          39.8394033272091
        ],
        [
          -110.987522655346,
          39.839499152775
        ]
      ]
    ]
  }
}