{
  "type": "Feature",
  "properties": {
    "parcel_id": "330570018",
    "owner_name_raw": "UTAH STATE DEPT OF TRANSPORTATION",
    "owner_class": "UNCLASSIFIED",
    "epsg": "EPSG:4326"
  },
  "geometry": {
    "type": "Polygon",
    "coordinates": [
      [
        [
          -111.012365855582,
          39.8433232903822
        ],
        [
          -111.017789650604,
          39.843327112153
        ],
        [
          -111.01783248048,
          39.850427841103
        ],
        [
          -111.017183325517,
          39.850202158203
        ],
        [
          -111.015998151213,
          39.8496128205422
        ],
        [
          -111.012338944751,
          39.847128158952
        ],
        [
          -111.012365855582,
          39.8433232903822
        ]
      ]
    ]
  }
}