{
  "type": "Feature",
  "properties": {
    "parcel_id": "330560037",
    "owner_name_raw": "UTAH DEPARTMENT OF TRANSPORTATION",
    "owner_class": "STATE",
    "epsg": "EPSG:4326"
  },
  "geometry": {
    "type": "Polygon",
    "coordinates": [
      [
        [
          -111.00117790825,
          39.844761101269
        ],
        [
          -111.000988248093,
          39.8447002211445
        ],
        [
          -111.00079749667,
          39.8446413851032
        ],
        [
          -111.000605691352,
          39.8445846046774
        ],
        [
          -111.000412869717,
          39.8445298909965
        ],
        [
          -110.999286933916,
          39.8442153290904
        ],
        [
          -111.00108413222,
          39.8444538500166
        ],
        [
          -111.001184050032,
          39.8444829421675
        ],
        [
          -111.00117790825,
          39.844761101269
        ]
      ]
    ]
  }
}