{
  "type": "Feature",
  "properties": {
    "parcel_id": "330540001",
    "owner_name_raw": "INDIAN HEAD RANCH LLC",
    "owner_class": "UNCLASSIFIED",
    "epsg": "EPSG:4326"
  },
  "geometry": {
    "type": "Polygon",
    "coordinates": [
      [
        [
          -110.998420778319,
          39.8651996273526
        ],
        [
          -110.998578698553,
          39.8578830741486
        ],
        [
          -111.00802117527,
          39.8579566529384
        ],
        [
          -111.008216409724,
          39.8653591892077
        ],
        [
          -110.998420778319,
          39.8651996273526
        ]
      ]
    ]
  }
}