{
  "type": "Feature",
  "properties": {
    "parcel_id": "330670006",
    "owner_name_raw": "UNITED STATES OF AMERICA",
    "owner_class": "UNCLASSIFIED",
    "epsg": "EPSG:4326"
  },
  "geometry": {
    "type": "Polygon",
    "coordinates": [
      [
        [
          -110.895224588522,
          39.8598001978588
        ],
        [
          -110.895243123461,
          39.8561753097969
        ],
        [
          -110.904638347897,
          39.8562347709383
        ],
        [
          -110.904623033418,
          39.8598575361531
        ],
        [
          -110.895224588522,
          39.8598001978588
        ]
      ]
    ]
  }
}