{
  "type": "Feature",
  "properties": {
    "parcel_id": "330630005",
    "owner_name_raw": "UNITED STATES OF AMERICA",
    "owner_class": "UNCLASSIFIED",
    "epsg": "EPSG:4326"
  },
  "geometry": {
    "type": "Polygon",
    "coordinates": [
      [
        [
          -110.928062104881,
          39.8853290784081
        ],
        [
          -110.923353506268,
          39.8853056806792
        ],
        [
          -110.923366791452,
          39.8816832858955
        ],
        [
          -110.928075969479,
          39.8817057887184
        ],
        [
          -110.932785149303,
          39.8817281012761
        ],
        [
          -110.932770665765,
          39.8853522803669
        ],
        [
          -110.928062104881,
          39.8853290784081
        ]
      ]
    ]
  }
}