{
  "type": "Feature",
  "properties": {
    "parcel_id": "330750014",
    "owner_name_raw": "UNITED STATES OF AMERICA",
    "owner_class": "UNCLASSIFIED",
    "epsg": "EPSG:4326"
  },
  "geometry": {
    "type": "Polygon",
    "coordinates": [
      [
        [
          -110.933278293851,
          39.8206407360473
        ],
        [
          -110.914355290476,
          39.8204416703358
        ],
        [
          -110.914357850674,
          39.8131247125406
        ],
        [
          -110.933293187918,
          39.8133488501856
        ],
        [
          -110.933278293851,
          39.8206407360473
        ]
      ]
    ]
  }
}