{
  "type": "Feature",
  "properties": {
    "parcel_id": "330720005",
    "owner_name_raw": "UNITED STATES OF AMERICA",
    "owner_class": "UNCLASSIFIED",
    "epsg": "EPSG:4326"
  },
  "geometry": {
    "type": "Polygon",
    "coordinates": [
      [
        [
          -110.862407358817,
          39.8414456654344
        ],
        [
          -110.862431428277,
          39.8378226975394
        ],
        [
          -110.857733275274,
          39.8377827716186
        ],
        [
          -110.857758987752,
          39.8341615647342
        ],
        [
          -110.862455494143,
          39.8341997392442
        ],
        [
          -110.867152005026,
          39.8342377254129
        ],
        [
          -110.867129590263,
          39.8378624302984
        ],
        [
          -110.867107165619,
          39.8414871349426
        ],
        [
          -110.862407358817,
          39.8414456654344
        ]
      ]
    ]
  }
}