{
  "type": "Feature",
  "properties": {
    "parcel_id": "330990031",
    "owner_name_raw": "UNITED STATES OF AMERICA",
    "owner_class": "UNCLASSIFIED",
    "epsg": "EPSG:4326"
  },
  "geometry": {
    "type": "Polygon",
    "coordinates": [
      [
        [
          -111.622331113383,
          39.8132633164749
        ],
        [
          -111.631732989843,
          39.8131397475829
        ],
        [
          -111.631732942232,
          39.8131397834644
        ],
        [
          -111.642023252508,
          39.8130036633901
        ],
        [
          -111.642416879892,
          39.8268774103362
        ],
        [
          -111.642443624535,
          39.8278198826132
        ],
        [
          -111.63186736164,
          39.8277963714459
        ],
        [
          -111.622453666046,
          39.8277746332674
        ],
        [
          -111.622392198823,
          39.8204971455063
        ],
        [
          -111.622331113383,
          39.8132633164749
        ]
      ]
    ]
  }
}