{
  "type": "Feature",
  "properties": {
    "parcel_id": "330990016",
    "owner_name_raw": "UNITED STATES OF AMERICA",
    "owner_class": "UNCLASSIFIED",
    "epsg": "EPSG:4326"
  },
  "geometry": {
    "type": "Polygon",
    "coordinates": [
      [
        [
          -111.585072559913,
          39.8639897576715
        ],
        [
          -111.585023122928,
          39.8567273290655
        ],
        [
          -111.594426360335,
          39.8568037508965
        ],
        [
          -111.603829665116,
          39.8568794134042
        ],
        [
          -111.603870072236,
          39.8641580667893
        ],
        [
          -111.603910488339,
          39.8714367106318
        ],
        [
          -111.594516238576,
          39.871344823628
        ],
        [
          -111.585122011271,
          39.8712521746642
        ],
        [
          -111.585072559913,
          39.8639897576715
        ]
      ]
    ]
  }
}