{
  "type": "Feature",
  "properties": {
    "parcel_id": "330980010",
    "owner_name_raw": "UNITED STATES OF AMERICA",
    "owner_class": "UNCLASSIFIED",
    "epsg": "EPSG:4326"
  },
  "geometry": {
    "type": "Polygon",
    "coordinates": [
      [
        [
          -111.699078615902,
          39.8775624446594
        ],
        [
          -111.699144109374,
          39.884803908312
        ],
        [
          -111.689775929619,
          39.8847340475001
        ],
        [
          -111.680407774118,
          39.8846634311329
        ],
        [
          -111.680333766414,
          39.8774351343391
        ],
        [
          -111.680259776675,
          39.8702068284903
        ],
        [
          -111.689636485934,
          39.8702642594381
        ],
        [
          -111.699013213159,
          39.8703209326273
        ],
        [
          -111.699013138599,
          39.8703209698579
        ],
        [
          -111.699078615902,
          39.8775624446594
        ]
      ]
    ]
  }
}