{
  "type": "Feature",
  "properties": {
    "parcel_id": "330990030",
    "owner_name_raw": "UNITED STATES OF AMERICA",
    "owner_class": "UNCLASSIFIED",
    "epsg": "EPSG:4326"
  },
  "geometry": {
    "type": "Polygon",
    "coordinates": [
      [
        [
          -111.62249544669,
          39.8350522552337
        ],
        [
          -111.622453101006,
          39.827774717433
        ],
        [
          -111.631866799294,
          39.8277964480228
        ],
        [
          -111.642443063986,
          39.8278199598799
        ],
        [
          -111.642613191426,
          39.8338143605906
        ],
        [
          -111.64263067893,
          39.8410578843496
        ],
        [
          -111.642646945623,
          39.8423510631954
        ],
        [
          -111.631944477515,
          39.8423401688206
        ],
        [
          -111.622537805849,
          39.8423297772615
        ],
        [
          -111.62249544669,
          39.8350522552337
        ]
      ]
    ]
  }
}