{
  "type": "Feature",
  "properties": {
    "parcel_id": "330980008",
    "owner_name_raw": "UNITED STATES OF AMERICA",
    "owner_class": "UNCLASSIFIED",
    "epsg": "EPSG:4326"
  },
  "geometry": {
    "type": "Polygon",
    "coordinates": [
      [
        [
          -111.7365699561,
          39.8777863258537
        ],
        [
          -111.736618356429,
          39.88505174822
        ],
        [
          -111.727229552253,
          39.8849847627609
        ],
        [
          -111.717840766044,
          39.8849170196871
        ],
        [
          -111.717787950495,
          39.8776648177778
        ],
        [
          -111.717735145726,
          39.8704126052037
        ],
        [
          -111.727128368714,
          39.8704671395868
        ],
        [
          -111.73652156655,
          39.870520905187
        ],
        [
          -111.7365699561,
          39.8777863258537
        ]
      ]
    ]
  }
}