{
  "type": "Feature",
  "properties": {
    "parcel_id": "331010005",
    "owner_name_raw": "UNITED STATES OF AMERICA",
    "owner_class": "UNCLASSIFIED",
    "epsg": "EPSG:4326"
  },
  "geometry": {
    "type": "Polygon",
    "coordinates": [
      [
        [
          -111.389133250053,
          39.8969835556993
        ],
        [
          -111.382042647191,
          39.8969976857444
        ],
        [
          -111.382040452607,
          39.8921507129673
        ],
        [
          -111.382037168366,
          39.884897500554
        ],
        [
          -111.391431293263,
          39.8848668070386
        ],
        [
          -111.400825413669,
          39.8848353525127
        ],
        [
          -111.400832131271,
          39.8920821698793
        ],
        [
          -111.400836652491,
          39.8969592639378
        ],
        [
          -111.398438676197,
          39.8969643363522
        ],
        [
          -111.391439652087,
          39.8969788616497
        ],
        [
          -111.389133250053,
          39.8969835556993
        ]
      ]
    ]
  }
}