{
  "type": "Feature",
  "properties": {
    "parcel_id": "331010026",
    "owner_name_raw": "UNITED STATES OF AMERICA",
    "owner_class": "UNCLASSIFIED",
    "epsg": "EPSG:4326"
  },
  "geometry": {
    "type": "Polygon",
    "coordinates": [
      [
        [
          -111.335117880802,
          39.841358409915
        ],
        [
          -111.325735655888,
          39.8413529381632
        ],
        [
          -111.325735590311,
          39.8413529581658
        ],
        [
          -111.325736951258,
          39.8340998984386
        ],
        [
          -111.325738314003,
          39.8268468295304
        ],
        [
          -111.335117960752,
          39.8268525114751
        ],
        [
          -111.344497609299,
          39.8268574345389
        ],
        [
          -111.344498859754,
          39.8341102829652
        ],
        [
          -111.344500108412,
          39.8413631243259
        ],
        [
          -111.335117880802,
          39.841358409915
        ]
      ]
    ]
  }
}