{
  "type": "Feature",
  "properties": {
    "parcel_id": "331020033",
    "owner_name_raw": "UNITED STATES OF AMERICA",
    "owner_class": "UNCLASSIFIED",
    "epsg": "EPSG:4326"
  },
  "geometry": {
    "type": "Polygon",
    "coordinates": [
      [
        [
          -111.266432076138,
          39.8276807423321
        ],
        [
          -111.247611096675,
          39.8277430404587
        ],
        [
          -111.247628745426,
          39.813275652099
        ],
        [
          -111.266441784231,
          39.8131959083256
        ],
        [
          -111.266432076138,
          39.8276807423321
        ]
      ]
    ]
  }
}