{
  "type": "Feature",
  "properties": {
    "parcel_id": "340080058",
    "owner_name_raw": "UTAH DEPARTMENT OF TRANSPORTATION",
    "owner_class": "STATE",
    "epsg": "EPSG:4326"
  },
  "geometry": {
    "type": "Polygon",
    "coordinates": [
      [
        [
          -111.773541274156,
          40.4310200338644
        ],
        [
          -111.773535645312,
          40.430759368594
        ],
        [
          -111.773774165088,
          40.4307580064866
        ],
        [
          -111.773773155382,
          40.4310187086868
        ],
        [
          -111.773541274156,
          40.4310200338644
        ]
      ]
    ]
  }
}