{
  "type": "Feature",
  "properties": {
    "parcel_id": "340080071",
    "owner_name_raw": "CENTRAL UTAH WATER CONSERVANCY DISTRICT",
    "owner_class": "SPECIAL_DISTRICT",
    "epsg": "EPSG:4326"
  },
  "geometry": {
    "type": "Polygon",
    "coordinates": [
      [
        [
          -111.772884554479,
          40.4315452178981
        ],
        [
          -111.772877455094,
          40.4312159581517
        ],
        [
          -111.772900221098,
          40.4312158275489
        ],
        [
          -111.77291504969,
          40.4312199492014
        ],
        [
          -111.772927926202,
          40.4312269007202
        ],
        [
          -111.772937939588,
          40.4312361902676
        ],
        [
          -111.772944381379,
          40.4312471605848
        ],
        [
          -111.772949718519,
          40.4312589915679
        ],
        [
          -111.772956506817,
          40.4312703835387
        ],
        [
          -111.772964684979,
          40.4312812336363
        ],
        [
          -111.772974179163,
          40.4312914438925
        ],
        [
          -111.772984903643,
          40.4313009221163
        ],
        [
          -111.772996761585,
          40.4313095827265
        ],
        [
          -111.773009645919,
          40.4313173475245
        ],
        [
          -111.773023440311,
          40.4313241464001
        ],
        [
          -111.7730281915,
          40.4315443980449
        ],
        [
          -111.772884554479,
          40.4315452178981
        ]
      ]
    ]
  }
}