{
  "type": "Feature",
  "properties": {
    "parcel_id": "340820002",
    "owner_name_raw": "UTAH DEPARTMENT OF TRANSPORTATION",
    "owner_class": "STATE",
    "epsg": "EPSG:4326"
  },
  "geometry": {
    "type": "Polygon",
    "coordinates": [
      [
        [
          -111.773863262693,
          40.4282886908848
        ],
        [
          -111.773482449776,
          40.4282934844204
        ],
        [
          -111.773475641445,
          40.427977937751
        ],
        [
          -111.77384137614,
          40.427973330191
        ],
        [
          -111.773846918745,
          40.4282301557005
        ],
        [
          -111.773863262693,
          40.4282886908848
        ]
      ]
    ]
  }
}