{
  "type": "Feature",
  "properties": {
    "parcel_id": "342690003",
    "owner_name_raw": "UTAH COUNTY",
    "owner_class": "UNCLASSIFIED",
    "epsg": "EPSG:4326"
  },
  "geometry": {
    "type": "Polygon",
    "coordinates": [
      [
        [
          -111.743035779783,
          40.392180043362
        ],
        [
          -111.743442551317,
          40.3921774858936
        ],
        [
          -111.743288971743,
          40.3922361352303
        ],
        [
          -111.743271079997,
          40.3923311507147
        ],
        [
          -111.743035779783,
          40.392180043362
        ]
      ]
    ]
  }
}