{
  "type": "Feature",
  "properties": {
    "parcel_id": "342820010",
    "owner_name_raw": "UTAH DEPARTMENT OF TRANSPORTATION",
    "owner_class": "STATE",
    "epsg": "EPSG:4326"
  },
  "geometry": {
    "type": "Polygon",
    "coordinates": [
      [
        [
          -111.799480625652,
          40.4320023252089
        ],
        [
          -111.799480687635,
          40.4320229424258
        ],
        [
          -111.79934609126,
          40.4320237759487
        ],
        [
          -111.799333179812,
          40.4320242213586
        ],
        [
          -111.799320418961,
          40.4320257828962
        ],
        [
          -111.799307974686,
          40.4320284402508
        ],
        [
          -111.799296008848,
          40.4320321588583
        ],
        [
          -111.799284677085,
          40.432036890351
        ],
        [
          -111.799274126789,
          40.4320425731866
        ],
        [
          -111.799264495186,
          40.4320491334488
        ],
        [
          -111.799255907554,
          40.4320564858087
        ],
        [
          -111.799248475591,
          40.4320645346347
        ],
        [
          -111.799242295963,
          40.4320731752363
        ],
        [
          -111.799237449049,
          40.4320822952259
        ],
        [
          -111.799233997892,
          40.4320917759804
        ],
        [
          -111.799231987381,
          40.4321014941847
        ],
        [
          -111.799231443666,
          40.4321113234348
        ],
        [
          -111.799232373819,
          40.4321211358828
        ],
        [
          -111.799234765742,
          40.4321308038991
        ],
        [
          -111.799213158564,
          40.432069999873
        ],
        [
          -111.79921102094,
          40.4320615789028
        ],
        [
          -111.79920998426,
          40.4320530385537
        ],
        [
          -111.799210058622,
          40.432044462013
        ],
        [
          -111.799211243302,
          40.4320359328208
        ],
        [
          -111.799213526761,
          40.432027534056
        ],
        [
          -111.799216886757,
          40.4320193475268
        ],
        [
          -111.79922129056,
          40.4320114529746
        ],
        [
          -111.799226695277,
          40.4320039272966
        ],
        [
          -111.799480625652,
          40.4320023252089
        ]
      ]
    ]
  }
}