{
  "type": "Feature",
  "properties": {
    "parcel_id": "342820012",
    "owner_name_raw": "UTAH DEPARTMENT OF TRANSPORTATION",
    "owner_class": "STATE",
    "epsg": "EPSG:4326"
  },
  "geometry": {
    "type": "Polygon",
    "coordinates": [
      [
        [
          -111.798871863435,
          40.4320267100314
        ],
        [
          -111.797272119322,
          40.4320366104226
        ],
        [
          -111.797272033982,
          40.4320163043282
        ],
        [
          -111.798957590561,
          40.4320056422072
        ],
        [
          -111.798964757906,
          40.4320153504657
        ],
        [
          -111.798970278087,
          40.4320256634957
        ],
        [
          -111.798974064849,
          40.4320364201554
        ],
        [
          -111.798976059025,
          40.4320474523717
        ],
        [
          -111.798983974081,
          40.4320922690702
        ],
        [
          -111.798977699026,
          40.4320786097717
        ],
        [
          -111.798968552985,
          40.4320659241566
        ],
        [
          -111.798956785966,
          40.4320545589875
        ],
        [
          -111.79894271962,
          40.4320448249327
        ],
        [
          -111.798926738453,
          40.4320369880737
        ],
        [
          -111.798909279309,
          40.4320312626323
        ],
        [
          -111.798890819436,
          40.4320278051143
        ],
        [
          -111.798871863435,
          40.4320267100314
        ]
      ]
    ]
  }
}