{
  "type": "Feature",
  "properties": {
    "parcel_id": "344190041",
    "owner_name_raw": "UTAH DEPARTMENT OF TRANSPORTATION",
    "owner_class": "STATE",
    "epsg": "EPSG:4326"
  },
  "geometry": {
    "type": "Polygon",
    "coordinates": [
      [
        [
          -111.935449260543,
          40.3917699296792
        ],
        [
          -111.935337343934,
          40.3918312853207
        ],
        [
          -111.935337882025,
          40.391678156445
        ],
        [
          -111.935287267348,
          40.3916394328715
        ],
        [
          -111.935390918559,
          40.3916391407238
        ],
        [
          -111.935401133567,
          40.3916398686793
        ],
        [
          -111.935410982561,
          40.3916420572631
        ],
        [
          -111.935420108879,
          40.3916456272202
        ],
        [
          -111.935428182031,
          40.3916504492719
        ],
        [
          -111.935434909665,
          40.3916563487974
        ],
        [
          -111.935440048154,
          40.3916631121575
        ],
        [
          -111.935443411418,
          40.3916704944311
        ],
        [
          -111.935444877663,
          40.3916782282846
        ],
        [
          -111.935449260543,
          40.3917699296792
        ]
      ]
    ]
  }
}