{
  "type": "Feature",
  "properties": {
    "parcel_id": "347020254",
    "owner_name_raw": "State",
    "owner_class": "STATE",
    "epsg": "EPSG:4326"
  },
  "geometry": {
    "type": "Polygon",
    "coordinates": [
      [
        [
          -111.824612732168,
          40.356172248059
        ],
        [
          -111.824816502414,
          40.3559463897247
        ],
        [
          -111.825025115478,
          40.3560565383531
        ],
        [
          -111.825037885029,
          40.356063352342
        ],
        [
          -111.824833035009,
          40.3562904102927
        ],
        [
          -111.824806169992,
          40.3562743850815
        ],
        [
          -111.824680635821,
          40.3562081025499
        ],
        [
          -111.824612732168,
          40.356172248059
        ]
      ]
    ]
  }
}