{
  "type": "Feature",
  "properties": {
    "parcel_id": "347020266",
    "owner_name_raw": "State",
    "owner_class": "STATE",
    "epsg": "EPSG:4326"
  },
  "geometry": {
    "type": "Polygon",
    "coordinates": [
      [
        [
          -111.824412000025,
          40.3571018977723
        ],
        [
          -111.824760795188,
          40.3570831229672
        ],
        [
          -111.824778818986,
          40.3572686775303
        ],
        [
          -111.82477839873,
          40.3572800774729
        ],
        [
          -111.824774889916,
          40.3572911640437
        ],
        [
          -111.824768444633,
          40.357301456706
        ],
        [
          -111.824759342244,
          40.3573105093348
        ],
        [
          -111.824747977283,
          40.3573179295531
        ],
        [
          -111.824734842355,
          40.3573233957392
        ],
        [
          -111.824720506779,
          40.3573266709671
        ],
        [
          -111.824705591918,
          40.3573276132754
        ],
        [
          -111.824446373161,
          40.3573229584377
        ],
        [
          -111.824412000025,
          40.3571018977723
        ]
      ]
    ]
  }
}