{
  "type": "Feature",
  "properties": {
    "parcel_id": "347020243",
    "owner_name_raw": "State",
    "owner_class": "STATE",
    "epsg": "EPSG:4326"
  },
  "geometry": {
    "type": "Polygon",
    "coordinates": [
      [
        [
          -111.825840542312,
          40.3566149887953
        ],
        [
          -111.82622527368,
          40.3565219423373
        ],
        [
          -111.826244550555,
          40.3565698373198
        ],
        [
          -111.826262024385,
          40.3566181322917
        ],
        [
          -111.826277680913,
          40.3566667878455
        ],
        [
          -111.826291507365,
          40.3567157642795
        ],
        [
          -111.825873248175,
          40.3567662539616
        ],
        [
          -111.825861331124,
          40.3567488782645
        ],
        [
          -111.825855166028,
          40.3567374687253
        ],
        [
          -111.825853776293,
          40.3567251753504
        ],
        [
          -111.825854645404,
          40.3566974193822
        ],
        [
          -111.825852719151,
          40.3566696943318
        ],
        [
          -111.825848008877,
          40.3566421634377
        ],
        [
          -111.825840542312,
          40.3566149887953
        ]
      ]
    ]
  }
}