{
  "type": "Feature",
  "properties": {
    "parcel_id": "347100286",
    "owner_name_raw": "State",
    "owner_class": "STATE",
    "epsg": "EPSG:4326"
  },
  "geometry": {
    "type": "Polygon",
    "coordinates": [
      [
        [
          -111.826405591609,
          40.3584105107731
        ],
        [
          -111.826760250975,
          40.3582660705917
        ],
        [
          -111.826815929354,
          40.3583428800533
        ],
        [
          -111.826874659511,
          40.358418358155
        ],
        [
          -111.826532987089,
          40.3585800890435
        ],
        [
          -111.826467678197,
          40.3584960027734
        ],
        [
          -111.826405591609,
          40.3584105107731
        ]
      ]
    ]
  }
}