{
  "type": "Feature",
  "properties": {
    "parcel_id": "347370038",
    "owner_name_raw": "UTAH COUNTY",
    "owner_class": "UNCLASSIFIED",
    "epsg": "EPSG:4326"
  },
  "geometry": {
    "type": "Polygon",
    "coordinates": [
      [
        [
          -111.688490130529,
          40.0270545803425
        ],
        [
          -111.687639733178,
          40.0270622577339
        ],
        [
          -111.687638023684,
          40.0270068918979
        ],
        [
          -111.688489280722,
          40.02699905904
        ],
        [
          -111.688490130529,
          40.0270545803425
        ]
      ]
    ]
  }
}