{
  "type": "Feature",
  "properties": {
    "parcel_id": "348080219",
    "owner_name_raw": "EDGE HOMES UTAH LLC",
    "owner_class": "UNCLASSIFIED",
    "epsg": "EPSG:4326"
  },
  "geometry": {
    "type": "Polygon",
    "coordinates": [
      [
        [
          -111.890844473326,
          40.3833438338364
        ],
        [
          -111.891257171045,
          40.3833424536624
        ],
        [
          -111.891258897607,
          40.3836443244968
        ],
        [
          -111.890846198989,
          40.3836457032961
        ],
        [
          -111.890844473326,
          40.3833438338364
        ]
      ]
    ]
  }
}