{
  "type": "Feature",
  "properties": {
    "parcel_id": "348080231",
    "owner_name_raw": "EDGE HOMES UTAH LLC",
    "owner_class": "UNCLASSIFIED",
    "epsg": "EPSG:4326"
  },
  "geometry": {
    "type": "Polygon",
    "coordinates": [
      [
        [
          -111.891105866006,
          40.3844338347535
        ],
        [
          -111.891111240626,
          40.3841250748785
        ],
        [
          -111.891419510092,
          40.3841240436945
        ],
        [
          -111.891471546801,
          40.3841238698917
        ],
        [
          -111.891473428772,
          40.3844527983229
        ],
        [
          -111.891311723936,
          40.3844536283296
        ],
        [
          -111.891259726952,
          40.3844525847513
        ],
        [
          -111.89120793425,
          40.3844489253965
        ],
        [
          -111.89115657238,
          40.3844426662714
        ],
        [
          -111.891105866006,
          40.3844338347535
        ]
      ]
    ]
  }
}