{
  "type": "Feature",
  "properties": {
    "parcel_id": "348010145",
    "owner_name_raw": "EDGE HOMES UTAH LLC",
    "owner_class": "UNCLASSIFIED",
    "epsg": "EPSG:4326"
  },
  "geometry": {
    "type": "Polygon",
    "coordinates": [
      [
        [
          -111.89316158777,
          40.3826089340171
        ],
        [
          -111.893170683212,
          40.3825709298799
        ],
        [
          -111.893185901518,
          40.3825042009112
        ],
        [
          -111.893197040747,
          40.382437006056
        ],
        [
          -111.893204076925,
          40.3823694899168
        ],
        [
          -111.893206994912,
          40.3823017977882
        ],
        [
          -111.893633502433,
          40.3823003614817
        ],
        [
          -111.893633695571,
          40.3823917465064
        ],
        [
          -111.893633932726,
          40.3825016555341
        ],
        [
          -111.893634805888,
          40.3825715210966
        ],
        [
          -111.893595461476,
          40.3825704686762
        ],
        [
          -111.893595282711,
          40.3826125661656
        ],
        [
          -111.89316158777,
          40.3826089340171
        ]
      ]
    ]
  }
}