{
  "type": "Feature",
  "properties": {
    "parcel_id": "348010110",
    "owner_name_raw": "EDGE HOMES UTAH LLC",
    "owner_class": "UNCLASSIFIED",
    "epsg": "EPSG:4326"
  },
  "geometry": {
    "type": "Polygon",
    "coordinates": [
      [
        [
          -111.891577802228,
          40.3824929118129
        ],
        [
          -111.891471821686,
          40.3824932621639
        ],
        [
          -111.891467848437,
          40.3822188491568
        ],
        [
          -111.891911148166,
          40.3822173670016
        ],
        [
          -111.89191273459,
          40.3824917930161
        ],
        [
          -111.891577802228,
          40.3824929118129
        ]
      ]
    ]
  }
}