{
  "type": "Feature",
  "properties": {
    "parcel_id": "348080226",
    "owner_name_raw": "EDGE HOMES UTAH LLC",
    "owner_class": "UNCLASSIFIED",
    "epsg": "EPSG:4326"
  },
  "geometry": {
    "type": "Polygon",
    "coordinates": [
      [
        [
          -111.891832236558,
          40.3841226498512
        ],
        [
          -111.891830430046,
          40.3838070705234
        ],
        [
          -111.892192886788,
          40.383805855267
        ],
        [
          -111.892194834336,
          40.3841454310092
        ],
        [
          -111.891832236558,
          40.3841226498512
        ]
      ]
    ]
  }
}