{
  "type": "Feature",
  "properties": {
    "parcel_id": "348010132",
    "owner_name_raw": "EDGE HOMES UTAH LLC",
    "owner_class": "UNCLASSIFIED",
    "epsg": "EPSG:4326"
  },
  "geometry": {
    "type": "Polygon",
    "coordinates": [
      [
        [
          -111.892125728737,
          40.381903186323
        ],
        [
          -111.89212395726,
          40.3815942355647
        ],
        [
          -111.89254740961,
          40.3815928184033
        ],
        [
          -111.892549181986,
          40.3819017684837
        ],
        [
          -111.892125728737,
          40.381903186323
        ]
      ]
    ]
  }
}