{
  "type": "Feature",
  "properties": {
    "parcel_id": "351770006",
    "owner_name_raw": "UTAH DEPARTMENT OF TRANSPORTATION",
    "owner_class": "STATE",
    "epsg": "EPSG:4326"
  },
  "geometry": {
    "type": "Polygon",
    "coordinates": [
      [
        [
          -111.695276270984,
          40.2733383187331
        ],
        [
          -111.695270217238,
          40.2733319521738
        ],
        [
          -111.695268647881,
          40.2731389181394
        ],
        [
          -111.695467122558,
          40.273264535421
        ],
        [
          -111.696498816102,
          40.2732735434704
        ],
        [
          -111.696499387431,
          40.2733435235611
        ],
        [
          -111.695276190136,
          40.2733366217151
        ],
        [
          -111.695276270984,
          40.2733383187331
        ]
      ]
    ]
  }
}