{
  "type": "Feature",
  "properties": {
    "parcel_id": "352040009",
    "owner_name_raw": "HOUSING AUTHORITY OF UTAH COUNTY",
    "owner_class": "UNCLASSIFIED",
    "epsg": "EPSG:4326"
  },
  "geometry": {
    "type": "Polygon",
    "coordinates": [
      [
        [
          -111.701862435678,
          40.3064010516104
        ],
        [
          -111.701862290151,
          40.3063516538842
        ],
        [
          -111.701880213338,
          40.3063516230569
        ],
        [
          -111.701880084879,
          40.3063077153067
        ],
        [
          -111.701962527764,
          40.3063075728158
        ],
        [
          -111.701962690359,
          40.3063624585267
        ],
        [
          -111.701955520905,
          40.3063624708576
        ],
        [
          -111.701955634092,
          40.3064008906233
        ],
        [
          -111.701862435678,
          40.3064010516104
        ]
      ]
    ]
  }
}