{
  "type": "Feature",
  "properties": {
    "parcel_id": "354080003",
    "owner_name_raw": "UTAH DEPARTMENT OF TRANSPORTATION",
    "owner_class": "STATE",
    "epsg": "EPSG:4326"
  },
  "geometry": {
    "type": "Polygon",
    "coordinates": [
      [
        [
          -111.841842281876,
          40.3734572829984
        ],
        [
          -111.84432151977,
          40.3734700608909
        ],
        [
          -111.844323799694,
          40.3737286499823
        ],
        [
          -111.844247337792,
          40.3737290852406
        ],
        [
          -111.844153753103,
          40.3736733324629
        ],
        [
          -111.842450702733,
          40.3736783317778
        ],
        [
          -111.842298934401,
          40.3736801936898
        ],
        [
          -111.842147251611,
          40.3736844986077
        ],
        [
          -111.84199572211,
          40.373691244608
        ],
        [
          -111.841844413578,
          40.3737004286772
        ],
        [
          -111.841842281876,
          40.3734572829984
        ]
      ]
    ]
  }
}