{
  "type": "Feature",
  "properties": {
    "parcel_id": "354060329",
    "owner_name_raw": "UTAH DEPARTMENT OF TRANSPORTATION",
    "owner_class": "STATE",
    "epsg": "EPSG:4326"
  },
  "geometry": {
    "type": "Polygon",
    "coordinates": [
      [
        [
          -111.876665293303,
          40.3758365106566
        ],
        [
          -111.876665647239,
          40.3756207131249
        ],
        [
          -111.876674654647,
          40.3756207733476
        ],
        [
          -111.876674483967,
          40.3758203347451
        ],
        [
          -111.876674133906,
          40.3758284773042
        ],
        [
          -111.876672716981,
          40.3758365524018
        ],
        [
          -111.876665293303,
          40.3758365106566
        ]
      ]
    ]
  }
}