{
  "type": "Feature",
  "properties": {
    "parcel_id": "354160004",
    "owner_name_raw": "UTAH DEPARTMENT OF TRANSPORTATION",
    "owner_class": "STATE",
    "epsg": "EPSG:4326"
  },
  "geometry": {
    "type": "Polygon",
    "coordinates": [
      [
        [
          -111.729941920032,
          40.3116825293342
        ],
        [
          -111.7294561785,
          40.3116800996458
        ],
        [
          -111.729438912746,
          40.311678708669
        ],
        [
          -111.729422320981,
          40.3116748094939
        ],
        [
          -111.729407023741,
          40.3116685479495
        ],
        [
          -111.729393593141,
          40.3116601582175
        ],
        [
          -111.729382531488,
          40.3116499540736
        ],
        [
          -111.729374252488,
          40.3116383171529
        ],
        [
          -111.729369065777,
          40.3116256826762
        ],
        [
          -111.729367165337,
          40.3116125231736
        ],
        [
          -111.729366724264,
          40.3115897750432
        ],
        [
          -111.729374156026,
          40.3116167338614
        ],
        [
          -111.729375530431,
          40.3116262233042
        ],
        [
          -111.729379278257,
          40.3116353326693
        ],
        [
          -111.729385258884,
          40.3116437201694
        ],
        [
          -111.729393247916,
          40.3116510711016
        ],
        [
          -111.729402945601,
          40.3116571096558
        ],
        [
          -111.729413988077,
          40.3116616092628
        ],
        [
          -111.729425961025,
          40.3116644010957
        ],
        [
          -111.729438415214,
          40.3116653804037
        ],
        [
          -111.729941870625,
          40.3116669956297
        ],
        [
          -111.729941920032,
          40.3116825293342
        ]
      ]
    ]
  }
}