{
  "type": "Feature",
  "properties": {
    "parcel_id": "354960108",
    "owner_name_raw": "UTAH DEPARTMENT OF TRANSPORTATION",
    "owner_class": "STATE",
    "epsg": "EPSG:4326"
  },
  "geometry": {
    "type": "Polygon",
    "coordinates": [
      [
        [
          -111.771681427345,
          40.4246548094396
        ],
        [
          -111.771580877118,
          40.4246566948165
        ],
        [
          -111.771579502696,
          40.4244051623647
        ],
        [
          -111.771578256733,
          40.4243606339168
        ],
        [
          -111.771575375835,
          40.4242999459592
        ],
        [
          -111.771558669866,
          40.4239480950532
        ],
        [
          -111.771555338015,
          40.4239000027158
        ],
        [
          -111.771555212251,
          40.4238682244839
        ],
        [
          -111.771554224174,
          40.4238604117354
        ],
        [
          -111.771551301234,
          40.4238528848776
        ],
        [
          -111.771546550247,
          40.4238459189757
        ],
        [
          -111.771540144837,
          40.4238397685951
        ],
        [
          -111.771532319086,
          40.4238346584986
        ],
        [
          -111.77152335898,
          40.4238307754322
        ],
        [
          -111.771513591964,
          40.4238282613008
        ],
        [
          -111.771503374967,
          40.4238272079822
        ],
        [
          -111.771025179284,
          40.4238133632488
        ],
        [
          -111.770557818181,
          40.4237998296687
        ],
        [
          -111.769656972342,
          40.4237737397362
        ],
        [
          -111.769639383331,
          40.423774562121
        ],
        [
          -111.769622344561,
          40.4237779853474
        ],
        [
          -111.769606513074,
          40.4237838774102
        ],
        [
          -111.769592499356,
          40.4237920111015
        ],
        [
          -111.769572220637,
          40.4238044084006
        ],
        [
          -111.76954980094,
          40.4238144440572
        ],
        [
          -111.769525711167,
          40.4238219072837
        ],
        [
          -111.769500457299,
          40.4238266413236
        ],
        [
          -111.769474569767,
          40.4238285467439
        ],
        [
          -111.769448592313,
          40.4238275835233
        ],
        [
          -111.769423070566,
          40.4238237718933
        ],
        [
          -111.769398540584,
          40.4238171919128
        ],
        [
          -111.769375517594,
          40.4238079817865
        ],
        [
          -111.76935448517,
          40.4237963349628
        ],
        [
          -111.769335885076,
          40.42378249607
        ],
        [
          -111.769320107989,
          40.4237667557784
        ],
        [
          -111.76930748529,
          40.4237494446954
        ],
        [
          -111.769298282105,
          40.4237309264215
        ],
        [
          -111.769292691738,
          40.423711589913
        ],
        [
          -111.769290831609,
          40.4236918413129
        ],
        [
          -111.769292898361,
          40.4236705375187
        ],
        [
          -111.769299286525,
          40.4236497366189
        ],
        [
          -111.769309841056,
          40.4236299434702
        ],
        [
          -111.769324305787,
          40.4236116384704
        ],
        [
          -111.769342329644,
          40.4235952658991
        ],
        [
          -111.769363475175,
          40.4235812231345
        ],
        [
          -111.769387229158,
          40.423569851008
        ],
        [
          -111.769413015064,
          40.4235614255325
        ],
        [
          -111.769437966292,
          40.4235564919895
        ],
        [
          -111.76946358962,
          40.4235543377412
        ],
        [
          -111.769489353719,
          40.4235550074586
        ],
        [
          -111.76951472434,
          40.4235584872543
        ],
        [
          -111.769539175394,
          40.4235647049702
        ],
        [
          -111.76956219986,
          40.423573531674
        ],
        [
          -111.769583320298,
          40.4235847843329
        ],
        [
          -111.769602098753,
          40.4235982296087
        ],
        [
          -111.769615265068,
          40.4236071501846
        ],
        [
          -111.76963046674,
          40.4236139409849
        ],
        [
          -111.769647118064,
          40.4236183403674
        ],
        [
          -111.769664577479,
          40.4236201788285
        ],
        [
          -111.77014589391,
          40.4236341193422
        ],
        [
          -111.770868192399,
          40.4236550372879
        ],
        [
          -111.7714983453,
          40.4236732833826
        ],
        [
          -111.771509183104,
          40.4236727565375
        ],
        [
          -111.771519662506,
          40.4236705873706
        ],
        [
          -111.771529358543,
          40.4236668638458
        ],
        [
          -111.771537878022,
          40.4236617369594
        ],
        [
          -111.771544875461,
          40.4236554146167
        ],
        [
          -111.771550067099,
          40.4236481532014
        ],
        [
          -111.771553242404,
          40.4236402471783
        ],
        [
          -111.771554272613,
          40.4236320171526
        ],
        [
          -111.77155268529,
          40.4232324898312
        ],
        [
          -111.771753764183,
          40.423232023435
        ],
        [
          -111.771755569797,
          40.4236861871524
        ],
        [
          -111.771756417806,
          40.4238995479498
        ],
        [
          -111.771757526327,
          40.4239425968339
        ],
        [
          -111.771763757042,
          40.4240738482323
        ],
        [
          -111.771765149878,
          40.4240818304016
        ],
        [
          -111.771768562676,
          40.4240894520446
        ],
        [
          -111.771773864135,
          40.424096419931
        ],
        [
          -111.771780850289,
          40.4241024659829
        ],
        [
          -111.771789252358,
          40.4241073575885
        ],
        [
          -111.771798747085,
          40.4241109065514
        ],
        [
          -111.771808969176,
          40.4241129763313
        ],
        [
          -111.771819525353,
          40.4241134872968
        ],
        [
          -111.772235564806,
          40.4241019479028
        ],
        [
          -111.772407807778,
          40.4240971711648
        ],
        [
          -111.772425271332,
          40.424095353913
        ],
        [
          -111.772441932119,
          40.4240909746615
        ],
        [
          -111.772457148179,
          40.4240842021477
        ],
        [
          -111.772470333217,
          40.4240752973248
        ],
        [
          -111.772492469564,
          40.4240598708428
        ],
        [
          -111.772517679875,
          40.4240474760418
        ],
        [
          -111.772545255727,
          40.424038461224
        ],
        [
          -111.772574422224,
          40.4240330797121
        ],
        [
          -111.772604359772,
          40.4240314827302
        ],
        [
          -111.77263422711,
          40.4240337151545
        ],
        [
          -111.772663184951,
          40.4240397142525
        ],
        [
          -111.772690419563,
          40.4240493114454
        ],
        [
          -111.772705813128,
          40.4240568177868
        ],
        [
          -111.772720131136,
          40.4240654702288
        ],
        [
          -111.772733226914,
          40.4240751801357
        ],
        [
          -111.77274496631,
          40.4240858480389
        ],
        [
          -111.772755229066,
          40.4240973646565
        ],
        [
          -111.77276391005,
          40.4241096120121
        ],
        [
          -111.772770920335,
          40.4241224646438
        ],
        [
          -111.772776188107,
          40.4241357908892
        ],
        [
          -111.772779659404,
          40.4241494542346
        ],
        [
          -111.772781298665,
          40.4241633147129
        ],
        [
          -111.772781089098,
          40.4241772303375
        ],
        [
          -111.772779032851,
          40.4241910585574
        ],
        [
          -111.772775150986,
          40.4242046577168
        ],
        [
          -111.77276948327,
          40.4242178885063
        ],
        [
          -111.772762087763,
          40.4242306153905
        ],
        [
          -111.772753040223,
          40.4242427079959
        ],
        [
          -111.772741596597,
          40.4242548687749
        ],
        [
          -111.772728472176,
          40.4242660022289
        ],
        [
          -111.772713824881,
          40.4242759743955
        ],
        [
          -111.772697830954,
          40.4242846652858
        ],
        [
          -111.772680682842,
          40.4242919703277
        ],
        [
          -111.772662586877,
          40.424297801624
        ],
        [
          -111.772643760799,
          40.4243020890103
        ],
        [
          -111.772624431132,
          40.4243047808993
        ],
        [
          -111.772604830458,
          40.4243058449011
        ],
        [
          -111.772585194622,
          40.4243052682132
        ],
        [
          -111.772565759892,
          40.4243030577746
        ],
        [
          -111.772546760114,
          40.424299240182
        ],
        [
          -111.772528423902,
          40.4242938613702
        ],
        [
          -111.772510971886,
          40.4242869860592
        ],
        [
          -111.772494614056,
          40.4242786969752
        ],
        [
          -111.772479547237,
          40.4242690938558
        ],
        [
          -111.772465550892,
          40.4242609425481
        ],
        [
          -111.77244973194,
          40.4242550305554
        ],
        [
          -111.772432700357,
          40.4242515858438
        ],
        [
          -111.772415112878,
          40.4242507412413
        ],
        [
          -111.772291170522,
          40.424254180348
        ],
        [
          -111.771826828657,
          40.4242670587038
        ],
        [
          -111.771816347369,
          40.4242681529712
        ],
        [
          -111.77180634794,
          40.4242707829193
        ],
        [
          -111.771797214683,
          40.42427484747
        ],
        [
          -111.771789298618,
          40.424280190409
        ],
        [
          -111.771782903986,
          40.4242866063887
        ],
        [
          -111.771778276556,
          40.4242938488215
        ],
        [
          -111.771775594173,
          40.4243016393561
        ],
        [
          -111.771774959932,
          40.424309678576
        ],
        [
          -111.771777118584,
          40.4243551473568
        ],
        [
          -111.771778363649,
          40.4244049729373
        ],
        [
          -111.771778974503,
          40.4246530204856
        ],
        [
          -111.77167842787,
          40.4246549058626
        ],
        [
          -111.771681427345,
          40.4246548094396
        ]
      ]
    ]
  }
}