{
  "type": "Feature",
  "properties": {
    "parcel_id": "355200003",
    "owner_name_raw": "UTAH DEPARTMENT OF TRANSPORTATION",
    "owner_class": "STATE",
    "epsg": "EPSG:4326"
  },
  "geometry": {
    "type": "Polygon",
    "coordinates": [
      [
        [
          -111.771226838488,
          40.3519883402082
        ],
        [
          -111.771226719911,
          40.3520222116164
        ],
        [
          -111.770129822152,
          40.3514950631793
        ],
        [
          -111.770499908286,
          40.351635024199
        ],
        [
          -111.771178391447,
          40.3519647903378
        ],
        [
          -111.771226838488,
          40.3519883402082
        ]
      ]
    ]
  }
}