{
  "type": "Feature",
  "properties": {
    "parcel_id": "355310072",
    "owner_name_raw": "UTAH DEPARTMENT OF TRANSPORTATION",
    "owner_class": "STATE",
    "epsg": "EPSG:4326"
  },
  "geometry": {
    "type": "Polygon",
    "coordinates": [
      [
        [
          -111.73254915438,
          40.283284991172
        ],
        [
          -111.732840193261,
          40.283672515919
        ],
        [
          -111.732803856408,
          40.283686139327
        ],
        [
          -111.732526382088,
          40.2832852502102
        ],
        [
          -111.73254915438,
          40.283284991172
        ]
      ]
    ]
  }
}