{
  "type": "Feature",
  "properties": {
    "parcel_id": "355410003",
    "owner_name_raw": "UTAH COUNTY",
    "owner_class": "UNCLASSIFIED",
    "epsg": "EPSG:4326"
  },
  "geometry": {
    "type": "Polygon",
    "coordinates": [
      [
        [
          -111.777197070613,
          40.0046628087479
        ],
        [
          -111.774741760244,
          40.004668634911
        ],
        [
          -111.774741146695,
          40.0045149450074
        ],
        [
          -111.775918837134,
          40.0045121574983
        ],
        [
          -111.777094741722,
          40.0045093617319
        ],
        [
          -111.777060125143,
          40.0025532845985
        ],
        [
          -111.777160039362,
          40.0025522386504
        ],
        [
          -111.777197387718,
          40.004662540388
        ],
        [
          -111.777197070613,
          40.0046628087479
        ]
      ]
    ]
  }
}