{
  "type": "Feature",
  "properties": {
    "parcel_id": "355760007",
    "owner_name_raw": "UTAH COUNTY",
    "owner_class": "UNCLASSIFIED",
    "epsg": "EPSG:4326"
  },
  "geometry": {
    "type": "Polygon",
    "coordinates": [
      [
        [
          -111.711615322547,
          40.1183439542859
        ],
        [
          -111.711607102962,
          40.118344045651
        ],
        [
          -111.711581637521,
          40.1148280543531
        ],
        [
          -111.716238802194,
          40.1148080622304
        ],
        [
          -111.715087789922,
          40.1148148971037
        ],
        [
          -111.713622258605,
          40.1148235827297
        ],
        [
          -111.711652193,
          40.1148352306587
        ],
        [
          -111.711641749513,
          40.1148360943361
        ],
        [
          -111.711631725287,
          40.1148384953177
        ],
        [
          -111.711622503393,
          40.1148423418511
        ],
        [
          -111.711614436239,
          40.1148474869429
        ],
        [
          -111.711607832108,
          40.1148537339758
        ],
        [
          -111.711602943374,
          40.1148608442225
        ],
        [
          -111.711599956856,
          40.1148685459685
        ],
        [
          -111.711598986684,
          40.1148765448955
        ],
        [
          -111.711604584984,
          40.116065211883
        ],
        [
          -111.711609924571,
          40.1171988526785
        ],
        [
          -111.711615322547,
          40.1183439542859
        ]
      ]
    ]
  }
}