{
  "type": "Feature",
  "properties": {
    "parcel_id": "356180002",
    "owner_name_raw": "UTAH COUNTY",
    "owner_class": "UNCLASSIFIED",
    "epsg": "EPSG:4326"
  },
  "geometry": {
    "type": "Polygon",
    "coordinates": [
      [
        [
          -111.76579872257,
          40.0485266443588
        ],
        [
          -111.765786862113,
          40.0485583276044
        ],
        [
          -111.764855981104,
          40.0485630999634
        ],
        [
          -111.764869066862,
          40.0485281530851
        ],
        [
          -111.765719263888,
          40.0485298069076
        ],
        [
          -111.765720515241,
          40.0485264573152
        ],
        [
          -111.76579872257,
          40.0485266443588
        ]
      ]
    ]
  }
}