{
  "type": "Feature",
  "properties": {
    "parcel_id": "357710017",
    "owner_name_raw": "UTAH REGIONAL HOUSING CORPORATION",
    "owner_class": "UNCLASSIFIED",
    "epsg": "EPSG:4326"
  },
  "geometry": {
    "type": "Polygon",
    "coordinates": [
      [
        [
          -111.638237045825,
          40.2138886882031
        ],
        [
          -111.638194088388,
          40.2138884508509
        ],
        [
          -111.638193764995,
          40.2139241291334
        ],
        [
          -111.63814722867,
          40.2139238835495
        ],
        [
          -111.638147328383,
          40.2139129063571
        ],
        [
          -111.638102581502,
          40.213912664889
        ],
        [
          -111.638103250746,
          40.2138385670788
        ],
        [
          -111.638244650064,
          40.2138393223533
        ],
        [
          -111.638244452434,
          40.2138612774461
        ],
        [
          -111.638237292862,
          40.2138612452046
        ],
        [
          -111.638237045825,
          40.2138886882031
        ]
      ]
    ]
  }
}