{
  "type": "Feature",
  "properties": {
    "parcel_id": "358020003",
    "owner_name_raw": "UTAH DEPARTMENT OF TRANSPORATION",
    "owner_class": "STATE",
    "epsg": "EPSG:4326"
  },
  "geometry": {
    "type": "Polygon",
    "coordinates": [
      [
        [
          -111.769028342985,
          40.3750495001904
        ],
        [
          -111.768967024882,
          40.3750488952206
        ],
        [
          -111.768967177595,
          40.3750359417483
        ],
        [
          -111.768981258687,
          40.3748833249109
        ],
        [
          -111.768986985447,
          40.3744053651023
        ],
        [
          -111.769036142158,
          40.3744057024925
        ],
        [
          -111.769028373527,
          40.3750494399672
        ],
        [
          -111.769028342985,
          40.3750495001904
        ]
      ]
    ]
  }
}