{
  "type": "Feature",
  "properties": {
    "parcel_id": "358360125",
    "owner_name_raw": "LENNAR HOMES OF UTAH LLC",
    "owner_class": "UNCLASSIFIED",
    "epsg": "EPSG:4326"
  },
  "geometry": {
    "type": "Polygon",
    "coordinates": [
      [
        [
          -111.939993506986,
          40.3365629311157
        ],
        [
          -111.939849554656,
          40.3366077846833
        ],
        [
          -111.939833515958,
          40.3366102091079
        ],
        [
          -111.939817450007,
          40.3366078918997
        ],
        [
          -111.939803682108,
          40.3366011684394
        ],
        [
          -111.93979420496,
          40.3365910118464
        ],
        [
          -111.939631242483,
          40.3363291085411
        ],
        [
          -111.939915264623,
          40.3362218317138
        ],
        [
          -111.940037878371,
          40.3362213701928
        ],
        [
          -111.94003999031,
          40.3365500017461
        ],
        [
          -111.939993572563,
          40.3365628968784
        ],
        [
          -111.939993506986,
          40.3365629311157
        ]
      ]
    ]
  }
}