{
  "type": "Feature",
  "properties": {
    "parcel_id": "358760010",
    "owner_name_raw": "UTAH COUNTY",
    "owner_class": "UNCLASSIFIED",
    "epsg": "EPSG:4326"
  },
  "geometry": {
    "type": "Polygon",
    "coordinates": [
      [
        [
          -112.032445883714,
          40.3256116104951
        ],
        [
          -112.032408940498,
          40.3255816849845
        ],
        [
          -112.033180246577,
          40.3250278325859
        ],
        [
          -112.033282566404,
          40.3251094730724
        ],
        [
          -112.033387229267,
          40.3251893684742
        ],
        [
          -112.033494183978,
          40.3252674797226
        ],
        [
          -112.033603378229,
          40.3253437686218
        ],
        [
          -112.032899011011,
          40.3259476058977
        ],
        [
          -112.032782384407,
          40.325866264854
        ],
        [
          -112.032667956132,
          40.3257831288057
        ],
        [
          -112.032555773706,
          40.32569823227
        ],
        [
          -112.032445883714,
          40.3256116104951
        ]
      ]
    ]
  }
}