{
  "type": "Feature",
  "properties": {
    "parcel_id": "360020008",
    "owner_name_raw": "UTAH COUNTY",
    "owner_class": "UNCLASSIFIED",
    "epsg": "EPSG:4326"
  },
  "geometry": {
    "type": "Polygon",
    "coordinates": [
      [
        [
          -111.586649419444,
          40.1696158462848
        ],
        [
          -111.586632354107,
          40.1696281157612
        ],
        [
          -111.586613333659,
          40.1696385725467
        ],
        [
          -111.586592685469,
          40.1696470366654
        ],
        [
          -111.586570764924,
          40.1696533624384
        ],
        [
          -111.586547949307,
          40.1696574409904
        ],
        [
          -111.58652463131,
          40.1696592021239
        ],
        [
          -111.586501212269,
          40.1696586155274
        ],
        [
          -111.586478095259,
          40.169655691297
        ],
        [
          -111.58645567816,
          40.1696504797628
        ],
        [
          -111.586434346801,
          40.1696430706224
        ],
        [
          -111.586414468327,
          40.1696335913972
        ],
        [
          -111.586396384876,
          40.1696222052378
        ],
        [
          -111.58638040769,
          40.1696091081158
        ],
        [
          -111.58636681176,
          40.1695945254509
        ],
        [
          -111.586355831091,
          40.1695787082313
        ],
        [
          -111.586347654678,
          40.1695619286938
        ],
        [
          -111.586345115226,
          40.1695468433814
        ],
        [
          -111.586344631848,
          40.169531638256
        ],
        [
          -111.586353667434,
          40.1695385768524
        ],
        [
          -111.586363331362,
          40.1695450020661
        ],
        [
          -111.586373573798,
          40.1695508807641
        ],
        [
          -111.586384341923,
          40.1695561826315
        ],
        [
          -111.586395580209,
          40.1695608803282
        ],
        [
          -111.586407230703,
          40.1695649496294
        ],
        [
          -111.586419233327,
          40.1695683695509
        ],
        [
          -111.586431526186,
          40.1695711224571
        ],
        [
          -111.586444045888,
          40.1695731941522
        ],
        [
          -111.586456727874,
          40.1695745739529
        ],
        [
          -111.586469506745,
          40.169575254744
        ],
        [
          -111.586482316604,
          40.1695752330149
        ],
        [
          -111.586495091394,
          40.1695745088776
        ],
        [
          -111.586507765238,
          40.1695730860663
        ],
        [
          -111.58652027278,
          40.169570971918
        ],
        [
          -111.586532549523,
          40.1695681773348
        ],
        [
          -111.586649419444,
          40.1696158462848
        ]
      ]
    ]
  }
}