{
  "type": "Feature",
  "properties": {
    "parcel_id": "361060041",
    "owner_name_raw": "UTAH DEPARTMENT OF TRANSPORTATION",
    "owner_class": "STATE",
    "epsg": "EPSG:4326"
  },
  "geometry": {
    "type": "Polygon",
    "coordinates": [
      [
        [
          -111.635170175885,
          40.2148816658917
        ],
        [
          -111.635147535645,
          40.2148917847676
        ],
        [
          -111.635090289605,
          40.2148136956261
        ],
        [
          -111.635113315223,
          40.2148038785698
        ],
        [
          -111.635170175885,
          40.2148816658917
        ]
      ]
    ]
  }
}