{
  "type": "Feature",
  "properties": {
    "parcel_id": "361100004",
    "owner_name_raw": "UTAH COUNTY",
    "owner_class": "UNCLASSIFIED",
    "epsg": "EPSG:4326"
  },
  "geometry": {
    "type": "Polygon",
    "coordinates": [
      [
        [
          -111.683169221353,
          40.3074572245541
        ],
        [
          -111.68316920159,
          40.3074517353204
        ],
        [
          -111.683700157127,
          40.3074505460892
        ],
        [
          -111.683700245162,
          40.3074560353229
        ],
        [
          -111.683169221353,
          40.3074572245541
        ]
      ]
    ]
  }
}