{
  "type": "Feature",
  "properties": {
    "parcel_id": "361570005",
    "owner_name_raw": "UTAH DEPARTMENT OF TRANSPORTATION",
    "owner_class": "STATE",
    "epsg": "EPSG:4326"
  },
  "geometry": {
    "type": "Polygon",
    "coordinates": [
      [
        [
          -111.793340324478,
          40.4323583788416
        ],
        [
          -111.792981336131,
          40.4323618277905
        ],
        [
          -111.792980524054,
          40.4319658334308
        ],
        [
          -111.79333960852,
          40.4319646156247
        ],
        [
          -111.793340324478,
          40.4323583788416
        ]
      ]
    ]
  }
}