{
  "type": "Feature",
  "properties": {
    "parcel_id": "361570011",
    "owner_name_raw": "UTAH DEPARTMENT OF TRANSPORTATION",
    "owner_class": "STATE",
    "epsg": "EPSG:4326"
  },
  "geometry": {
    "type": "Polygon",
    "coordinates": [
      [
        [
          -111.794220025771,
          40.4319616316237
        ],
        [
          -111.794220114704,
          40.4320152465266
        ],
        [
          -111.79388154147,
          40.4320172506742
        ],
        [
          -111.793922340255,
          40.431962117105
        ],
        [
          -111.794220025771,
          40.4319616316237
        ]
      ]
    ]
  }
}