{
  "type": "Feature",
  "properties": {
    "parcel_id": "363470031",
    "owner_name_raw": "BRGK-UTAH LLC",
    "owner_class": "UNCLASSIFIED",
    "epsg": "EPSG:4326"
  },
  "geometry": {
    "type": "Polygon",
    "coordinates": [
      [
        [
          -111.64257287324,
          40.2469762643198
        ],
        [
          -111.642572997207,
          40.2469318880912
        ],
        [
          -111.64268761056,
          40.2469320739035
        ],
        [
          -111.64268748749,
          40.2469764508176
        ],
        [
          -111.64257287324,
          40.2469762643198
        ]
      ]
    ]
  }
}