{
  "type": "Feature",
  "properties": {
    "parcel_id": "364430006",
    "owner_name_raw": "UTAH VALLEY UNIVERSITY",
    "owner_class": "UNCLASSIFIED",
    "epsg": "EPSG:4326"
  },
  "geometry": {
    "type": "Polygon",
    "coordinates": [
      [
        [
          -111.712415258833,
          40.2804743291551
        ],
        [
          -111.712415208527,
          40.2804743366935
        ],
        [
          -111.712094721075,
          40.2802376053217
        ],
        [
          -111.712068296349,
          40.2802199209489
        ],
        [
          -111.712039729394,
          40.2802042948686
        ],
        [
          -111.712009294605,
          40.280190877176
        ],
        [
          -111.711977284318,
          40.2801797967537
        ],
        [
          -111.712194596666,
          40.2796413844573
        ],
        [
          -111.713107966816,
          40.279928951555
        ],
        [
          -111.713154902892,
          40.280044458049
        ],
        [
          -111.712912796143,
          40.2801727880106
        ],
        [
          -111.712907699102,
          40.2801671451049
        ],
        [
          -111.712823460485,
          40.2802117969646
        ],
        [
          -111.712828558424,
          40.2802174378106
        ],
        [
          -111.712735687895,
          40.2802666654968
        ],
        [
          -111.712730589955,
          40.280261022599
        ],
        [
          -111.712644464876,
          40.2803066735878
        ],
        [
          -111.712649562815,
          40.2803123151112
        ],
        [
          -111.712554275818,
          40.2803628222128
        ],
        [
          -111.712549177879,
          40.2803571813789
        ],
        [
          -111.712465145874,
          40.2804017214067
        ],
        [
          -111.712470242915,
          40.2804073622369
        ],
        [
          -111.712395128486,
          40.280448024035
        ],
        [
          -111.712422598069,
          40.2804683134634
        ],
        [
          -111.712415258833,
          40.2804743291551
        ]
      ]
    ]
  }
}