{
  "type": "Feature",
  "properties": {
    "parcel_id": "367850007",
    "owner_name_raw": "UTAH DEPARTMENT OF TRANSPORTATION",
    "owner_class": "STATE",
    "epsg": "EPSG:4326"
  },
  "geometry": {
    "type": "Polygon",
    "coordinates": [
      [
        [
          -111.723694640288,
          40.3095684276047
        ],
        [
          -111.723820824839,
          40.3095677912215
        ],
        [
          -111.723821258725,
          40.3095914511087
        ],
        [
          -111.723694632203,
          40.3095722959101
        ],
        [
          -111.723694640288,
          40.3095684276047
        ]
      ]
    ]
  }
}