{
  "type": "Feature",
  "properties": {
    "parcel_id": "368160006",
    "owner_name_raw": "UTAH DEPARTMENT OF TRANSPORTATION",
    "owner_class": "STATE",
    "epsg": "EPSG:4326"
  },
  "geometry": {
    "type": "Polygon",
    "coordinates": [
      [
        [
          -111.724760760867,
          40.272290321811
        ],
        [
          -111.724781973684,
          40.2722798153513
        ],
        [
          -111.724847108728,
          40.2723595743423
        ],
        [
          -111.725087081979,
          40.2726506185704
        ],
        [
          -111.725072149284,
          40.2726590619371
        ],
        [
          -111.724760760867,
          40.272290321811
        ]
      ]
    ]
  }
}