{
  "type": "Feature",
  "properties": {
    "parcel_id": "368340017",
    "owner_name_raw": "MAHANAIM PROPERTIES UTAH LLC",
    "owner_class": "UNCLASSIFIED",
    "epsg": "EPSG:4326"
  },
  "geometry": {
    "type": "Polygon",
    "coordinates": [
      [
        [
          -111.47417894989,
          40.2274848306823
        ],
        [
          -111.474501928371,
          40.2269631940844
        ],
        [
          -111.475126025728,
          40.2271343199176
        ],
        [
          -111.474695236837,
          40.2277903932634
        ],
        [
          -111.47467166684,
          40.2277757840065
        ],
        [
          -111.47417894989,
          40.2274848306823
        ]
      ]
    ]
  }
}