{
  "type": "Feature",
  "properties": {
    "parcel_id": "370520015",
    "owner_name_raw": "UNITED STATES OF AMERICA",
    "owner_class": "UNCLASSIFIED",
    "epsg": "EPSG:4326"
  },
  "geometry": {
    "type": "Polygon",
    "coordinates": [
      [
        [
          -111.470499632844,
          40.0488827124709
        ],
        [
          -111.468438259779,
          40.0489079192044
        ],
        [
          -111.468423233659,
          40.0477797382121
        ],
        [
          -111.468476921472,
          40.0477662207275
        ],
        [
          -111.468662077727,
          40.047719601648
        ],
        [
          -111.468751860957,
          40.047695676755
        ],
        [
          -111.468840404034,
          40.0476691815307
        ],
        [
          -111.46892758144,
          40.0476401535313
        ],
        [
          -111.469013269595,
          40.0476086339034
        ],
        [
          -111.469800399498,
          40.0473063764027
        ],
        [
          -111.469867720694,
          40.0472828221024
        ],
        [
          -111.469937106993,
          40.0472630897548
        ],
        [
          -111.470008188706,
          40.0472472844969
        ],
        [
          -111.470080587111,
          40.0472354905415
        ],
        [
          -111.470153916471,
          40.0472277707286
        ],
        [
          -111.470227786089,
          40.0472241661908
        ],
        [
          -111.470301802388,
          40.0472246961335
        ],
        [
          -111.470375571012,
          40.0472293577331
        ],
        [
          -111.471125707393,
          40.0472979420997
        ],
        [
          -111.471261485487,
          40.0473087830993
        ],
        [
          -111.471397624655,
          40.0473165284958
        ],
        [
          -111.471534004491,
          40.0473211714396
        ],
        [
          -111.471670504371,
          40.0473227078249
        ],
        [
          -111.471807003569,
          40.0473211362931
        ],
        [
          -111.471943381356,
          40.047316458234
        ],
        [
          -111.472079517114,
          40.0473086777843
        ],
        [
          -111.472215290436,
          40.0472978018245
        ],
        [
          -111.472350581238,
          40.0472838399724
        ],
        [
          -111.47248526986,
          40.0472668045747
        ],
        [
          -111.472619237178,
          40.0472467106962
        ],
        [
          -111.472752364703,
          40.0472235761062
        ],
        [
          -111.472884534689,
          40.047197421263
        ],
        [
          -111.47301563024,
          40.0471682692961
        ],
        [
          -111.473145535407,
          40.0471361459851
        ],
        [
          -111.473274135295,
          40.0471010797374
        ],
        [
          -111.474872895752,
          40.046644571671
        ],
        [
          -111.475003047808,
          40.046604704343
        ],
        [
          -111.475130668455,
          40.0465602993586
        ],
        [
          -111.475255487905,
          40.04651145058
        ],
        [
          -111.475377242292,
          40.0464582612631
        ],
        [
          -111.476774957093,
          40.0458138007186
        ],
        [
          -111.477460545928,
          40.0454976782938
        ],
        [
          -111.477539553285,
          40.0454599491472
        ],
        [
          -111.477617015118,
          40.0454203863991
        ],
        [
          -111.47769285884,
          40.0453790271191
        ],
        [
          -111.477767013381,
          40.0453359100606
        ],
        [
          -111.477839409252,
          40.0452910756237
        ],
        [
          -111.477909978614,
          40.0452445658181
        ],
        [
          -111.477978655338,
          40.0451964242233
        ],
        [
          -111.478045375071,
          40.0451466959477
        ],
        [
          -111.47811007529,
          40.0450954275867
        ],
        [
          -111.478172695367,
          40.0450426671787
        ],
        [
          -111.478233176624,
          40.0449884641606
        ],
        [
          -111.478291462385,
          40.0449328693207
        ],
        [
          -111.478347498032,
          40.0448759347519
        ],
        [
          -111.478401231057,
          40.0448177138024
        ],
        [
          -111.478452611107,
          40.044758261026
        ],
        [
          -111.478501590036,
          40.0446976321307
        ],
        [
          -111.478997388208,
          40.0440626404602
        ],
        [
          -111.479694060457,
          40.0450589426003
        ],
        [
          -111.479710579577,
          40.0464984369506
        ],
        [
          -111.479735562623,
          40.0486752681815
        ],
        [
          -111.470499596013,
          40.048882682214
        ],
        [
          -111.470499632844,
          40.0488827124709
        ]
      ]
    ]
  }
}