{
  "type": "Feature",
  "properties": {
    "parcel_id": "372690006",
    "owner_name_raw": "UTAH DEPARTMENT OF TRANSPORTATION",
    "owner_class": "STATE",
    "epsg": "EPSG:4326"
  },
  "geometry": {
    "type": "Polygon",
    "coordinates": [
      [
        [
          -111.8279768735,
          40.388322513116
        ],
        [
          -111.827569825285,
          40.3883342666487
        ],
        [
          -111.82757135332,
          40.3883156421769
        ],
        [
          -111.82797744393,
          40.3883057182461
        ],
        [
          -111.827976926501,
          40.388323687922
        ],
        [
          -111.8279768735,
          40.388322513116
        ]
      ]
    ]
  }
}