{
  "type": "Feature",
  "properties": {
    "parcel_id": "380410005",
    "owner_name_raw": "UTAH DEPARTMENT OF TRANSPORTATION",
    "owner_class": "STATE",
    "epsg": "EPSG:4326"
  },
  "geometry": {
    "type": "Polygon",
    "coordinates": [
      [
        [
          -111.674687913243,
          40.3123401442055
        ],
        [
          -111.674365286004,
          40.3123425005762
        ],
        [
          -111.674363306117,
          40.3121835851152
        ],
        [
          -111.674685933357,
          40.3121812821685
        ],
        [
          -111.674687913243,
          40.3123401442055
        ]
      ]
    ]
  }
}