{
  "type": "Feature",
  "properties": {
    "parcel_id": "381700001",
    "owner_name_raw": "UTAH VALLEY REPAIR INC",
    "owner_class": "UNCLASSIFIED",
    "epsg": "EPSG:4326"
  },
  "geometry": {
    "type": "Polygon",
    "coordinates": [
      [
        [
          -111.671645085814,
          40.2552839037673
        ],
        [
          -111.672013051924,
          40.2548028603087
        ],
        [
          -111.67231112641,
          40.2549767314365
        ],
        [
          -111.671877354214,
          40.2555343570571
        ],
        [
          -111.671645085814,
          40.2552839037673
        ]
      ]
    ]
  }
}