{
  "type": "Feature",
  "properties": {
    "parcel_id": "382080008",
    "owner_name_raw": "UTAH DEPARTMENT OF TRANSPORTATION",
    "owner_class": "STATE",
    "epsg": "EPSG:4326"
  },
  "geometry": {
    "type": "Polygon",
    "coordinates": [
      [
        [
          -111.696899630907,
          40.2737061402145
        ],
        [
          -111.700025698028,
          40.2737335651317
        ],
        [
          -111.700023892414,
          40.2738014474768
        ],
        [
          -111.699904516194,
          40.2738024899432
        ],
        [
          -111.698800606186,
          40.2737929130969
        ],
        [
          -111.698639504119,
          40.2737832800479
        ],
        [
          -111.696959455112,
          40.2737686807158
        ],
        [
          -111.696898630184,
          40.2737723865791
        ],
        [
          -111.696899618331,
          40.2737064157386
        ],
        [
          -111.696899630907,
          40.2737061402145
        ]
      ]
    ]
  }
}