{
  "type": "Feature",
  "properties": {
    "parcel_id": "383110049",
    "owner_name_raw": "EAGLE'S LANDING UTAH HOLDINGS LLC",
    "owner_class": "UNCLASSIFIED",
    "epsg": "EPSG:4326"
  },
  "geometry": {
    "type": "Polygon",
    "coordinates": [
      [
        [
          -111.525272961904,
          39.8746318014708
        ],
        [
          -111.525272981667,
          39.8746317594167
        ],
        [
          -111.524926673938,
          39.8743085785214
        ],
        [
          -111.52491681036,
          39.874297226106
        ],
        [
          -111.524910058918,
          39.8742846034006
        ],
        [
          -111.524906684993,
          39.8742712065658
        ],
        [
          -111.524906821202,
          39.8742575621913
        ],
        [
          -111.524910462194,
          39.8742442065972
        ],
        [
          -111.524917464849,
          39.8742316647527
        ],
        [
          -111.524927553916,
          39.8742204296411
        ],
        [
          -111.524940332822,
          39.8742109428823
        ],
        [
          -111.525363745647,
          39.873954649444
        ],
        [
          -111.525917182422,
          39.8744974454294
        ],
        [
          -111.525439085553,
          39.8747868319592
        ],
        [
          -111.525272961904,
          39.8746318014708
        ]
      ]
    ]
  }
}