{
  "type": "Feature",
  "properties": {
    "parcel_id": "384310020",
    "owner_name_raw": "UTAH DEPARTMENT OF TRANSPORTATION",
    "owner_class": "STATE",
    "epsg": "EPSG:4326"
  },
  "geometry": {
    "type": "Polygon",
    "coordinates": [
      [
        [
          -111.759166682711,
          40.326311383987
        ],
        [
          -111.760421436924,
          40.3281616082355
        ],
        [
          -111.760344894469,
          40.3281110514128
        ],
        [
          -111.760266451083,
          40.3280622173005
        ],
        [
          -111.760186173457,
          40.3280151474207
        ],
        [
          -111.760104129844,
          40.3279698817954
        ],
        [
          -111.760020389995,
          40.3279264589128
        ],
        [
          -111.759935025107,
          40.3278849156942
        ],
        [
          -111.759848107754,
          40.327845287463
        ],
        [
          -111.759759711834,
          40.3278076079139
        ],
        [
          -111.759070706706,
          40.3267489392238
        ],
        [
          -111.759086956741,
          40.3266386359285
        ],
        [
          -111.759108388937,
          40.326528848126
        ],
        [
          -111.759134975679,
          40.3264197172747
        ],
        [
          -111.759166682711,
          40.326311383987
        ]
      ]
    ]
  }
}