{
  "type": "Feature",
  "properties": {
    "parcel_id": "386720008",
    "owner_name_raw": "LKED-NCOM LLC",
    "owner_class": "STATE",
    "epsg": "EPSG:4326"
  },
  "geometry": {
    "type": "Polygon",
    "coordinates": [
      [
        [
          -111.656514620448,
          40.2063343661036
        ],
        [
          -111.656216401333,
          40.2064418573949
        ],
        [
          -111.65617627905,
          40.206457353524
        ],
        [
          -111.656137343546,
          40.2064745248671
        ],
        [
          -111.656099714621,
          40.2064933185894
        ],
        [
          -111.656063508053,
          40.2065136768639
        ],
        [
          -111.656028835245,
          40.2065355370498
        ],
        [
          -111.655995802881,
          40.2065588318851
        ],
        [
          -111.655964512595,
          40.2065834896933
        ],
        [
          -111.655935060665,
          40.2066094346047
        ],
        [
          -111.655913479538,
          40.2066295115421
        ],
        [
          -111.655882126942,
          40.2066572383349
        ],
        [
          -111.655849037539,
          40.2066837617765
        ],
        [
          -111.655814290407,
          40.2067090184815
        ],
        [
          -111.655777968587,
          40.2067329480916
        ],
        [
          -111.655740158883,
          40.2067554934204
        ],
        [
          -111.655700951653,
          40.2067766005892
        ],
        [
          -111.655660440597,
          40.2067962191567
        ],
        [
          -111.655618722531,
          40.2068143022387
        ],
        [
          -111.65560573918,
          40.2068196048015
        ],
        [
          -111.655576595137,
          40.2067739824405
        ],
        [
          -111.655544820827,
          40.2067294385374
        ],
        [
          -111.655556478264,
          40.2067246772702
        ],
        [
          -111.655592547857,
          40.2067090540421
        ],
        [
          -111.655627572595,
          40.2066921007981
        ],
        [
          -111.655661468465,
          40.2066738582026
        ],
        [
          -111.655694154163,
          40.2066543700125
        ],
        [
          -111.655725551285,
          40.2066336829728
        ],
        [
          -111.65575558452,
          40.206611846704
        ],
        [
          -111.655784181829,
          40.206588913583
        ],
        [
          -111.655811274615,
          40.206564938618
        ],
        [
          -111.65583285664,
          40.2065448609753
        ],
        [
          -111.65586712508,
          40.2065146961162
        ],
        [
          -111.655903526802,
          40.2064860258236
        ],
        [
          -111.655941950239,
          40.2064589379721
        ],
        [
          -111.655982277624,
          40.2064335155861
        ],
        [
          -111.656024385356,
          40.2064098365856
        ],
        [
          -111.656068144378,
          40.2063879735471
        ],
        [
          -111.656113420572,
          40.2063679934812
        ],
        [
          -111.656160075169,
          40.2063499576272
        ],
        [
          -111.656458288893,
          40.2062424703065
        ],
        [
          -111.656485354289,
          40.2062313014622
        ],
        [
          -111.656510739742,
          40.2062180297532
        ],
        [
          -111.656534166196,
          40.2062028010711
        ],
        [
          -111.656555376131,
          40.2061857828197
        ],
        [
          -111.65657413639,
          40.2061671620752
        ],
        [
          -111.656590240747,
          40.2061471435297
        ],
        [
          -111.65660351217,
          40.2061259472411
        ],
        [
          -111.656613804771,
          40.2061038062138
        ],
        [
          -111.656621005404,
          40.2060809638381
        ],
        [
          -111.656625034915,
          40.206057671214
        ],
        [
          -111.656625849008,
          40.2060341843912
        ],
        [
          -111.656623438735,
          40.2060107615546
        ],
        [
          -111.656617830592,
          40.2059876601859
        ],
        [
          -111.656609086226,
          40.2059651342332
        ],
        [
          -111.656597301762,
          40.2059434313195
        ],
        [
          -111.656582606746,
          40.2059227900206
        ],
        [
          -111.656407141516,
          40.2057042462801
        ],
        [
          -111.656198484435,
          40.2054443589955
        ],
        [
          -111.656169001671,
          40.2054113223608
        ],
        [
          -111.656135450564,
          40.2053806329646
        ],
        [
          -111.656098149406,
          40.2053525819514
        ],
        [
          -111.65605745206,
          40.2053274354363
        ],
        [
          -111.65601374461,
          40.2053054319802
        ],
        [
          -111.655967441697,
          40.2052867803265
        ],
        [
          -111.655918982581,
          40.2052716574208
        ],
        [
          -111.65586882698,
          40.2052602067319
        ],
        [
          -111.655826327225,
          40.205252931826
        ],
        [
          -111.655783470246,
          40.2052470040288
        ],
        [
          -111.655740329214,
          40.2052424334611
        ],
        [
          -111.655696977785,
          40.2052392279267
        ],
        [
          -111.655653489975,
          40.2052373928988
        ],
        [
          -111.65560994003,
          40.2052369315104
        ],
        [
          -111.655566402306,
          40.2052378445494
        ],
        [
          -111.655522951135,
          40.2052401304567
        ],
        [
          -111.655479660704,
          40.2052437853294
        ],
        [
          -111.655436604922,
          40.2052488029273
        ],
        [
          -111.6553938573,
          40.2052551746834
        ],
        [
          -111.655351490822,
          40.2052628897186
        ],
        [
          -111.655309577823,
          40.2052719348604
        ],
        [
          -111.655268189861,
          40.2052822946652
        ],
        [
          -111.655227397599,
          40.2052939514448
        ],
        [
          -111.655187270683,
          40.2053068852966
        ],
        [
          -111.654858812479,
          40.2054188884732
        ],
        [
          -111.653765434319,
          40.2057917183349
        ],
        [
          -111.653728306494,
          40.2058069628777
        ],
        [
          -111.653694427241,
          40.205826118637
        ],
        [
          -111.653664497825,
          40.2058487891059
        ],
        [
          -111.653639137752,
          40.2058745050268
        ],
        [
          -111.653618871949,
          40.2059027341047
        ],
        [
          -111.653604119896,
          40.2059328920253
        ],
        [
          -111.653595186944,
          40.2059643545498
        ],
        [
          -111.653592257997,
          40.2059964704365
        ],
        [
          -111.653592310997,
          40.2060195504784
        ],
        [
          -111.653459877765,
          40.2060186551588
        ],
        [
          -111.653459828358,
          40.2059966460701
        ],
        [
          -111.65346085561,
          40.2059732390302
        ],
        [
          -111.653464085044,
          40.2059499490708
        ],
        [
          -111.653469499926,
          40.2059268968823
        ],
        [
          -111.653477072195,
          40.2059042019234
        ],
        [
          -111.653486762611,
          40.2058819818015
        ],
        [
          -111.653498520956,
          40.2058603516635
        ],
        [
          -111.6535122863,
          40.205839423599
        ],
        [
          -111.653527987308,
          40.2058193060597
        ],
        [
          -111.653545542617,
          40.2058001032968
        ],
        [
          -111.653564861253,
          40.2057819148214
        ],
        [
          -111.653585843107,
          40.2057648348885
        ],
        [
          -111.653608379449,
          40.2057489520085
        ],
        [
          -111.653632353492,
          40.2057343484884
        ],
        [
          -111.653657641003,
          40.2057211000059
        ],
        [
          -111.653684110939,
          40.2057092752162
        ],
        [
          -111.653711626132,
          40.2056989353972
        ],
        [
          -111.655133461597,
          40.2052141030674
        ],
        [
          -111.655178610221,
          40.20519954741
        ],
        [
          -111.655224507794,
          40.2051864289887
        ],
        [
          -111.655271075917,
          40.2051747702124
        ],
        [
          -111.655318235045,
          40.2051645909965
        ],
        [
          -111.655365904625,
          40.2051559087291
        ],
        [
          -111.655414003231,
          40.2051487382412
        ],
        [
          -111.655462448704,
          40.2051430917815
        ],
        [
          -111.655511158293,
          40.2051389789951
        ],
        [
          -111.655560048797,
          40.2051364069075
        ],
        [
          -111.655609036702,
          40.2051353799124
        ],
        [
          -111.655658038333,
          40.205135899764
        ],
        [
          -111.655706969987,
          40.2051379655744
        ],
        [
          -111.655755748084,
          40.2051415738148
        ],
        [
          -111.655804289304,
          40.2051467183215
        ],
        [
          -111.655852510731,
          40.2051533903067
        ],
        [
          -111.655900329999,
          40.2051615783734
        ],
        [
          -111.655962846628,
          40.2051758566723
        ],
        [
          -111.656023248703,
          40.2051947108154
        ],
        [
          -111.656080963561,
          40.2052179620451
        ],
        [
          -111.656135444014,
          40.2052453899153
        ],
        [
          -111.656186173541,
          40.2052767343809
        ],
        [
          -111.656232671181,
          40.2053116982639
        ],
        [
          -111.656274496096,
          40.205349950071
        ],
        [
          -111.656311251749,
          40.2053911271365
        ],
        [
          -111.656519909729,
          40.2056510132531
        ],
        [
          -111.656695374958,
          40.2058695571652
        ],
        [
          -111.656716737572,
          40.2058995697577
        ],
        [
          -111.656733868692,
          40.2059311254776
        ],
        [
          -111.65674658004,
          40.2059638775099
        ],
        [
          -111.65675473191,
          40.2059974658922
        ],
        [
          -111.65675823471,
          40.2060315214708
        ],
        [
          -111.656757049943,
          40.2060656699576
        ],
        [
          -111.65675119063,
          40.2060995360441
        ],
        [
          -111.656740721167,
          40.2061327475261
        ],
        [
          -111.656725756618,
          40.2061649393942
        ],
        [
          -111.656706461453,
          40.2061957578458
        ],
        [
          -111.656683047734,
          40.2062248641729
        ],
        [
          -111.656655772789,
          40.2062519384851
        ],
        [
          -111.656624936383,
          40.2062766832249
        ],
        [
          -111.656590877424,
          40.2062988264383
        ],
        [
          -111.656553970236,
          40.206318124763
        ],
        [
          -111.656514620448,
          40.2063343661036
        ]
      ]
    ]
  }
}