{
  "type": "Feature",
  "properties": {
    "parcel_id": "386720009",
    "owner_name_raw": "LKED-NCOM LLC",
    "owner_class": "STATE",
    "epsg": "EPSG:4326"
  },
  "geometry": {
    "type": "Polygon",
    "coordinates": [
      [
        [
          -111.656519892661,
          40.2056510207999
        ],
        [
          -111.65631123558,
          40.2053911339973
        ],
        [
          -111.656274480035,
          40.2053499569612
        ],
        [
          -111.656232655231,
          40.2053117051752
        ],
        [
          -111.656186157705,
          40.205276741305
        ],
        [
          -111.656135428294,
          40.2052453968436
        ],
        [
          -111.656080947955,
          40.2052179689692
        ],
        [
          -111.656023233211,
          40.2051947177267
        ],
        [
          -111.655962831248,
          40.2051758635625
        ],
        [
          -111.655900314728,
          40.2051615852342
        ],
        [
          -111.655852495423,
          40.2051533971126
        ],
        [
          -111.655804273955,
          40.2051467250736
        ],
        [
          -111.655755732693,
          40.2051415805145
        ],
        [
          -111.655706954551,
          40.2051379722232
        ],
        [
          -111.655658022848,
          40.2051359063632
        ],
        [
          -111.655609021166,
          40.2051353864636
        ],
        [
          -111.655560033207,
          40.2051364134124
        ],
        [
          -111.655511142648,
          40.2051389854555
        ],
        [
          -111.655462433,
          40.2051430981991
        ],
        [
          -111.655413987467,
          40.205148744618
        ],
        [
          -111.655365888798,
          40.205155915067
        ],
        [
          -111.655318219153,
          40.2051645972974
        ],
        [
          -111.655271059958,
          40.2051747764785
        ],
        [
          -111.655224491767,
          40.2051864352221
        ],
        [
          -111.655178594123,
          40.2051995536129
        ],
        [
          -111.655133445428,
          40.2052141092421
        ],
        [
          -111.653711609962,
          40.2056989422579
        ],
        [
          -111.6536840948,
          40.2057092820379
        ],
        [
          -111.653657624891,
          40.205721106787
        ],
        [
          -111.653632337403,
          40.2057343552277
        ],
        [
          -111.653608363378,
          40.2057489587047
        ],
        [
          -111.653585827051,
          40.2057648415408
        ],
        [
          -111.653564845208,
          40.2057819214291
        ],
        [
          -111.653545526577,
          40.2058001098594
        ],
        [
          -111.653527971271,
          40.205819312577
        ],
        [
          -111.653512270261,
          40.2058394300711
        ],
        [
          -111.653498504911,
          40.2058603580906
        ],
        [
          -111.653486746554,
          40.205881988184
        ],
        [
          -111.653477056124,
          40.2059042082621
        ],
        [
          -111.653469483836,
          40.205926903178
        ],
        [
          -111.653464068932,
          40.2059499553247
        ],
        [
          -111.653460839471,
          40.2059732452437
        ],
        [
          -111.653459812188,
          40.2059966522448
        ],
        [
          -111.653459861595,
          40.2060186627055
        ],
        [
          -111.653301764394,
          40.2060175944965
        ],
        [
          -111.653240967482,
          40.2060182332783
        ],
        [
          -111.65318026078,
          40.2060208411942
        ],
        [
          -111.65311975358,
          40.2060254135487
        ],
        [
          -111.653059554818,
          40.2060319421096
        ],
        [
          -111.652999772873,
          40.2060404151225
        ],
        [
          -111.652940515374,
          40.2060508173323
        ],
        [
          -111.652881889005,
          40.2060631300103
        ],
        [
          -111.652823999316,
          40.2060773309884
        ],
        [
          -111.652766950528,
          40.2060933946985
        ],
        [
          -111.652710845349,
          40.2061112922187
        ],
        [
          -111.652655784789,
          40.2061309913258
        ],
        [
          -111.652601867977,
          40.2061524565527
        ],
        [
          -111.652549191982,
          40.2061756492527
        ],
        [
          -111.65249785164,
          40.2062005276688
        ],
        [
          -111.652447939383,
          40.2062270470092
        ],
        [
          -111.652399545069,
          40.2062551595276
        ],
        [
          -111.652352755826,
          40.2062848146094
        ],
        [
          -111.652307655891,
          40.206315958863
        ],
        [
          -111.652264326461,
          40.2063485362154
        ],
        [
          -111.652222845545,
          40.2063824880137
        ],
        [
          -111.652183287821,
          40.2064177531306
        ],
        [
          -111.65214572451,
          40.2064542680741
        ],
        [
          -111.652110223237,
          40.2064919671023
        ],
        [
          -111.652076847918,
          40.2065307823415
        ],
        [
          -111.652045658641,
          40.2065706439085
        ],
        [
          -111.652016711558,
          40.2066114800365
        ],
        [
          -111.651990058783,
          40.206653217204
        ],
        [
          -111.651965748301,
          40.2066957802677
        ],
        [
          -111.65194382388,
          40.2067390925971
        ],
        [
          -111.651924324992,
          40.2067830762134
        ],
        [
          -111.651907286741,
          40.2068276519289
        ],
        [
          -111.651892739802,
          40.2068727394903
        ],
        [
          -111.651892980551,
          40.2068562733601
        ],
        [
          -111.651897030243,
          40.2067845150709
        ],
        [
          -111.65190721222,
          40.2067131122729
        ],
        [
          -111.651923482943,
          40.2066423703003
        ],
        [
          -111.651945772834,
          40.2065725916625
        ],
        [
          -111.651973986578,
          40.2065040747504
        ],
        [
          -111.652008003527,
          40.2064371125605
        ],
        [
          -111.652047678217,
          40.2063719914414
        ],
        [
          -111.652092840992,
          40.2063089898699
        ],
        [
          -111.652143298726,
          40.2062483772596
        ],
        [
          -111.652198835652,
          40.206190412809
        ],
        [
          -111.652259214284,
          40.2061353443927
        ],
        [
          -111.652324176429,
          40.2060834075018
        ],
        [
          -111.652393444297,
          40.2060348242362
        ],
        [
          -111.652466721685,
          40.2059898023552
        ],
        [
          -111.652543695243,
          40.2059485343887
        ],
        [
          -111.652624035817,
          40.2059111968137
        ],
        [
          -111.654348617906,
          40.205169208926
        ],
        [
          -111.65515304487,
          40.2038813526997
        ],
        [
          -111.656568421449,
          40.2056281629201
        ],
        [
          -111.656519925898,
          40.2056510530453
        ],
        [
          -111.656519892661,
          40.2056510207999
        ]
      ]
    ]
  }
}