{
  "type": "Feature",
  "properties": {
    "parcel_id": "387250320",
    "owner_name_raw": "CENTURY LAND HOLDINGS OF UTAH LLC",
    "owner_class": "UNCLASSIFIED",
    "epsg": "EPSG:4326"
  },
  "geometry": {
    "type": "Polygon",
    "coordinates": [
      [
        [
          -111.826459998074,
          40.3674462358618
        ],
        [
          -111.826461015865,
          40.3673854000793
        ],
        [
          -111.826611692983,
          40.367386875032
        ],
        [
          -111.826610675192,
          40.3674477114976
        ],
        [
          -111.826459998074,
          40.3674462358618
        ]
      ]
    ]
  }
}