{
  "type": "Feature",
  "properties": {
    "parcel_id": "387240284",
    "owner_name_raw": "CENTURY LAND HOLDINGS OF UTAH LLC",
    "owner_class": "UNCLASSIFIED",
    "epsg": "EPSG:4326"
  },
  "geometry": {
    "type": "Polygon",
    "coordinates": [
      [
        [
          -111.827316555172,
          40.3668434619512
        ],
        [
          -111.827317960137,
          40.3669587185262
        ],
        [
          -111.827238421506,
          40.3669592845558
        ],
        [
          -111.827237017439,
          40.3668440293506
        ],
        [
          -111.827316555172,
          40.3668434619512
        ]
      ]
    ]
  }
}