{
  "type": "Feature",
  "properties": {
    "parcel_id": "387430117",
    "owner_name_raw": "EDGE HOMES UTAH LLC",
    "owner_class": "UNCLASSIFIED",
    "epsg": "EPSG:4326"
  },
  "geometry": {
    "type": "Polygon",
    "coordinates": [
      [
        [
          -111.673484876839,
          40.1070589604848
        ],
        [
          -111.673486649215,
          40.1067867176648
        ],
        [
          -111.673506842885,
          40.1067829393403
        ],
        [
          -111.673526484511,
          40.1067777297209
        ],
        [
          -111.673545401089,
          40.1067711346925
        ],
        [
          -111.673563426,
          40.1067632123439
        ],
        [
          -111.673580400483,
          40.1067540324546
        ],
        [
          -111.673596175025,
          40.1067436758808
        ],
        [
          -111.673610610684,
          40.1067322338426
        ],
        [
          -111.673623580312,
          40.106719807121
        ],
        [
          -111.673632173741,
          40.1067126803965
        ],
        [
          -111.673642716634,
          40.1067072983103
        ],
        [
          -111.673654618194,
          40.1067039624615
        ],
        [
          -111.673667211485,
          40.1067028597833
        ],
        [
          -111.67380042176,
          40.1067033744009
        ],
        [
          -111.673799005117,
          40.1069204086985
        ],
        [
          -111.673798093327,
          40.1070601566724
        ],
        [
          -111.673484876839,
          40.1070589604848
        ]
      ]
    ]
  }
}