{
  "type": "Feature",
  "properties": {
    "parcel_id": "390170028",
    "owner_name_raw": "JF PROPERTIES UTAH LLC",
    "owner_class": "UNCLASSIFIED",
    "epsg": "EPSG:4326"
  },
  "geometry": {
    "type": "Polygon",
    "coordinates": [
      [
        [
          -111.698226913299,
          40.3072604722748
        ],
        [
          -111.698222308535,
          40.306988808342
        ],
        [
          -111.69906718484,
          40.3069839856198
        ],
        [
          -111.699185943917,
          40.3072542370133
        ],
        [
          -111.699186491889,
          40.3072543541556
        ],
        [
          -111.698226913299,
          40.3072604722748
        ]
      ]
    ]
  }
}