{
  "type": "Feature",
  "properties": {
    "parcel_id": "390850001",
    "owner_name_raw": "UTAH DEPARTMENT OF TRANSPORTATION",
    "owner_class": "STATE",
    "epsg": "EPSG:4326"
  },
  "geometry": {
    "type": "Polygon",
    "coordinates": [
      [
        [
          -111.881635904434,
          40.3766500950732
        ],
        [
          -111.876902460216,
          40.3766041389754
        ],
        [
          -111.87690167958,
          40.3759180135952
        ],
        [
          -111.881637792692,
          40.3759639968505
        ],
        [
          -111.881635904434,
          40.3766500950732
        ]
      ]
    ]
  }
}