{
  "type": "Feature",
  "properties": {
    "parcel_id": "392000003",
    "owner_name_raw": "UTAH DEPARTMENT OF TRANSPORTATION",
    "owner_class": "STATE",
    "epsg": "EPSG:4326"
  },
  "geometry": {
    "type": "Polygon",
    "coordinates": [
      [
        [
          -111.799965278426,
          40.4319450261065
        ],
        [
          -111.799965482343,
          40.4320199980863
        ],
        [
          -111.799480680449,
          40.4320229800334
        ],
        [
          -111.79948046665,
          40.4319470459831
        ],
        [
          -111.799965278426,
          40.4319450261065
        ]
      ]
    ]
  }
}