{
  "type": "Feature",
  "properties": {
    "parcel_id": "392110008",
    "owner_name_raw": "UTAH DEPARTMENT OF TRANSPORTATION",
    "owner_class": "STATE",
    "epsg": "EPSG:4326"
  },
  "geometry": {
    "type": "Polygon",
    "coordinates": [
      [
        [
          -111.823108567904,
          40.3770206600474
        ],
        [
          -111.823106435303,
          40.3770613512757
        ],
        [
          -111.823101384076,
          40.3770611295513
        ],
        [
          -111.822595941592,
          40.3770625242251
        ],
        [
          -111.822596917227,
          40.3770544952967
        ],
        [
          -111.822599933906,
          40.3770467664646
        ],
        [
          -111.822604875276,
          40.377039635828
        ],
        [
          -111.822611550749,
          40.3770333784142
        ],
        [
          -111.822619702854,
          40.3770282355703
        ],
        [
          -111.822629017166,
          40.3770244056549
        ],
        [
          -111.822639134435,
          40.377022036387
        ],
        [
          -111.822649664439,
          40.377021219149
        ],
        [
          -111.8231085697,
          40.3770206189873
        ],
        [
          -111.823108567904,
          40.3770206600474
        ]
      ]
    ]
  }
}