{
  "type": "Feature",
  "properties": {
    "parcel_id": "392800003",
    "owner_name_raw": "UTAH COUNTY",
    "owner_class": "UNCLASSIFIED",
    "epsg": "EPSG:4326"
  },
  "geometry": {
    "type": "Polygon",
    "coordinates": [
      [
        [
          -111.866912077651,
          40.3755297808517
        ],
        [
          -111.86689904621,
          40.3755086351195
        ],
        [
          -111.866881510967,
          40.3754894714589
        ],
        [
          -111.866859976447,
          40.3754728412489
        ],
        [
          -111.866835062241,
          40.375459222976
        ],
        [
          -111.86680748518,
          40.3754490084672
        ],
        [
          -111.866778038712,
          40.3754424916161
        ],
        [
          -111.866747570071,
          40.3754398599267
        ],
        [
          -111.865155107702,
          40.3754160362952
        ],
        [
          -111.864975767082,
          40.375390260937
        ],
        [
          -111.864797415101,
          40.3753607718951
        ],
        [
          -111.864620184239,
          40.3753275910687
        ],
        [
          -111.864444206139,
          40.3752907430987
        ],
        [
          -111.862803604851,
          40.3747205470608
        ],
        [
          -111.862607988613,
          40.3746341686678
        ],
        [
          -111.862366419057,
          40.3745488119136
        ],
        [
          -111.862337163157,
          40.3745403778882
        ],
        [
          -111.862306601394,
          40.3745352987876
        ],
        [
          -111.862275392769,
          40.3745336841329
        ],
        [
          -111.862223255448,
          40.3745338442731
        ],
        [
          -111.862213301329,
          40.3745332830822
        ],
        [
          -111.862203545418,
          40.3745316761274
        ],
        [
          -111.862194176084,
          40.3745290544359
        ],
        [
          -111.862162343384,
          40.3745181546291
        ],
        [
          -111.862162501487,
          40.3744391458625
        ],
        [
          -111.86225695395,
          40.374471950023
        ],
        [
          -111.864013467554,
          40.375094126279
        ],
        [
          -111.864155592755,
          40.3751419164339
        ],
        [
          -111.864300062799,
          40.375185435119
        ],
        [
          -111.864446656593,
          40.3752246157426
        ],
        [
          -111.864595149792,
          40.3752593983509
        ],
        [
          -111.864745315143,
          40.37528972972
        ],
        [
          -111.864896922838,
          40.3753155634373
        ],
        [
          -111.865049740857,
          40.3753368599726
        ],
        [
          -111.865203535332,
          40.3753535867384
        ],
        [
          -111.865358070896,
          40.3753657181396
        ],
        [
          -111.865513111053,
          40.3753732356131
        ],
        [
          -111.86566841853,
          40.3753761276559
        ],
        [
          -111.866831582313,
          40.3753803213627
        ],
        [
          -111.866879944015,
          40.3754423625982
        ],
        [
          -111.866902442321,
          40.3754424447204
        ],
        [
          -111.866907731426,
          40.3754553110038
        ],
        [
          -111.866910961965,
          40.375468566936
        ],
        [
          -111.866912087532,
          40.3754820220948
        ],
        [
          -111.866912077651,
          40.3755297808517
        ]
      ]
    ]
  }
}