{
  "type": "Feature",
  "properties": {
    "parcel_id": "393810002",
    "owner_name_raw": "UTAH COUNTY",
    "owner_class": "UNCLASSIFIED",
    "epsg": "EPSG:4326"
  },
  "geometry": {
    "type": "Polygon",
    "coordinates": [
      [
        [
          -111.661393212653,
          40.2363181766584
        ],
        [
          -111.661393476757,
          40.2362694628533
        ],
        [
          -111.661484791404,
          40.2362697536165
        ],
        [
          -111.6614845273,
          40.2363184674215
        ],
        [
          -111.661393212653,
          40.2363181766584
        ]
      ]
    ]
  }
}