{
  "type": "Feature",
  "properties": {
    "parcel_id": "401780009",
    "owner_name_raw": "UTAH DEPARTMENT OF TRANSPORTATION",
    "owner_class": "STATE",
    "epsg": "EPSG:4326"
  },
  "geometry": {
    "type": "Polygon",
    "coordinates": [
      [
        [
          -111.916495482683,
          40.3707733271292
        ],
        [
          -111.916487529898,
          40.3695230544788
        ],
        [
          -111.916488484895,
          40.369515047711
        ],
        [
          -111.916491469664,
          40.3695073362607
        ],
        [
          -111.916496369743,
          40.3695002158452
        ],
        [
          -111.916502997227,
          40.3694939595169
        ],
        [
          -111.916511097966,
          40.3694888071924
        ],
        [
          -111.916520361314,
          40.3694849564521
        ],
        [
          -111.916530432043,
          40.3694825549636
        ],
        [
          -111.916540923962,
          40.369481694819
        ],
        [
          -111.916712282094,
          40.369480673677
        ],
        [
          -111.916629677512,
          40.3695605478772
        ],
        [
          -111.916631165122,
          40.3700037283673
        ],
        [
          -111.916617746987,
          40.3704051457907
        ],
        [
          -111.916620101471,
          40.3707728542099
        ],
        [
          -111.916495524904,
          40.3707733202852
        ],
        [
          -111.916495482683,
          40.3707733271292
        ]
      ]
    ]
  }
}