{
  "type": "Feature",
  "properties": {
    "parcel_id": "402300011",
    "owner_name_raw": "BANK OF UTAH (ET AL)",
    "owner_class": "UNCLASSIFIED",
    "epsg": "EPSG:4326"
  },
  "geometry": {
    "type": "Polygon",
    "coordinates": [
      [
        [
          -111.715677839333,
          40.346077745947
        ],
        [
          -111.715667334686,
          40.3460769665893
        ],
        [
          -111.71565723068,
          40.3460746420551
        ],
        [
          -111.715647914708,
          40.3460708614676
        ],
        [
          -111.715639743944,
          40.3460657697755
        ],
        [
          -111.715633031661,
          40.3460595621955
        ],
        [
          -111.715628035208,
          40.3460524767278
        ],
        [
          -111.71562494615,
          40.3460447850313
        ],
        [
          -111.715623882924,
          40.3460367820076
        ],
        [
          -111.715620303138,
          40.3454860045283
        ],
        [
          -111.71598030209,
          40.3454914098805
        ],
        [
          -111.715982532607,
          40.3460770736215
        ],
        [
          -111.715677839333,
          40.346077745947
        ]
      ]
    ]
  }
}