{
  "type": "Feature",
  "properties": {
    "parcel_id": "402580048",
    "owner_name_raw": "UTAH TRANSIT AUTHORITY",
    "owner_class": "UTA",
    "epsg": "EPSG:4326"
  },
  "geometry": {
    "type": "Polygon",
    "coordinates": [
      [
        [
          -111.878365159146,
          40.4093624880618
        ],
        [
          -111.87825252029,
          40.4092678960726
        ],
        [
          -111.878253019754,
          40.4091641361869
        ],
        [
          -111.87834360946,
          40.4092372299656
        ],
        [
          -111.878346797581,
          40.409290741229
        ],
        [
          -111.878320621572,
          40.409309038416
        ],
        [
          -111.878384504365,
          40.4093624442854
        ],
        [
          -111.878365189688,
          40.4093625031099
        ],
        [
          -111.878365159146,
          40.4093624880618
        ]
      ]
    ]
  }
}