{
  "type": "Feature",
  "properties": {
    "parcel_id": "402830006",
    "owner_name_raw": "TCI CABLEVISION OF UTAH INC",
    "owner_class": "UNCLASSIFIED",
    "epsg": "EPSG:4326"
  },
  "geometry": {
    "type": "Polygon",
    "coordinates": [
      [
        [
          -111.727785973232,
          40.3318275190335
        ],
        [
          -111.727777551489,
          40.3318041461203
        ],
        [
          -111.727774571814,
          40.3317800141891
        ],
        [
          -111.727769276245,
          40.3309310516261
        ],
        [
          -111.727770297476,
          40.3308655799988
        ],
        [
          -111.727774256364,
          40.3308001732682
        ],
        [
          -111.727781148274,
          40.3307349080114
        ],
        [
          -111.727790965137,
          40.3306698606397
        ],
        [
          -111.72780369546,
          40.3306051073098
        ],
        [
          -111.727819324339,
          40.3305407238343
        ],
        [
          -111.727837833475,
          40.330476785593
        ],
        [
          -111.727859201199,
          40.3304133674447
        ],
        [
          -111.727879345919,
          40.3303574679053
        ],
        [
          -111.727883106866,
          40.3303499478401
        ],
        [
          -111.72788872374,
          40.3303431333777
        ],
        [
          -111.727895979782,
          40.3303372874951
        ],
        [
          -111.727904594973,
          40.3303326357912
        ],
        [
          -111.727914236844,
          40.3303293577801
        ],
        [
          -111.727924533305,
          40.330327579964
        ],
        [
          -111.727935087007,
          40.3303273709505
        ],
        [
          -111.72794549067,
          40.3303287388057
        ],
        [
          -111.72852450338,
          40.3304509483335
        ],
        [
          -111.728602780847,
          40.330465641628
        ],
        [
          -111.728682064862,
          40.330476764951
        ],
        [
          -111.728762075519,
          40.3304842790342
        ],
        [
          -111.728842530346,
          40.330488157351
        ],
        [
          -111.728850885577,
          40.3318246661827
        ],
        [
          -111.727785973232,
          40.3318275190335
        ]
      ]
    ]
  }
}