{
  "type": "Feature",
  "properties": {
    "parcel_id": "403750002",
    "owner_name_raw": "BANK OF UTAH (ET AL)",
    "owner_class": "UNCLASSIFIED",
    "epsg": "EPSG:4326"
  },
  "geometry": {
    "type": "Polygon",
    "coordinates": [
      [
        [
          -111.712729838964,
          40.345894198111
        ],
        [
          -111.712115930299,
          40.3458908953545
        ],
        [
          -111.712120905169,
          40.3455803259777
        ],
        [
          -111.712758637155,
          40.345581097583
        ],
        [
          -111.712758365864,
          40.3457126010361
        ],
        [
          -111.712729838964,
          40.345894198111
        ]
      ]
    ]
  }
}