{
  "type": "Feature",
  "properties": {
    "parcel_id": "406060485",
    "owner_name_raw": "SCHMIDT UTAH RENTALS LLC",
    "owner_class": "UNCLASSIFIED",
    "epsg": "EPSG:4326"
  },
  "geometry": {
    "type": "Polygon",
    "coordinates": [
      [
        [
          -111.912306451664,
          40.403834036156
        ],
        [
          -111.912227829314,
          40.4038283303901
        ],
        [
          -111.912247503317,
          40.4036698746275
        ],
        [
          -111.91232612387,
          40.4036755790387
        ],
        [
          -111.912306451664,
          40.403834036156
        ]
      ]
    ]
  }
}