{
  "type": "Feature",
  "properties": {
    "parcel_id": "406060484",
    "owner_name_raw": "SCHMIDT UTAH RENTALS LLC",
    "owner_class": "UNCLASSIFIED",
    "epsg": "EPSG:4326"
  },
  "geometry": {
    "type": "Polygon",
    "coordinates": [
      [
        [
          -111.912227799669,
          40.403828329706
        ],
        [
          -111.912149177319,
          40.4038226246237
        ],
        [
          -111.91216885222,
          40.4036641688477
        ],
        [
          -111.912247473672,
          40.4036698746275
        ],
        [
          -111.912227799669,
          40.403828329706
        ]
      ]
    ]
  }
}