{
  "type": "Feature",
  "properties": {
    "parcel_id": "410170001",
    "owner_name_raw": "UTAH COUNTY",
    "owner_class": "UNCLASSIFIED",
    "epsg": "EPSG:4326"
  },
  "geometry": {
    "type": "Polygon",
    "coordinates": [
      [
        [
          -111.723251927159,
          40.3558579842767
        ],
        [
          -111.724207949319,
          40.3552252121765
        ],
        [
          -111.724218287131,
          40.3552328258109
        ],
        [
          -111.723262263175,
          40.3558655985243
        ],
        [
          -111.723251927159,
          40.3558579842767
        ]
      ]
    ]
  }
}