{
  "type": "Feature",
  "properties": {
    "parcel_id": "418810001",
    "owner_name_raw": "UTAH MILITARY ACADEMY",
    "owner_class": "UNCLASSIFIED",
    "epsg": "EPSG:4326"
  },
  "geometry": {
    "type": "Polygon",
    "coordinates": [
      [
        [
          -111.911671583506,
          40.4149215905413
        ],
        [
          -111.911250124518,
          40.4149239132349
        ],
        [
          -111.911149469845,
          40.4149230024329
        ],
        [
          -111.911048917898,
          40.4149194231542
        ],
        [
          -111.910948590682,
          40.4149131797411
        ],
        [
          -111.910848609925,
          40.4149042797683
        ],
        [
          -111.910547344623,
          40.4148730116176
        ],
        [
          -111.910476143427,
          40.414866544496
        ],
        [
          -111.910404680294,
          40.4148620543581
        ],
        [
          -111.910333049885,
          40.4148595471522
        ],
        [
          -111.910261347088,
          40.4148590261996
        ],
        [
          -111.910045967015,
          40.4148602087499
        ],
        [
          -111.910036988354,
          40.4133630060372
        ],
        [
          -111.91032050635,
          40.413376120396
        ],
        [
          -111.91060389859,
          40.4133907257022
        ],
        [
          -111.91088715155,
          40.4134068212578
        ],
        [
          -111.911170251713,
          40.4134244062934
        ],
        [
          -111.911660019494,
          40.4134532627735
        ],
        [
          -111.911671583506,
          40.4149215905413
        ]
      ]
    ]
  }
}