{
  "type": "Feature",
  "properties": {
    "parcel_id": "430630500",
    "owner_name_raw": "UTAH COUNTY",
    "owner_class": "UNCLASSIFIED",
    "epsg": "EPSG:4326"
  },
  "geometry": {
    "type": "Polygon",
    "coordinates": [
      [
        [
          -111.744649243865,
          40.0011243078431
        ],
        [
          -111.743994036053,
          40.001121372934
        ],
        [
          -111.743620698916,
          40.0011197000703
        ],
        [
          -111.743621362771,
          40.0010263079615
        ],
        [
          -111.74464957175,
          40.001037951962
        ],
        [
          -111.744649243865,
          40.0011243078431
        ]
      ]
    ]
  }
}