{
  "type": "Feature",
  "properties": {
    "parcel_id": "431140022",
    "owner_name_raw": "UTAH DEPARTMENT OF TRANSPORTATION",
    "owner_class": "STATE",
    "epsg": "EPSG:4326"
  },
  "geometry": {
    "type": "Polygon",
    "coordinates": [
      [
        [
          -111.901841616695,
          40.3213112458502
        ],
        [
          -111.901741665645,
          40.3213596669255
        ],
        [
          -111.900096845868,
          40.3193706983963
        ],
        [
          -111.900003781451,
          40.3192619853312
        ],
        [
          -111.899906172282,
          40.3191556142518
        ],
        [
          -111.899804119674,
          40.3190516955768
        ],
        [
          -111.899697729552,
          40.3189503371797
        ],
        [
          -111.899587112344,
          40.3188516442767
        ],
        [
          -111.899472382864,
          40.3187557193176
        ],
        [
          -111.899353660194,
          40.3186626618793
        ],
        [
          -111.899231067563,
          40.3185725685623
        ],
        [
          -111.899311621291,
          40.3185062359692
        ],
        [
          -111.899436935572,
          40.3185983662014
        ],
        [
          -111.899558299028,
          40.3186935214465
        ],
        [
          -111.899675586104,
          40.31879160325
        ],
        [
          -111.899788675461,
          40.3188925101298
        ],
        [
          -111.899897450104,
          40.3189961376814
        ],
        [
          -111.900001797501,
          40.3191023786856
        ],
        [
          -111.9001016097,
          40.3192111232198
        ],
        [
          -111.900196783443,
          40.3193222587715
        ],
        [
          -111.901841616695,
          40.3213112458502
        ]
      ]
    ]
  }
}