{
  "type": "Feature",
  "properties": {
    "parcel_id": "431760005",
    "owner_name_raw": "UTAH DEPARTMENT OF TRANSPORTATION",
    "owner_class": "STATE",
    "epsg": "EPSG:4326"
  },
  "geometry": {
    "type": "Polygon",
    "coordinates": [
      [
        [
          -111.880023310819,
          40.4125034232424
        ],
        [
          -111.880242740497,
          40.412502710541
        ],
        [
          -111.880289617542,
          40.4125493882855
        ],
        [
          -111.880331023252,
          40.4125989748723
        ],
        [
          -111.880366648039,
          40.4126510995389
        ],
        [
          -111.880396225537,
          40.4127053725459
        ],
        [
          -111.880419534597,
          40.4127613880918
        ],
        [
          -111.880436400938,
          40.412818727347
        ],
        [
          -111.880446698451,
          40.4128769615858
        ],
        [
          -111.880450350143,
          40.4129356553915
        ],
        [
          -111.880450736418,
          40.4130051658625
        ],
        [
          -111.880448416962,
          40.4130243498192
        ],
        [
          -111.880441243589,
          40.4130428244556
        ],
        [
          -111.880429490013,
          40.4130598848441
        ],
        [
          -111.880413604707,
          40.4130748800207
        ],
        [
          -111.880394193801,
          40.4130872378228
        ],
        [
          -111.880371997947,
          40.4130964867208
        ],
        [
          -111.880347864064,
          40.4131022738102
        ],
        [
          -111.880322713015,
          40.4131043782766
        ],
        [
          -111.87996224694,
          40.4131069958233
        ],
        [
          -111.879778664533,
          40.4131025452415
        ],
        [
          -111.879775341665,
          40.4125042282802
        ],
        [
          -111.880023310819,
          40.4125034232424
        ]
      ]
    ]
  }
}