{
  "type": "Feature",
  "properties": {
    "parcel_id": "432040004",
    "owner_name_raw": "UTAH COUNTY",
    "owner_class": "UNCLASSIFIED",
    "epsg": "EPSG:4326"
  },
  "geometry": {
    "type": "Polygon",
    "coordinates": [
      [
        [
          -111.69836017388,
          40.0982657720617
        ],
        [
          -111.694392694359,
          40.0982904314128
        ],
        [
          -111.694391950554,
          40.0982305215293
        ],
        [
          -111.695845407616,
          40.0982271496426
        ],
        [
          -111.69713708079,
          40.0982241398884
        ],
        [
          -111.698253615721,
          40.0982333107054
        ],
        [
          -111.698264194694,
          40.0982325793018
        ],
        [
          -111.698274378653,
          40.09823026975
        ],
        [
          -111.698283769333,
          40.0982264723694
        ],
        [
          -111.698291999492,
          40.0982213356643
        ],
        [
          -111.698298747272,
          40.0982150605157
        ],
        [
          -111.698303748789,
          40.0982078923261
        ],
        [
          -111.698306808446,
          40.0982001114221
        ],
        [
          -111.698307806591,
          40.0981920220916
        ],
        [
          -111.69830461847,
          40.0973128708847
        ],
        [
          -111.698301210261,
          40.0963723777802
        ],
        [
          -111.698354955567,
          40.0963719689097
        ],
        [
          -111.69836017388,
          40.0982657720617
        ]
      ]
    ]
  }
}