{
  "type": "Feature",
  "properties": {
    "parcel_id": "432640033",
    "owner_name_raw": "VINEYARD CITY",
    "owner_class": "STATE",
    "epsg": "EPSG:4326"
  },
  "geometry": {
    "type": "Polygon",
    "coordinates": [
      [
        [
          -111.761796109938,
          40.3000264680686
        ],
        [
          -111.761749617631,
          40.2997470441581
        ],
        [
          -111.76169821064,
          40.299521797149
        ],
        [
          -111.761846491951,
          40.2995214621246
        ],
        [
          -111.761796124311,
          40.3000265201374
        ],
        [
          -111.761796109938,
          40.3000264680686
        ]
      ]
    ]
  }
}