{
  "type": "Feature",
  "properties": {
    "parcel_id": "440120021",
    "owner_name_raw": "UTAH COUNTY",
    "owner_class": "UNCLASSIFIED",
    "epsg": "EPSG:4326"
  },
  "geometry": {
    "type": "Polygon",
    "coordinates": [
      [
        [
          -111.711571236826,
          40.3094773466553
        ],
        [
          -111.711703379903,
          40.3094772959638
        ],
        [
          -111.711697902875,
          40.309568999596
        ],
        [
          -111.711571236826,
          40.3094773466553
        ]
      ]
    ]
  }
}