{
  "type": "Feature",
  "properties": {
    "parcel_id": "440180044",
    "owner_name_raw": "UTAH DEPARTMENT OF TRANSPORTATION",
    "owner_class": "STATE",
    "epsg": "EPSG:4326"
  },
  "geometry": {
    "type": "Polygon",
    "coordinates": [
      [
        [
          -111.689527761039,
          40.3118035875758
        ],
        [
          -111.689527686478,
          40.3117871216182
        ],
        [
          -111.68977862726,
          40.3117869777688
        ],
        [
          -111.689778700922,
          40.3118029162789
        ],
        [
          -111.689527761039,
          40.3118035875758
        ]
      ]
    ]
  }
}