{
  "type": "Feature",
  "properties": {
    "parcel_id": "440990004",
    "owner_name_raw": "DUNN MR LLC SERIES SF 739 A SEPARATE SERIES OF DUNN MR LLC A UTAH (ET AL)",
    "owner_class": "UNCLASSIFIED",
    "epsg": "EPSG:4326"
  },
  "geometry": {
    "type": "Polygon",
    "coordinates": [
      [
        [
          -111.641930891324,
          40.118436809283
        ],
        [
          -111.641627918325,
          40.1184341342827
        ],
        [
          -111.641660754464,
          40.1184324346225
        ],
        [
          -111.641692864389,
          40.118426914643
        ],
        [
          -111.641723492606,
          40.1184177042199
        ],
        [
          -111.641751918478,
          40.1184050200586
        ],
        [
          -111.64177747319,
          40.1183891605959
        ],
        [
          -111.641799555479,
          40.1183704989782
        ],
        [
          -111.641817645782,
          40.1183494742822
        ],
        [
          -111.641831318464,
          40.1183265811843
        ],
        [
          -111.641839263754,
          40.118315607483
        ],
        [
          -111.641851171635,
          40.1183069809691
        ],
        [
          -111.641865930189,
          40.118301507158
        ],
        [
          -111.641882161313,
          40.1182996971766
        ],
        [
          -111.642064248024,
          40.1183011425315
        ],
        [
          -111.642063076621,
          40.1185069720171
        ],
        [
          -111.64193024813,
          40.1185059154824
        ],
        [
          -111.641930891324,
          40.118436809283
        ]
      ]
    ]
  }
}