{
  "type": "Feature",
  "properties": {
    "parcel_id": "441070008",
    "owner_name_raw": "DUNN MR LLC SERIES SF 768 A SEPARATE SERIES OF DUNN MR LLC A UTAH (ET AL)",
    "owner_class": "UNCLASSIFIED",
    "epsg": "EPSG:4326"
  },
  "geometry": {
    "type": "Polygon",
    "coordinates": [
      [
        [
          -111.641505820209,
          40.118135348999
        ],
        [
          -111.641316415822,
          40.1179310825952
        ],
        [
          -111.641447836653,
          40.1178756916569
        ],
        [
          -111.641596468306,
          40.1178765867658
        ],
        [
          -111.641616053376,
          40.1181051695797
        ],
        [
          -111.641586703236,
          40.1181082460489
        ],
        [
          -111.64155818861,
          40.1181143891406
        ],
        [
          -111.641531054675,
          40.1181234814032
        ],
        [
          -111.641505820209,
          40.118135348999
        ]
      ]
    ]
  }
}