{
  "type": "Feature",
  "properties": {
    "parcel_id": "452210500",
    "owner_name_raw": "UTAH COUNTY",
    "owner_class": "UNCLASSIFIED",
    "epsg": "EPSG:4326"
  },
  "geometry": {
    "type": "Polygon",
    "coordinates": [
      [
        [
          -111.818788250801,
          40.3640928823413
        ],
        [
          -111.821586830796,
          40.3641105128204
        ],
        [
          -111.821586202873,
          40.3641464890315
        ],
        [
          -111.81878853916,
          40.3641541488867
        ],
        [
          -111.818788250801,
          40.3640928823413
        ]
      ]
    ]
  }
}