{
  "type": "Feature",
  "properties": {
    "parcel_id": "453560405",
    "owner_name_raw": "State",
    "owner_class": "STATE",
    "epsg": "EPSG:4326"
  },
  "geometry": {
    "type": "Polygon",
    "coordinates": [
      [
        [
          -111.864883581128,
          40.3622002819787
        ],
        [
          -111.865155102313,
          40.3619630676502
        ],
        [
          -111.865192758303,
          40.3619901745881
        ],
        [
          -111.865227752317,
          40.3620192790258
        ],
        [
          -111.865259902332,
          40.362050229574
        ],
        [
          -111.865289041121,
          40.3620828652411
        ],
        [
          -111.865039031893,
          40.3622753008585
        ],
        [
          -111.864883581128,
          40.3622002819787
        ]
      ]
    ]
  }
}