{
  "type": "Feature",
  "properties": {
    "parcel_id": "453560409",
    "owner_name_raw": "SARATOGA SPRINGS",
    "owner_class": "STATE",
    "epsg": "EPSG:4326"
  },
  "geometry": {
    "type": "Polygon",
    "coordinates": [
      [
        [
          -111.865574373903,
          40.3621924117644
        ],
        [
          -111.865563202827,
          40.3621690051571
        ],
        [
          -111.865550291867,
          40.3621461240985
        ],
        [
          -111.865526481192,
          40.3620989382696
        ],
        [
          -111.865498265319,
          40.3620531841352
        ],
        [
          -111.865465791272,
          40.3620091001072
        ],
        [
          -111.865429228262,
          40.3619669158953
        ],
        [
          -111.865388766805,
          40.3619268513106
        ],
        [
          -111.865344617731,
          40.3618891151194
        ],
        [
          -111.865297011087,
          40.3618539039559
        ],
        [
          -111.865246194934,
          40.3618214012971
        ],
        [
          -111.865192434057,
          40.3617917765071
        ],
        [
          -111.865136008584,
          40.3617651839541
        ],
        [
          -111.86507721253,
          40.3617417622063
        ],
        [
          -111.86501635226,
          40.3617216333095
        ],
        [
          -111.864953744895,
          40.3617049021512
        ],
        [
          -111.86488971666,
          40.3616916559143
        ],
        [
          -111.864824601184,
          40.3616819636224
        ],
        [
          -111.864758737761,
          40.36167587578
        ],
        [
          -111.86463835992,
          40.3616681992155
        ],
        [
          -111.864639641816,
          40.3616132099354
        ],
        [
          -111.864764703473,
          40.3616211883668
        ],
        [
          -111.864816315131,
          40.3616255356213
        ],
        [
          -111.864867556145,
          40.3616319412583
        ],
        [
          -111.864918285221,
          40.361640387614
        ],
        [
          -111.864968362478,
          40.3616508513975
        ],
        [
          -111.865017649831,
          40.3616633037549
        ],
        [
          -111.865066011375,
          40.3616777103487
        ],
        [
          -111.865113313756,
          40.3616940314524
        ],
        [
          -111.865159426542,
          40.3617122220607
        ],
        [
          -111.86520422258,
          40.3617322320126
        ],
        [
          -111.865247578349,
          40.3617540061309
        ],
        [
          -111.865289374298,
          40.3617774843733
        ],
        [
          -111.865329495179,
          40.3618026019987
        ],
        [
          -111.86536783036,
          40.3618292897453
        ],
        [
          -111.865404274136,
          40.3618574740219
        ],
        [
          -111.865438726016,
          40.3618870771107
        ],
        [
          -111.865471091002,
          40.3619180173817
        ],
        [
          -111.865515868095,
          40.3619670864075
        ],
        [
          -111.865555452716,
          40.3620186818826
        ],
        [
          -111.865589600644,
          40.3620724854767
        ],
        [
          -111.865618101196,
          40.3621281652368
        ],
        [
          -111.865639778443,
          40.3621698305827
        ],
        [
          -111.865574373903,
          40.3621924117644
        ]
      ]
    ]
  }
}