{
  "type": "Feature",
  "properties": {
    "parcel_id": "453710022",
    "owner_name_raw": "UTAH DEPARTMENT OF TRANSPORTATION",
    "owner_class": "STATE",
    "epsg": "EPSG:4326"
  },
  "geometry": {
    "type": "Polygon",
    "coordinates": [
      [
        [
          -111.729372801367,
          40.3496839738086
        ],
        [
          -111.72937281574,
          40.3496840073546
        ],
        [
          -111.729229090684,
          40.3495635558344
        ],
        [
          -111.729230577396,
          40.3495485059686
        ],
        [
          -111.72939147285,
          40.349683346019
        ],
        [
          -111.729372801367,
          40.3496839738086
        ]
      ]
    ]
  }
}