{
  "type": "Feature",
  "properties": {
    "parcel_id": "454110015",
    "owner_name_raw": "UTAH DEPARTMENT OF TRANSPORTATION",
    "owner_class": "STATE",
    "epsg": "EPSG:4326"
  },
  "geometry": {
    "type": "Polygon",
    "coordinates": [
      [
        [
          -111.85813338586,
          40.3742397507809
        ],
        [
          -111.858156371725,
          40.3742482802555
        ],
        [
          -111.85817790029,
          40.3742587874879
        ],
        [
          -111.858197679658,
          40.3742711300138
        ],
        [
          -111.858215441649,
          40.374285140485
        ],
        [
          -111.858230945435,
          40.3743006289378
        ],
        [
          -111.858243980805,
          40.3743173853696
        ],
        [
          -111.85825437102,
          40.3743351825859
        ],
        [
          -111.858261975201,
          40.3743537792803
        ],
        [
          -111.858267578338,
          40.3743788502125
        ],
        [
          -111.858268143268,
          40.3744042782898
        ],
        [
          -111.858263657011,
          40.374429479298
        ],
        [
          -111.858254222641,
          40.3744538742405
        ],
        [
          -111.858240056914,
          40.3744769026409
        ],
        [
          -111.858221485289,
          40.3744980354198
        ],
        [
          -111.858198934452,
          40.3745167870503
        ],
        [
          -111.858172922512,
          40.3745327267129
        ],
        [
          -111.858163135357,
          40.3745393022997
        ],
        [
          -111.85815569396,
          40.3745474689256
        ],
        [
          -111.858151029375,
          40.3745567535259
        ],
        [
          -111.858149411805,
          40.3745666182757
        ],
        [
          -111.858148893477,
          40.3746969442228
        ],
        [
          -111.85814986283,
          40.3747049365809
        ],
        [
          -111.858152854238,
          40.3747126326583
        ],
        [
          -111.85815775344,
          40.3747197384881
        ],
        [
          -111.858164373299,
          40.374725982649
        ],
        [
          -111.858172460956,
          40.3747311266329
        ],
        [
          -111.858181707488,
          40.3747349739553
        ],
        [
          -111.858191759705,
          40.3747373776601
        ],
        [
          -111.858202233642,
          40.3747382459332
        ],
        [
          -111.858048265097,
          40.3747372515608
        ],
        [
          -111.857893689291,
          40.3747362489762
        ],
        [
          -111.857904250681,
          40.3747355039377
        ],
        [
          -111.857914416587,
          40.3747331990296
        ],
        [
          -111.85792379403,
          40.3747294233519
        ],
        [
          -111.857932020508,
          40.3747243228593
        ],
        [
          -111.857938778014,
          40.3747180947196
        ],
        [
          -111.857943805324,
          40.3747109796918
        ],
        [
          -111.8579469081,
          40.3747032528188
        ],
        [
          -111.857947966399,
          40.3746952127957
        ],
        [
          -111.857948480235,
          40.3745661748104
        ],
        [
          -111.857946941586,
          40.3745563026168
        ],
        [
          -111.85794235149,
          40.3745469963684
        ],
        [
          -111.857934975803,
          40.3745387950754
        ],
        [
          -111.857925241717,
          40.3745321737499
        ],
        [
          -111.857902169291,
          40.3745181163018
        ],
        [
          -111.85788177501,
          40.3745018321378
        ],
        [
          -111.857864426079,
          40.3744836144598
        ],
        [
          -111.857850434875,
          40.3744637912833
        ],
        [
          -111.857840053315,
          40.3744427195316
        ],
        [
          -111.857833468323,
          40.3744207786096
        ],
        [
          -111.857830798465,
          40.3743983635722
        ],
        [
          -111.857832091812,
          40.3743758780112
        ],
        [
          -111.857836095431,
          40.3743576453349
        ],
        [
          -111.857842709052,
          40.3743398591697
        ],
        [
          -111.857851852301,
          40.3743227356671
        ],
        [
          -111.857863414063,
          40.3743064829254
        ],
        [
          -111.85787725383,
          40.374291298461
        ],
        [
          -111.857893203412,
          40.3742773668078
        ],
        [
          -111.857911068975,
          40.3742648572748
        ],
        [
          -111.857930633405,
          40.3742539218881
        ],
        [
          -111.857953649998,
          40.3742439777404
        ],
        [
          -111.857978076472,
          40.3742362275986
        ],
        [
          -111.858003554123,
          40.3742307852753
        ],
        [
          -111.858029708807,
          40.3742277306924
        ],
        [
          -111.858056156441,
          40.3742271087068
        ],
        [
          -111.858082508637,
          40.3742289284529
        ],
        [
          -111.85810837841,
          40.374233163207
        ],
        [
          -111.85813338586,
          40.3742397507809
        ]
      ]
    ]
  }
}