{
  "type": "Feature",
  "properties": {
    "parcel_id": "455860006",
    "owner_name_raw": "JMP HOLDINGS UTAH LLC",
    "owner_class": "UNCLASSIFIED",
    "epsg": "EPSG:4326"
  },
  "geometry": {
    "type": "Polygon",
    "coordinates": [
      [
        [
          -111.74355497817,
          40.3280242145701
        ],
        [
          -111.743312936998,
          40.3280247186067
        ],
        [
          -111.743312579468,
          40.3279240022932
        ],
        [
          -111.743305408217,
          40.3279240173595
        ],
        [
          -111.743304968941,
          40.3278005219305
        ],
        [
          -111.743554180466,
          40.3278000028258
        ],
        [
          -111.74355497817,
          40.3280242145701
        ]
      ]
    ]
  }
}