{
  "type": "Feature",
  "properties": {
    "parcel_id": "456240007",
    "owner_name_raw": "UTAH DEPARTMENT OF TRANSPORTATION",
    "owner_class": "STATE",
    "epsg": "EPSG:4326"
  },
  "geometry": {
    "type": "Polygon",
    "coordinates": [
      [
        [
          -111.897278662837,
          40.4350300413071
        ],
        [
          -111.897242460953,
          40.4350496005576
        ],
        [
          -111.897204963134,
          40.4350676901022
        ],
        [
          -111.897166272268,
          40.4350842603073
        ],
        [
          -111.897126494516,
          40.4350992657083
        ],
        [
          -111.896902306462,
          40.4351786477383
        ],
        [
          -111.896888093317,
          40.4351828226785
        ],
        [
          -111.896913666557,
          40.4351560787158
        ],
        [
          -111.896921302237,
          40.4351436591863
        ],
        [
          -111.89693757432,
          40.4350944090694
        ],
        [
          -111.896816042143,
          40.4348434182078
        ],
        [
          -111.896698371824,
          40.4348107501208
        ],
        [
          -111.896685111792,
          40.4347944311138
        ],
        [
          -111.896691956955,
          40.4347168899652
        ],
        [
          -111.89668059147,
          40.4347029004675
        ],
        [
          -111.896712984719,
          40.4346307375868
        ],
        [
          -111.896682366421,
          40.4345733441047
        ],
        [
          -111.896648033075,
          40.4345171816421
        ],
        [
          -111.896610069786,
          40.4344623894164
        ],
        [
          -111.896568570656,
          40.4344091032486
        ],
        [
          -111.896528026094,
          40.4344014322376
        ],
        [
          -111.896475115323,
          40.4343432435663
        ],
        [
          -111.896468841489,
          40.4343007018462
        ],
        [
          -111.896432957272,
          40.4342666633628
        ],
        [
          -111.896395167958,
          40.4342338410426
        ],
        [
          -111.89636924707,
          40.434211904859
        ],
        [
          -111.896318484651,
          40.4341671434515
        ],
        [
          -111.896270101656,
          40.4341208805001
        ],
        [
          -111.89622417467,
          40.4340731892321
        ],
        [
          -111.896180776392,
          40.434024145136
        ],
        [
          -111.896139975519,
          40.4339738258418
        ],
        [
          -111.896101836635,
          40.4339223109981
        ],
        [
          -111.896066420111,
          40.4338696821461
        ],
        [
          -111.896033782007,
          40.4338160225904
        ],
        [
          -111.895888395967,
          40.433763940058
        ],
        [
          -111.895838867636,
          40.4337729695586
        ],
        [
          -111.895788455973,
          40.4337784819102
        ],
        [
          -111.895737591129,
          40.4337804300784
        ],
        [
          -111.895686707118,
          40.4337787974402
        ],
        [
          -111.895859692997,
          40.4336225776699
        ],
        [
          -111.895873226759,
          40.4336145868451
        ],
        [
          -111.89588515712,
          40.4336052322654
        ],
        [
          -111.895895248991,
          40.433594698264
        ],
        [
          -111.895903303509,
          40.4335831924145
        ],
        [
          -111.8959132793,
          40.433574184558
        ],
        [
          -111.895946142096,
          40.4335431053752
        ],
        [
          -111.895976893522,
          40.4335107985254
        ],
        [
          -111.896005454559,
          40.4334773470237
        ],
        [
          -111.896031751815,
          40.4334428368271
        ],
        [
          -111.896449168385,
          40.433441423492
        ],
        [
          -111.896490305835,
          40.4335977913753
        ],
        [
          -111.896492443825,
          40.4339663397278
        ],
        [
          -111.896549630576,
          40.4340033623823
        ],
        [
          -111.896581591736,
          40.4340312206413
        ],
        [
          -111.896641703168,
          40.4340846185862
        ],
        [
          -111.896698425628,
          40.4341401229
        ],
        [
          -111.896751631888,
          40.4341976090833
        ],
        [
          -111.89680120261,
          40.4342569481918
        ],
        [
          -111.896847026608,
          40.4343180071253
        ],
        [
          -111.8968890011,
          40.4343806489265
        ],
        [
          -111.896927031939,
          40.4344447330877
        ],
        [
          -111.896961033823,
          40.4345101158666
        ],
        [
          -111.897194715273,
          40.4349927149509
        ],
        [
          -111.897262677316,
          40.4350269213767
        ],
        [
          -111.897278695176,
          40.435030014641
        ],
        [
          -111.897278662837,
          40.4350300413071
        ]
      ]
    ]
  }
}