{
  "type": "Feature",
  "properties": {
    "parcel_id": "456700005",
    "owner_name_raw": "UTAH COUNTY",
    "owner_class": "UNCLASSIFIED",
    "epsg": "EPSG:4326"
  },
  "geometry": {
    "type": "Polygon",
    "coordinates": [
      [
        [
          -111.813855351844,
          40.1431333368248
        ],
        [
          -111.809683062726,
          40.144317263937
        ],
        [
          -111.809474659492,
          40.1443772872807
        ],
        [
          -111.809267333659,
          40.1444394525896
        ],
        [
          -111.809061122901,
          40.1445037485614
        ],
        [
          -111.808856064693,
          40.1445701635061
        ],
        [
          -111.80780528644,
          40.1449151441464
        ],
        [
          -111.807743867649,
          40.144934251261
        ],
        [
          -111.807681531589,
          40.1449515356561
        ],
        [
          -111.807618370791,
          40.144966971676
        ],
        [
          -111.807554479012,
          40.1449805364086
        ],
        [
          -111.807489951092,
          40.1449922097196
        ],
        [
          -111.807424882817,
          40.145001974282
        ],
        [
          -111.807359370776,
          40.1450098156022
        ],
        [
          -111.807293512213,
          40.1450157220409
        ],
        [
          -111.807227404891,
          40.1450196848313
        ],
        [
          -111.807161146938,
          40.1450216980914
        ],
        [
          -111.807094836709,
          40.1450217588326
        ],
        [
          -111.807028572635,
          40.145019866965
        ],
        [
          -111.806962453078,
          40.1450160252967
        ],
        [
          -111.806896576187,
          40.1450102395298
        ],
        [
          -111.806831039748,
          40.1450025182524
        ],
        [
          -111.806765941046,
          40.1449928729252
        ],
        [
          -111.806143470538,
          40.1448910792039
        ],
        [
          -111.80599195297,
          40.1448639352933
        ],
        [
          -111.805842213321,
          40.1448315351727
        ],
        [
          -111.805388631476,
          40.1447260660518
        ],
        [
          -111.805322310007,
          40.144708819368
        ],
        [
          -111.805257553493,
          40.1446883911069
        ],
        [
          -111.805194622832,
          40.1446648635685
        ],
        [
          -111.805133771563,
          40.1446383315394
        ],
        [
          -111.805075244848,
          40.1446089019102
        ],
        [
          -111.805019278484,
          40.1445766932456
        ],
        [
          -111.804966097953,
          40.1445418353066
        ],
        [
          -111.804915917513,
          40.1445044685274
        ],
        [
          -111.804868939333,
          40.1444647434503
        ],
        [
          -111.804825352685,
          40.1444228201185
        ],
        [
          -111.804785333172,
          40.1443788674321
        ],
        [
          -111.804749042029,
          40.1443330624674
        ],
        [
          -111.804716625468,
          40.1442855897632
        ],
        [
          -111.804688214091,
          40.144236640578
        ],
        [
          -111.804663922364,
          40.1441864121189
        ],
        [
          -111.804643848156,
          40.1441351067477
        ],
        [
          -111.80429301202,
          40.1431264169003
        ],
        [
          -111.80441534729,
          40.1431269401694
        ],
        [
          -111.804537680764,
          40.1431274634385
        ],
        [
          -111.804871911542,
          40.1440883984473
        ],
        [
          -111.804887690091,
          40.1441287082601
        ],
        [
          -111.80490678158,
          40.1441681718405
        ],
        [
          -111.804929109122,
          40.1442066302625
        ],
        [
          -111.8049545828,
          40.144243928648
        ],
        [
          -111.804983100027,
          40.1442799167913
        ],
        [
          -111.805014545958,
          40.1443144497629
        ],
        [
          -111.805048793954,
          40.1443473884942
        ],
        [
          -111.805085706092,
          40.1443786003367
        ],
        [
          -111.805125133718,
          40.1444079595965
        ],
        [
          -111.805166918051,
          40.1444353480406
        ],
        [
          -111.805210890816,
          40.1444606553726
        ],
        [
          -111.805256874926,
          40.1444837796774
        ],
        [
          -111.805304685194,
          40.1445046278309
        ],
        [
          -111.805354129079,
          40.1445231158757
        ],
        [
          -111.80540500746,
          40.1445391693587
        ],
        [
          -111.80545711544,
          40.1445527236311
        ],
        [
          -111.805910697285,
          40.1446581923344
        ],
        [
          -111.806009289728,
          40.144680007109
        ],
        [
          -111.806108756042,
          40.1446993655302
        ],
        [
          -111.806192678453,
          40.1447139295149
        ],
        [
          -111.806815148063,
          40.1448157228149
        ],
        [
          -111.806871348695,
          40.1448240561071
        ],
        [
          -111.806927927722,
          40.1448307274788
        ],
        [
          -111.806984801071,
          40.1448357270175
        ],
        [
          -111.807041884233,
          40.1448390472945
        ],
        [
          -111.807099092387,
          40.1448406833765
        ],
        [
          -111.807156340525,
          40.1448406328324
        ],
        [
          -111.807213543582,
          40.1448388957374
        ],
        [
          -111.807270616559,
          40.1448354746725
        ],
        [
          -111.807327474648,
          40.144830374721
        ],
        [
          -111.807384033364,
          40.1448236034604
        ],
        [
          -111.807440208664,
          40.1448151709521
        ],
        [
          -111.807495917077,
          40.1448050897252
        ],
        [
          -111.807551075824,
          40.1447933747592
        ],
        [
          -111.807605602944,
          40.1447800434606
        ],
        [
          -111.807659417413,
          40.1447651156378
        ],
        [
          -111.807712439267,
          40.1447486134713
        ],
        [
          -111.80804201767,
          40.1446404111973
        ],
        [
          -111.808763215723,
          40.1444036347321
        ],
        [
          -111.808954377389,
          40.1443419069301
        ],
        [
          -111.809146447332,
          40.1442818492087
        ],
        [
          -111.809339400584,
          40.14422346938
        ],
        [
          -111.809533212059,
          40.1441667750382
        ],
        [
          -111.809601217221,
          40.1441473594395
        ],
        [
          -111.81317304725,
          40.1431338374326
        ],
        [
          -111.813514201343,
          40.1431335826651
        ],
        [
          -111.813855351844,
          40.1431333368248
        ]
      ]
    ]
  }
}