{
  "type": "Feature",
  "properties": {
    "parcel_id": "458810181",
    "owner_name_raw": "LGI HOMES - UTAH LLC",
    "owner_class": "UNCLASSIFIED",
    "epsg": "EPSG:4326"
  },
  "geometry": {
    "type": "Polygon",
    "coordinates": [
      [
        [
          -111.650454489422,
          40.1660202405506
        ],
        [
          -111.650454068112,
          40.1658281272667
        ],
        [
          -111.650557810053,
          40.165827993404
        ],
        [
          -111.650558231362,
          40.1660201066884
        ],
        [
          -111.650454489422,
          40.1660202405506
        ]
      ]
    ]
  }
}