{
  "type": "Feature",
  "properties": {
    "parcel_id": "458810152",
    "owner_name_raw": "LGI HOMES - UTAH LLC",
    "owner_class": "UNCLASSIFIED",
    "epsg": "EPSG:4326"
  },
  "geometry": {
    "type": "Polygon",
    "coordinates": [
      [
        [
          -111.651294895709,
          40.1659510707696
        ],
        [
          -111.651294472603,
          40.1657589566034
        ],
        [
          -111.651383906178,
          40.1657588412754
        ],
        [
          -111.651384330183,
          40.165950954069
        ],
        [
          -111.651294895709,
          40.1659510707696
        ]
      ]
    ]
  }
}