{
  "type": "Feature",
  "properties": {
    "parcel_id": "458820218",
    "owner_name_raw": "LGI HOMES - UTAH LLC",
    "owner_class": "UNCLASSIFIED",
    "epsg": "EPSG:4326"
  },
  "geometry": {
    "type": "Polygon",
    "coordinates": [
      [
        [
          -111.652268412559,
          40.165726094301
        ],
        [
          -111.652339959778,
          40.1657260009402
        ],
        [
          -111.652340397258,
          40.165923602876
        ],
        [
          -111.652268850937,
          40.1659236969231
        ],
        [
          -111.652268412559,
          40.165726094301
        ]
      ]
    ]
  }
}