{
  "type": "Feature",
  "properties": {
    "parcel_id": "458810175",
    "owner_name_raw": "LGI HOMES - UTAH LLC",
    "owner_class": "UNCLASSIFIED",
    "epsg": "EPSG:4326"
  },
  "geometry": {
    "type": "Polygon",
    "coordinates": [
      [
        [
          -111.649800462894,
          40.1660155999903
        ],
        [
          -111.649801416905,
          40.1659607116111
        ],
        [
          -111.650082488079,
          40.1659603505258
        ],
        [
          -111.650082608454,
          40.1660152395918
        ],
        [
          -111.649800462894,
          40.1660155999903
        ]
      ]
    ]
  }
}