{
  "type": "Feature",
  "properties": {
    "parcel_id": "458820273",
    "owner_name_raw": "LGI HOMES - UTAH LLC",
    "owner_class": "UNCLASSIFIED",
    "epsg": "EPSG:4326"
  },
  "geometry": {
    "type": "Polygon",
    "coordinates": [
      [
        [
          -111.649910533466,
          40.1650768053693
        ],
        [
          -111.649982078889,
          40.1650767133806
        ],
        [
          -111.649982498402,
          40.1652688267317
        ],
        [
          -111.649910952979,
          40.1652689194067
        ],
        [
          -111.649910533466,
          40.1650768053693
        ]
      ]
    ]
  }
}