{
  "type": "Feature",
  "properties": {
    "parcel_id": "458820225",
    "owner_name_raw": "LGI HOMES - UTAH LLC",
    "owner_class": "UNCLASSIFIED",
    "epsg": "EPSG:4326"
  },
  "geometry": {
    "type": "Polygon",
    "coordinates": [
      [
        [
          -111.652621842131,
          40.1654676732118
        ],
        [
          -111.652693388452,
          40.1654675791642
        ],
        [
          -111.652693840305,
          40.1656706709221
        ],
        [
          -111.652622293984,
          40.165670764283
        ],
        [
          -111.652621842131,
          40.1654676732118
        ]
      ]
    ]
  }
}