{
  "type": "Feature",
  "properties": {
    "parcel_id": "458810104",
    "owner_name_raw": "LGI HOMES - UTAH LLC",
    "owner_class": "UNCLASSIFIED",
    "epsg": "EPSG:4326"
  },
  "geometry": {
    "type": "Polygon",
    "coordinates": [
      [
        [
          -111.652885893824,
          40.1664260707391
        ],
        [
          -111.653138411149,
          40.1664257391744
        ],
        [
          -111.65313812279,
          40.1665327740689
        ],
        [
          -111.652886134573,
          40.1665331042602
        ],
        [
          -111.652885893824,
          40.1664260707391
        ]
      ]
    ]
  }
}