{
  "type": "Feature",
  "properties": {
    "parcel_id": "458820211",
    "owner_name_raw": "LGI HOMES - UTAH LLC",
    "owner_class": "UNCLASSIFIED",
    "epsg": "EPSG:4326"
  },
  "geometry": {
    "type": "Polygon",
    "coordinates": [
      [
        [
          -111.65288310725,
          40.1651919730814
        ],
        [
          -111.652883081199,
          40.1651798738391
        ],
        [
          -111.65288262446,
          40.1651690758277
        ],
        [
          -111.652881303104,
          40.1651583194673
        ],
        [
          -111.65287912209,
          40.1651476451503
        ],
        [
          -111.652876089611,
          40.1651370929605
        ],
        [
          -111.653141846307,
          40.1651367442275
        ],
        [
          -111.653141698085,
          40.1651916332729
        ],
        [
          -111.65288310725,
          40.1651919730814
        ]
      ]
    ]
  }
}