{
  "type": "Feature",
  "properties": {
    "parcel_id": "458810113",
    "owner_name_raw": "LGI HOMES - UTAH LLC",
    "owner_class": "UNCLASSIFIED",
    "epsg": "EPSG:4326"
  },
  "geometry": {
    "type": "Polygon",
    "coordinates": [
      [
        [
          -111.652661331173,
          40.1665493515878
        ],
        [
          -111.652660871236,
          40.1663431307821
        ],
        [
          -111.652681799287,
          40.1663431040098
        ],
        [
          -111.652693393344,
          40.1663435413504
        ],
        [
          -111.652704875472,
          40.1663448450339
        ],
        [
          -111.652716135083,
          40.1663470025043
        ],
        [
          -111.652727063736,
          40.1663499929824
        ],
        [
          -111.652737556174,
          40.1663537876665
        ],
        [
          -111.652747511343,
          40.166358350009
        ],
        [
          -111.652756833362,
          40.1663636360693
        ],
        [
          -111.652765432451,
          40.1663695949361
        ],
        [
          -111.652773225789,
          40.1663761692186
        ],
        [
          -111.652780138318,
          40.1663832955984
        ],
        [
          -111.652786103462,
          40.1663909054401
        ],
        [
          -111.652791063769,
          40.1663989254518
        ],
        [
          -111.652794971467,
          40.1664072783914
        ],
        [
          -111.652797788919,
          40.1664158838101
        ],
        [
          -111.652799488991,
          40.1664246588277
        ],
        [
          -111.652800055307,
          40.1664335189305
        ],
        [
          -111.652800312226,
          40.1665491710467
        ],
        [
          -111.652661331173,
          40.1665493515878
        ]
      ]
    ]
  }
}