{
  "type": "Feature",
  "properties": {
    "parcel_id": "458820224",
    "owner_name_raw": "LGI HOMES - UTAH LLC",
    "owner_class": "UNCLASSIFIED",
    "epsg": "EPSG:4326"
  },
  "geometry": {
    "type": "Polygon",
    "coordinates": [
      [
        [
          -111.652550296709,
          40.165467766573
        ],
        [
          -111.652621842131,
          40.1654676732118
        ],
        [
          -111.652622293984,
          40.165670764283
        ],
        [
          -111.652550747663,
          40.1656708583303
        ],
        [
          -111.652550296709,
          40.165467766573
        ]
      ]
    ]
  }
}