{
  "type": "Feature",
  "properties": {
    "parcel_id": "458820244",
    "owner_name_raw": "LGI HOMES - UTAH LLC",
    "owner_class": "UNCLASSIFIED",
    "epsg": "EPSG:4326"
  },
  "geometry": {
    "type": "Polygon",
    "coordinates": [
      [
        [
          -111.651025884418,
          40.1655887364186
        ],
        [
          -111.651283454766,
          40.165588399358
        ],
        [
          -111.651283545496,
          40.1656299497848
        ],
        [
          -111.651282019543,
          40.1656422457077
        ],
        [
          -111.651277384054,
          40.1656540779158
        ],
        [
          -111.651269817145,
          40.1656649917646
        ],
        [
          -111.651259609568,
          40.165674567897
        ],
        [
          -111.651247153544,
          40.1656824383571
        ],
        [
          -111.651232927687,
          40.1656883007281
        ],
        [
          -111.651217478617,
          40.1656919297528
        ],
        [
          -111.651201399953,
          40.1656931859887
        ],
        [
          -111.651026111692,
          40.165693413899
        ],
        [
          -111.651025884418,
          40.1655887364186
        ]
      ]
    ]
  }
}