{
  "type": "Feature",
  "properties": {
    "parcel_id": "460610030",
    "owner_name_raw": "UTAH DEPARTMENT OF TRANSPORTATION",
    "owner_class": "STATE",
    "epsg": "EPSG:4326"
  },
  "geometry": {
    "type": "Polygon",
    "coordinates": [
      [
        [
          -111.693723711781,
          40.3119954693215
        ],
        [
          -111.6940499754,
          40.3119946199277
        ],
        [
          -111.694053354862,
          40.3121549537696
        ],
        [
          -111.693694848012,
          40.3121558922104
        ],
        [
          -111.693692577071,
          40.3120485742198
        ],
        [
          -111.693694413283,
          40.3120336562504
        ],
        [
          -111.693700435042,
          40.3120193936464
        ],
        [
          -111.693710357606,
          40.3120064608243
        ],
        [
          -111.693723711781,
          40.3119954693215
        ]
      ]
    ]
  }
}