{
  "type": "Feature",
  "properties": {
    "parcel_id": "461070050",
    "owner_name_raw": "UTAH DEPARTMENT OF TRANSPORTATION",
    "owner_class": "STATE",
    "epsg": "EPSG:4326"
  },
  "geometry": {
    "type": "Polygon",
    "coordinates": [
      [
        [
          -111.689703983548,
          40.312377859825
        ],
        [
          -111.68959537184,
          40.3122963341923
        ],
        [
          -111.689592026514,
          40.3120359614163
        ],
        [
          -111.68980715955,
          40.3120364559824
        ],
        [
          -111.689808607634,
          40.3121491614656
        ],
        [
          -111.689810477028,
          40.3122947155564
        ],
        [
          -111.689703983548,
          40.312377859825
        ]
      ]
    ]
  }
}