{
  "type": "Feature",
  "properties": {
    "parcel_id": "461060026",
    "owner_name_raw": "UTAH DEPARTMENT OF TRANSPORTATION",
    "owner_class": "STATE",
    "epsg": "EPSG:4326"
  },
  "geometry": {
    "type": "Polygon",
    "coordinates": [
      [
        [
          -111.683926353814,
          40.3122464393634
        ],
        [
          -111.683924532929,
          40.3121202930976
        ],
        [
          -111.683957236995,
          40.3121218466633
        ],
        [
          -111.684283331731,
          40.3121374782172
        ],
        [
          -111.684284886715,
          40.3122455180485
        ],
        [
          -111.683926353814,
          40.3122464393634
        ]
      ]
    ]
  }
}