{
  "type": "Feature",
  "properties": {
    "parcel_id": "461580011",
    "owner_name_raw": "UTAH TRANSIT AUTHORITY",
    "owner_class": "UTA",
    "epsg": "EPSG:4326"
  },
  "geometry": {
    "type": "Polygon",
    "coordinates": [
      [
        [
          -111.85116594921,
          40.3811530329526
        ],
        [
          -111.850847540459,
          40.381087160141
        ],
        [
          -111.850838724393,
          40.3810748312212
        ],
        [
          -111.851158788739,
          40.3811415115107
        ],
        [
          -111.85116594921,
          40.3811530329526
        ]
      ]
    ]
  }
}