{
  "type": "Feature",
  "properties": {
    "parcel_id": "461580019",
    "owner_name_raw": "UTAH TRANSIT AUTHORITY",
    "owner_class": "UTA",
    "epsg": "EPSG:4326"
  },
  "geometry": {
    "type": "Polygon",
    "coordinates": [
      [
        [
          -111.849268908553,
          40.3807543524188
        ],
        [
          -111.849268825009,
          40.3807477400563
        ],
        [
          -111.850790720221,
          40.3810648145282
        ],
        [
          -111.850794493145,
          40.3810542237111
        ],
        [
          -111.850829290286,
          40.3810614717526
        ],
        [
          -111.850847660833,
          40.3810871642468
        ],
        [
          -111.850728669991,
          40.3810625467783
        ],
        [
          -111.850339808169,
          40.3809780514833
        ],
        [
          -111.849268908553,
          40.3807543524188
        ]
      ]
    ]
  }
}