{
  "type": "Feature",
  "properties": {
    "parcel_id": "469730003",
    "owner_name_raw": "UTAH DEPARTMENT OF TRANSPORTATION",
    "owner_class": "STATE",
    "epsg": "EPSG:4326"
  },
  "geometry": {
    "type": "Polygon",
    "coordinates": [
      [
        [
          -111.695451685908,
          40.2973044329642
        ],
        [
          -111.695403535311,
          40.2973594130034
        ],
        [
          -111.695383770578,
          40.2973773808865
        ],
        [
          -111.695384219223,
          40.2973714537414
        ],
        [
          -111.695385246121,
          40.2973655686145
        ],
        [
          -111.695386845555,
          40.2973597582764
        ],
        [
          -111.695389008618,
          40.2973540550814
        ],
        [
          -111.695391723265,
          40.2973484907872
        ],
        [
          -111.69539497438,
          40.297343096378
        ],
        [
          -111.69539874386,
          40.297337901892
        ],
        [
          -111.695403010714,
          40.2973329362543
        ],
        [
          -111.695407751184,
          40.2973282271155
        ],
        [
          -111.695412938872,
          40.297323800698
        ],
        [
          -111.695418544891,
          40.2973196816499
        ],
        [
          -111.695424538025,
          40.2973158929077
        ],
        [
          -111.695430884901,
          40.2973124555687
        ],
        [
          -111.695437550178,
          40.2973093887734
        ],
        [
          -111.695444496741,
          40.297306709599
        ],
        [
          -111.695451685908,
          40.2973044329642
        ]
      ]
    ]
  }
}