{
  "type": "Feature",
  "properties": {
    "parcel_id": "470260008",
    "owner_name_raw": "UTAH COUNTY",
    "owner_class": "UNCLASSIFIED",
    "epsg": "EPSG:4326"
  },
  "geometry": {
    "type": "Polygon",
    "coordinates": [
      [
        [
          -111.718004469631,
          40.3218085687335
        ],
        [
          -111.718004597192,
          40.3218480296561
        ],
        [
          -111.71793279575,
          40.3218083036789
        ],
        [
          -111.718004469631,
          40.3218085687335
        ]
      ]
    ]
  }
}