{
  "type": "Feature",
  "properties": {
    "parcel_id": "472790014",
    "owner_name_raw": "UTAH DEPARTMENT OF TRANSPORTATION",
    "owner_class": "STATE",
    "epsg": "EPSG:4326"
  },
  "geometry": {
    "type": "Polygon",
    "coordinates": [
      [
        [
          -111.644018725164,
          40.1232207793531
        ],
        [
          -111.644014047172,
          40.1232167585998
        ],
        [
          -111.644009905031,
          40.1232124077443
        ],
        [
          -111.644006338338,
          40.123207768378
        ],
        [
          -111.644003381188,
          40.1232028848503
        ],
        [
          -111.644001061851,
          40.1231978038446
        ],
        [
          -111.643999402496,
          40.1231925739322
        ],
        [
          -111.643998418988,
          40.1231872451077
        ],
        [
          -111.643998120727,
          40.1231818683113
        ],
        [
          -111.643998510564,
          40.1231764949418
        ],
        [
          -111.643999584774,
          40.1231711763652
        ],
        [
          -111.644001333087,
          40.123165963424
        ],
        [
          -111.64400373879,
          40.1231609059504
        ],
        [
          -111.644006778887,
          40.123156052291
        ],
        [
          -111.644010424316,
          40.1231514488436
        ],
        [
          -111.644014640229,
          40.1231471396145
        ],
        [
          -111.644019386324,
          40.1231431657971
        ],
        [
          -111.644018725164,
          40.1232207793531
        ]
      ]
    ]
  }
}