{
  "type": "Feature",
  "properties": {
    "parcel_id": "472880006",
    "owner_name_raw": "UTAH COUNTY",
    "owner_class": "UNCLASSIFIED",
    "epsg": "EPSG:4326"
  },
  "geometry": {
    "type": "Polygon",
    "coordinates": [
      [
        [
          -111.889751645833,
          40.4111763185086
        ],
        [
          -111.889748955379,
          40.4111763321884
        ],
        [
          -111.889747287207,
          40.4107754203674
        ],
        [
          -111.889749367706,
          40.4107767274761
        ],
        [
          -111.889751645833,
          40.4111763185086
        ]
      ]
    ]
  }
}