{
  "type": "Feature",
  "properties": {
    "parcel_id": "484130004",
    "owner_name_raw": "UTAH DEPARTMENT OF TRANSPORTATION",
    "owner_class": "STATE",
    "epsg": "EPSG:4326"
  },
  "geometry": {
    "type": "Polygon",
    "coordinates": [
      [
        [
          -111.888664175893,
          40.4317691748988
        ],
        [
          -111.88867152501,
          40.4317979325679
        ],
        [
          -111.887964344269,
          40.4318090856746
        ],
        [
          -111.887964115199,
          40.4317902065567
        ],
        [
          -111.888664175893,
          40.4317691748988
        ]
      ]
    ]
  }
}