{
  "type": "Feature",
  "properties": {
    "parcel_id": "485020141",
    "owner_name_raw": "STATE OF UTAH",
    "owner_class": "STATE",
    "epsg": "EPSG:4326"
  },
  "geometry": {
    "type": "Polygon",
    "coordinates": [
      [
        [
          -112.011719049773,
          40.3391175929625
        ],
        [
          -112.011789899002,
          40.3390192171463
        ],
        [
          -112.012097875617,
          40.3390355388335
        ],
        [
          -112.012097028506,
          40.3393628255896
        ],
        [
          -112.011637950768,
          40.3393622168759
        ],
        [
          -112.011624140576,
          40.3393607972323
        ],
        [
          -112.011611266918,
          40.3393567309827
        ],
        [
          -112.011600187198,
          40.3393502889452
        ],
        [
          -112.011591639345,
          40.3393419001691
        ],
        [
          -112.011586192657,
          40.3393321233594
        ],
        [
          -112.011584209893,
          40.3393216096666
        ],
        [
          -112.011585823109,
          40.3393110593189
        ],
        [
          -112.011590924861,
          40.3393011749862
        ],
        [
          -112.011704880646,
          40.3391429522394
        ],
        [
          -112.011719049773,
          40.3391175929625
        ]
      ]
    ]
  }
}