{
  "type": "Feature",
  "properties": {
    "parcel_id": "485070010",
    "owner_name_raw": "UTAH DEPARTMENT OF TRANSPORTATION",
    "owner_class": "STATE",
    "epsg": "EPSG:4326"
  },
  "geometry": {
    "type": "Polygon",
    "coordinates": [
      [
        [
          -111.736518008323,
          40.3228621241675
        ],
        [
          -111.736515920639,
          40.3228621474536
        ],
        [
          -111.736501936565,
          40.3227849465185
        ],
        [
          -111.736496291551,
          40.3227855492177
        ],
        [
          -111.736497499913,
          40.3228002671473
        ],
        [
          -111.736495737601,
          40.3228149525419
        ],
        [
          -111.736491046192,
          40.3228292589267
        ],
        [
          -111.736483536373,
          40.3228428487691
        ],
        [
          -111.736181687166,
          40.3211861712674
        ],
        [
          -111.736150982749,
          40.321017651672
        ],
        [
          -111.73612028013,
          40.3208491330258
        ],
        [
          -111.73581725413,
          40.3191859039486
        ],
        [
          -111.73579782357,
          40.3190792471225
        ],
        [
          -111.735830450381,
          40.3190792313693
        ],
        [
          -111.735965969327,
          40.3198245770127
        ],
        [
          -111.736212946741,
          40.3211836693214
        ],
        [
          -111.736459969071,
          40.3225427568711
        ],
        [
          -111.736518008323,
          40.3228621241675
        ]
      ]
    ]
  }
}