{
  "type": "Feature",
  "properties": {
    "parcel_id": "485650127",
    "owner_name_raw": "STATE OF UTAH",
    "owner_class": "STATE",
    "epsg": "EPSG:4326"
  },
  "geometry": {
    "type": "Polygon",
    "coordinates": [
      [
        [
          -112.007884167877,
          40.3417695563951
        ],
        [
          -112.008046490754,
          40.3415372171122
        ],
        [
          -112.008393139842,
          40.3416790269289
        ],
        [
          -112.00823082505,
          40.3419113616151
        ],
        [
          -112.007884167877,
          40.3417695563951
        ]
      ]
    ]
  }
}