{
  "type": "Feature",
  "properties": {
    "parcel_id": "485621011",
    "owner_name_raw": "State",
    "owner_class": "STATE",
    "epsg": "EPSG:4326"
  },
  "geometry": {
    "type": "Polygon",
    "coordinates": [
      [
        [
          -111.671474613421,
          40.2081672635183
        ],
        [
          -111.671325502965,
          40.20808184444
        ],
        [
          -111.67136406764,
          40.2080422704441
        ],
        [
          -111.671513177198,
          40.2081276895722
        ],
        [
          -111.671474613421,
          40.2081672635183
        ]
      ]
    ]
  }
}