{
  "type": "Feature",
  "properties": {
    "parcel_id": "485621014",
    "owner_name_raw": "State",
    "owner_class": "STATE",
    "epsg": "EPSG:4326"
  },
  "geometry": {
    "type": "Polygon",
    "coordinates": [
      [
        [
          -111.671594578037,
          40.2080441625652
        ],
        [
          -111.671445466683,
          40.2079587447039
        ],
        [
          -111.671488317221,
          40.2079147730587
        ],
        [
          -111.671637427676,
          40.2080001923475
        ],
        [
          -111.671594578037,
          40.2080441625652
        ]
      ]
    ]
  }
}