{
  "type": "Feature",
  "properties": {
    "parcel_id": "485621020",
    "owner_name_raw": "State",
    "owner_class": "STATE",
    "epsg": "EPSG:4326"
  },
  "geometry": {
    "type": "Polygon",
    "coordinates": [
      [
        [
          -111.67056990842,
          40.2081481166302
        ],
        [
          -111.670508641521,
          40.2081197218174
        ],
        [
          -111.67060493014,
          40.2079975887927
        ],
        [
          -111.670666197039,
          40.2080259836567
        ],
        [
          -111.67056990842,
          40.2081481166302
        ]
      ]
    ]
  }
}