{
  "type": "Feature",
  "properties": {
    "parcel_id": "485731061",
    "owner_name_raw": "State",
    "owner_class": "STATE",
    "epsg": "EPSG:4326"
  },
  "geometry": {
    "type": "Polygon",
    "coordinates": [
      [
        [
          -111.670395058537,
          40.2080800339597
        ],
        [
          -111.670335606235,
          40.2080609940705
        ],
        [
          -111.670407351981,
          40.2079293097609
        ],
        [
          -111.670466805182,
          40.2079483510592
        ],
        [
          -111.670395058537,
          40.2080800339597
        ]
      ]
    ]
  }
}