{
  "type": "Feature",
  "properties": {
    "parcel_id": "485791103",
    "owner_name_raw": "State",
    "owner_class": "STATE",
    "epsg": "EPSG:4326"
  },
  "geometry": {
    "type": "Polygon",
    "coordinates": [
      [
        [
          -111.669170104137,
          40.2083108701519
        ],
        [
          -111.669084195552,
          40.208310931896
        ],
        [
          -111.66908404733,
          40.2081929209848
        ],
        [
          -111.669169955915,
          40.2081928578685
        ],
        [
          -111.669170104137,
          40.2083108701519
        ]
      ]
    ]
  }
}