{
  "type": "Feature",
  "properties": {
    "parcel_id": "485731071",
    "owner_name_raw": "State",
    "owner_class": "STATE",
    "epsg": "EPSG:4326"
  },
  "geometry": {
    "type": "Polygon",
    "coordinates": [
      [
        [
          -111.670552880854,
          40.2077205548989
        ],
        [
          -111.670385339664,
          40.2076583821384
        ],
        [
          -111.670413408423,
          40.2076139163404
        ],
        [
          -111.67058095141,
          40.2076760898278
        ],
        [
          -111.670552880854,
          40.2077205548989
        ]
      ]
    ]
  }
}