{
  "type": "Feature",
  "properties": {
    "parcel_id": "485820246",
    "owner_name_raw": "STATE OF UTAH",
    "owner_class": "STATE",
    "epsg": "EPSG:4326"
  },
  "geometry": {
    "type": "Polygon",
    "coordinates": [
      [
        [
          -112.011386851883,
          40.3443039103697
        ],
        [
          -112.011054733044,
          40.3441680709033
        ],
        [
          -112.011113909564,
          40.3440833643458
        ],
        [
          -112.011188304442,
          40.3439768748949
        ],
        [
          -112.011520422383,
          40.3441127147463
        ],
        [
          -112.011386851883,
          40.3443039103697
        ]
      ]
    ]
  }
}