{
  "type": "Feature",
  "properties": {
    "parcel_id": "485801149",
    "owner_name_raw": "State",
    "owner_class": "STATE",
    "epsg": "EPSG:4326"
  },
  "geometry": {
    "type": "Polygon",
    "coordinates": [
      [
        [
          -111.668508573982,
          40.2073084548534
        ],
        [
          -111.668322448445,
          40.2073072144647
        ],
        [
          -111.668323070978,
          40.2072523272428
        ],
        [
          -111.668509196515,
          40.2072535676325
        ],
        [
          -111.668508573982,
          40.2073084548534
        ]
      ]
    ]
  }
}