{
  "type": "Feature",
  "properties": {
    "parcel_id": "485820290",
    "owner_name_raw": "STATE OF UTAH",
    "owner_class": "STATE",
    "epsg": "EPSG:4326"
  },
  "geometry": {
    "type": "Polygon",
    "coordinates": [
      [
        [
          -112.009427114209,
          40.3449306531259
        ],
        [
          -112.009253146471,
          40.3448594969784
        ],
        [
          -112.009439140854,
          40.3445932774684
        ],
        [
          -112.009613107693,
          40.3446644338966
        ],
        [
          -112.009427114209,
          40.3449306531259
        ]
      ]
    ]
  }
}