{
  "type": "Feature",
  "properties": {
    "parcel_id": "485811200",
    "owner_name_raw": "State",
    "owner_class": "STATE",
    "epsg": "EPSG:4326"
  },
  "geometry": {
    "type": "Polygon",
    "coordinates": [
      [
        [
          -111.668177433409,
          40.208796149584
        ],
        [
          -111.668005614441,
          40.2087964061632
        ],
        [
          -111.668005447354,
          40.2087305407434
        ],
        [
          -111.668177266322,
          40.2087302841639
        ],
        [
          -111.668177433409,
          40.208796149584
        ]
      ]
    ]
  }
}