{
  "type": "Feature",
  "properties": {
    "parcel_id": "485801131",
    "owner_name_raw": "State",
    "owner_class": "STATE",
    "epsg": "EPSG:4326"
  },
  "geometry": {
    "type": "Polygon",
    "coordinates": [
      [
        [
          -111.669599847389,
          40.2073925823789
        ],
        [
          -111.669414150349,
          40.2073828239344
        ],
        [
          -111.669418557484,
          40.2073335384165
        ],
        [
          -111.669604254524,
          40.2073432982403
        ],
        [
          -111.669599847389,
          40.2073925823789
        ]
      ]
    ]
  }
}