{
  "type": "Feature",
  "properties": {
    "parcel_id": "485820288",
    "owner_name_raw": "STATE OF UTAH",
    "owner_class": "STATE",
    "epsg": "EPSG:4326"
  },
  "geometry": {
    "type": "Polygon",
    "coordinates": [
      [
        [
          -112.009775076634,
          40.3450729665648
        ],
        [
          -112.009601108896,
          40.3450018112522
        ],
        [
          -112.009787103279,
          40.3447355909345
        ],
        [
          -112.009961070119,
          40.3448067465279
        ],
        [
          -112.009775076634,
          40.3450729665648
        ]
      ]
    ]
  }
}