{
  "type": "Feature",
  "properties": {
    "parcel_id": "485930167",
    "owner_name_raw": "LGI HOMES-UTAH LLC",
    "owner_class": "UNCLASSIFIED",
    "epsg": "EPSG:4326"
  },
  "geometry": {
    "type": "Polygon",
    "coordinates": [
      [
        [
          -112.011068024517,
          40.3509541008792
        ],
        [
          -112.01106961723,
          40.3508168905424
        ],
        [
          -112.011446236812,
          40.350819449581
        ],
        [
          -112.011444644099,
          40.3509566599125
        ],
        [
          -112.011068024517,
          40.3509541008792
        ]
      ]
    ]
  }
}