{
  "type": "Feature",
  "properties": {
    "parcel_id": "485970803",
    "owner_name_raw": "STATE OF UTAH",
    "owner_class": "STATE",
    "epsg": "EPSG:4326"
  },
  "geometry": {
    "type": "Polygon",
    "coordinates": [
      [
        [
          -112.011877199976,
          40.3445572716531
        ],
        [
          -112.011982042353,
          40.3444072203997
        ],
        [
          -112.012314159395,
          40.3445430758164
        ],
        [
          -112.012209317916,
          40.3446931267676
        ],
        [
          -112.011877199976,
          40.3445572716531
        ]
      ]
    ]
  }
}