{
  "type": "Feature",
  "properties": {
    "parcel_id": "485930182",
    "owner_name_raw": "LGI HOMES-UTAH LLC",
    "owner_class": "UNCLASSIFIED",
    "epsg": "EPSG:4326"
  },
  "geometry": {
    "type": "Polygon",
    "coordinates": [
      [
        [
          -112.010481842353,
          40.3516996319216
        ],
        [
          -112.010483596763,
          40.3515486997399
        ],
        [
          -112.010878153904,
          40.3515513833467
        ],
        [
          -112.010876401291,
          40.3517023141533
        ],
        [
          -112.010481842353,
          40.3516996319216
        ]
      ]
    ]
  }
}