{
  "type": "Feature",
  "properties": {
    "parcel_id": "485950602",
    "owner_name_raw": "STATE OF UTAH",
    "owner_class": "STATE",
    "epsg": "EPSG:4326"
  },
  "geometry": {
    "type": "Polygon",
    "coordinates": [
      [
        [
          -112.013237578998,
          40.3423099234227
        ],
        [
          -112.01342358955,
          40.3420436760486
        ],
        [
          -112.013597551898,
          40.342114835851
        ],
        [
          -112.013411540447,
          40.3423810829443
        ],
        [
          -112.013237578998,
          40.3423099234227
        ]
      ]
    ]
  }
}