{
  "type": "Feature",
  "properties": {
    "parcel_id": "485960714",
    "owner_name_raw": "STATE OF UTAH",
    "owner_class": "STATE",
    "epsg": "EPSG:4326"
  },
  "geometry": {
    "type": "Polygon",
    "coordinates": [
      [
        [
          -112.013066155289,
          40.3430649684725
        ],
        [
          -112.013103913277,
          40.3430109259963
        ],
        [
          -112.013295779947,
          40.3430894074257
        ],
        [
          -112.013258022857,
          40.3431434512083
        ],
        [
          -112.013066155289,
          40.3430649684725
        ]
      ]
    ]
  }
}