{
  "type": "Feature",
  "properties": {
    "parcel_id": "485970807",
    "owner_name_raw": "STATE OF UTAH",
    "owner_class": "STATE",
    "epsg": "EPSG:4326"
  },
  "geometry": {
    "type": "Polygon",
    "coordinates": [
      [
        [
          -112.01227119567,
          40.3439933713429
        ],
        [
          -112.012364198251,
          40.343860261037
        ],
        [
          -112.012696313496,
          40.343996114132
        ],
        [
          -112.012603310915,
          40.3441292248545
        ],
        [
          -112.01227119567,
          40.3439933713429
        ]
      ]
    ]
  }
}