{
  "type": "Feature",
  "properties": {
    "parcel_id": "485930189",
    "owner_name_raw": "LGI HOMES-UTAH LLC",
    "owner_class": "UNCLASSIFIED",
    "epsg": "EPSG:4326"
  },
  "geometry": {
    "type": "Polygon",
    "coordinates": [
      [
        [
          -112.010115924402,
          40.3503510343647
        ],
        [
          -112.010461422749,
          40.3502775822885
        ],
        [
          -112.01048058022,
          40.3503346517469
        ],
        [
          -112.010489976598,
          40.3503670137457
        ],
        [
          -112.010490065532,
          40.3503673923326
        ],
        [
          -112.01050731588,
          40.3504393005271
        ],
        [
          -112.010509932672,
          40.3504538730246
        ],
        [
          -112.010155361342,
          40.3504937094764
        ],
        [
          -112.010147699221,
          40.3504577193687
        ],
        [
          -112.010138567995,
          40.3504219288625
        ],
        [
          -112.010127976547,
          40.3503863727786
        ],
        [
          -112.010115935182,
          40.3503510857101
        ],
        [
          -112.010115924402,
          40.3503510343647
        ]
      ]
    ]
  }
}