{
  "type": "Feature",
  "properties": {
    "parcel_id": "485960718",
    "owner_name_raw": "STATE OF UTAH",
    "owner_class": "STATE",
    "epsg": "EPSG:4326"
  },
  "geometry": {
    "type": "Polygon",
    "coordinates": [
      [
        [
          -112.013271301753,
          40.3427713401996
        ],
        [
          -112.013309057047,
          40.3427172981729
        ],
        [
          -112.013500922818,
          40.3427957813132
        ],
        [
          -112.013463163932,
          40.3428498239617
        ],
        [
          -112.013271301753,
          40.3427713401996
        ]
      ]
    ]
  }
}