{
  "type": "Feature",
  "properties": {
    "parcel_id": "485960724",
    "owner_name_raw": "STATE OF UTAH",
    "owner_class": "STATE",
    "epsg": "EPSG:4326"
  },
  "geometry": {
    "type": "Polygon",
    "coordinates": [
      [
        [
          -112.013536168218,
          40.3429491808174
        ],
        [
          -112.013573926206,
          40.3428951375638
        ],
        [
          -112.013765793775,
          40.3429736198126
        ],
        [
          -112.013728036685,
          40.3430276630033
        ],
        [
          -112.013536168218,
          40.3429491808174
        ]
      ]
    ]
  }
}