{
  "type": "Feature",
  "properties": {
    "parcel_id": "485930166",
    "owner_name_raw": "LGI HOMES-UTAH LLC",
    "owner_class": "UNCLASSIFIED",
    "epsg": "EPSG:4326"
  },
  "geometry": {
    "type": "Polygon",
    "coordinates": [
      [
        [
          -112.011069613637,
          40.3508168891732
        ],
        [
          -112.011071048247,
          40.3506933993576
        ],
        [
          -112.011447666929,
          40.3506959590855
        ],
        [
          -112.011446233218,
          40.3508194482118
        ],
        [
          -112.011069613637,
          40.3508168891732
        ]
      ]
    ]
  }
}