{
  "type": "Feature",
  "properties": {
    "parcel_id": "486121126",
    "owner_name_raw": "STATE OF UTAH",
    "owner_class": "STATE",
    "epsg": "EPSG:4326"
  },
  "geometry": {
    "type": "Polygon",
    "coordinates": [
      [
        [
          -112.00621340206,
          40.3458853209256
        ],
        [
          -112.006203272824,
          40.345883018216
        ],
        [
          -112.006193926257,
          40.3458792556686
        ],
        [
          -112.00618572051,
          40.3458741774613
        ],
        [
          -112.006178970022,
          40.3458679781866
        ],
        [
          -112.006173933466,
          40.3458608953958
        ],
        [
          -112.006170803839,
          40.3458532004957
        ],
        [
          -112.006169701066,
          40.3458451883488
        ],
        [
          -112.006170667405,
          40.3458371659742
        ],
        [
          -112.006240048786,
          40.3455595289191
        ],
        [
          -112.006499228017,
          40.3455974450688
        ],
        [
          -112.006592118309,
          40.345611918653
        ],
        [
          -112.006512853663,
          40.3459291262572
        ],
        [
          -112.00621340206,
          40.3458853209256
        ]
      ]
    ]
  }
}