{
  "type": "Feature",
  "properties": {
    "parcel_id": "486121133",
    "owner_name_raw": "STATE OF UTAH",
    "owner_class": "STATE",
    "epsg": "EPSG:4326"
  },
  "geometry": {
    "type": "Polygon",
    "coordinates": [
      [
        [
          -112.006754324404,
          40.3465265819401
        ],
        [
          -112.006894749948,
          40.3461802316826
        ],
        [
          -112.006992138753,
          40.3462051587673
        ],
        [
          -112.00708851533,
          40.3462322749501
        ],
        [
          -112.007183794986,
          40.3462615563999
        ],
        [
          -112.007277893993,
          40.3462929773824
        ],
        [
          -112.007107708163,
          40.3465919326028
        ],
        [
          -112.006754324404,
          40.3465265819401
        ]
      ]
    ]
  }
}