{
  "type": "Feature",
  "properties": {
    "parcel_id": "486121134",
    "owner_name_raw": "STATE OF UTAH",
    "owner_class": "STATE",
    "epsg": "EPSG:4326"
  },
  "geometry": {
    "type": "Polygon",
    "coordinates": [
      [
        [
          -112.007107700976,
          40.3465919298642
        ],
        [
          -112.00727788501,
          40.3462929828596
        ],
        [
          -112.007379390527,
          40.3463297784228
        ],
        [
          -112.007479278313,
          40.3463690614704
        ],
        [
          -112.007802202895,
          40.346501148074
        ],
        [
          -112.007810977302,
          40.3465056484489
        ],
        [
          -112.00781843571,
          40.3465113635121
        ],
        [
          -112.007824293277,
          40.3465180749983
        ],
        [
          -112.007828326293,
          40.346525526588
        ],
        [
          -112.007830380734,
          40.3465334336962
        ],
        [
          -112.007830378138,
          40.3465414943414
        ],
        [
          -112.007828318605,
          40.3465494006782
        ],
        [
          -112.00782428079,
          40.3465568507548
        ],
        [
          -112.007720810141,
          40.3467049418865
        ],
        [
          -112.007107700976,
          40.3465919298642
        ]
      ]
    ]
  }
}