{
  "type": "Feature",
  "properties": {
    "parcel_id": "492860011",
    "owner_name_raw": "UTAH VALLEY UNIVERSITY",
    "owner_class": "UNCLASSIFIED",
    "epsg": "EPSG:4326"
  },
  "geometry": {
    "type": "Polygon",
    "coordinates": [
      [
        [
          -111.733151967953,
          40.278683165181
        ],
        [
          -111.732962077577,
          40.2786850512166
        ],
        [
          -111.732957429694,
          40.2784106386417
        ],
        [
          -111.733147321867,
          40.2784087532837
        ],
        [
          -111.733151967953,
          40.278683165181
        ]
      ]
    ]
  }
}