{
  "type": "Feature",
  "properties": {
    "parcel_id": "493830002",
    "owner_name_raw": "RELIANT-UTAH LLC",
    "owner_class": "UNCLASSIFIED",
    "epsg": "EPSG:4326"
  },
  "geometry": {
    "type": "Polygon",
    "coordinates": [
      [
        [
          -111.669222114796,
          40.2228781858676
        ],
        [
          -111.668298525411,
          40.2228671943502
        ],
        [
          -111.668314465117,
          40.2220803356201
        ],
        [
          -111.66923804462,
          40.2220913258933
        ],
        [
          -111.669222114796,
          40.2228781858676
        ]
      ]
    ]
  }
}