{
  "type": "Feature",
  "properties": {
    "parcel_id": "494290045",
    "owner_name_raw": "UTAH DEPARTMENT OF TRANSPORTATION",
    "owner_class": "STATE",
    "epsg": "EPSG:4326"
  },
  "geometry": {
    "type": "Polygon",
    "coordinates": [
      [
        [
          -111.752892060944,
          40.3662812599257
        ],
        [
          -111.752912627873,
          40.3662283037868
        ],
        [
          -111.752953529066,
          40.3662385834588
        ],
        [
          -111.752932943273,
          40.3662915957141
        ],
        [
          -111.752892060944,
          40.3662812599257
        ]
      ]
    ]
  }
}