{
  "type": "Feature",
  "properties": {
    "parcel_id": "494740006",
    "owner_name_raw": "UTAH DEPARTMENT OF TRANSPORTATION",
    "owner_class": "STATE",
    "epsg": "EPSG:4326"
  },
  "geometry": {
    "type": "Polygon",
    "coordinates": [
      [
        [
          -111.728145218497,
          40.2762409968028
        ],
        [
          -111.727923585252,
          40.2759983503449
        ],
        [
          -111.727983259438,
          40.2759972201863
        ],
        [
          -111.72842375732,
          40.2764763831091
        ],
        [
          -111.728428822022,
          40.2764779888961
        ],
        [
          -111.729231318506,
          40.2773732684913
        ],
        [
          -111.729173918855,
          40.2773759968537
        ],
        [
          -111.729160677687,
          40.2773591983361
        ],
        [
          -111.729006516005,
          40.2771839831957
        ],
        [
          -111.728145218497,
          40.2762409968028
        ]
      ]
    ]
  }
}