{
  "type": "Feature",
  "properties": {
    "parcel_id": "495260008",
    "owner_name_raw": "UTAH DEPARTMENT OF TRANSPORTATION",
    "owner_class": "STATE",
    "epsg": "EPSG:4326"
  },
  "geometry": {
    "type": "Polygon",
    "coordinates": [
      [
        [
          -111.728145259819,
          40.2762410242171
        ],
        [
          -111.728131821921,
          40.2762466667652
        ],
        [
          -111.727821721688,
          40.2760002823746
        ],
        [
          -111.727923593337,
          40.275998354457
        ],
        [
          -111.728145259819,
          40.2762410242171
        ]
      ]
    ]
  }
}