{
  "type": "Feature",
  "properties": {
    "parcel_id": "497640004",
    "owner_name_raw": "UTAH COUNTY",
    "owner_class": "UNCLASSIFIED",
    "epsg": "EPSG:4326"
  },
  "geometry": {
    "type": "Polygon",
    "coordinates": [
      [
        [
          -111.752689205184,
          40.4807564194762
        ],
        [
          -111.753476047626,
          40.4799054459785
        ],
        [
          -111.753501760703,
          40.479879090003
        ],
        [
          -111.753529265547,
          40.4798538022685
        ],
        [
          -111.753558485589,
          40.479829653172
        ],
        [
          -111.753589339487,
          40.4798067099408
        ],
        [
          -111.75362174135,
          40.4797850364453
        ],
        [
          -111.753655600977,
          40.4797646930215
        ],
        [
          -111.753690824112,
          40.4797457363022
        ],
        [
          -111.753727312699,
          40.4797282190604
        ],
        [
          -111.754036380767,
          40.4795881914733
        ],
        [
          -111.754066322257,
          40.4795737891862
        ],
        [
          -111.754095102785,
          40.4795580771086
        ],
        [
          -111.754122623443,
          40.4795411092358
        ],
        [
          -111.754148789654,
          40.4795229438791
        ],
        [
          -111.754284920352,
          40.4795225284371
        ],
        [
          -111.754408903133,
          40.479522147843
        ],
        [
          -111.754382153445,
          40.4795518237615
        ],
        [
          -111.754353198974,
          40.4795802772677
        ],
        [
          -111.754322136038,
          40.4796074137112
        ],
        [
          -111.75428906797,
          40.4796331428227
        ],
        [
          -111.754254104771,
          40.4796573790148
        ],
        [
          -111.75421736275,
          40.4796800416662
        ],
        [
          -111.754178964129,
          40.47970105539
        ],
        [
          -111.754139036645,
          40.4797203502846
        ],
        [
          -111.753829968576,
          40.4798603789626
        ],
        [
          -111.753775905975,
          40.4798879257515
        ],
        [
          -111.753725936183,
          40.4799196301432
        ],
        [
          -111.753680609463,
          40.479955143006
        ],
        [
          -111.75364042495,
          40.4799940732694
        ],
        [
          -111.753428424339,
          40.4802233638213
        ],
        [
          -111.751988795045,
          40.4817803296082
        ],
        [
          -111.751959535407,
          40.4818100880519
        ],
        [
          -111.75192799403,
          40.4818384659207
        ],
        [
          -111.751894283248,
          40.4818653621477
        ],
        [
          -111.751858523123,
          40.4818906809428
        ],
        [
          -111.751820841017,
          40.4819143321342
        ],
        [
          -111.751781371135,
          40.4819362314891
        ],
        [
          -111.751740254052,
          40.4819563010141
        ],
        [
          -111.751697636205,
          40.4819744692325
        ],
        [
          -111.751653669382,
          40.4819906714392
        ],
        [
          -111.75160851017,
          40.4820048499308
        ],
        [
          -111.751562319407,
          40.4820169542116
        ],
        [
          -111.751515261601,
          40.4820269411729
        ],
        [
          -111.751467504351,
          40.4820347752466
        ],
        [
          -111.751419217746,
          40.4820404285323
        ],
        [
          -111.75137057376,
          40.4820438808961
        ],
        [
          -111.751321745641,
          40.4820451200427
        ],
        [
          -111.751063561743,
          40.4820456741723
        ],
        [
          -111.751062159473,
          40.4818920024459
        ],
        [
          -111.751321169821,
          40.4818914476318
        ],
        [
          -111.751358006777,
          40.481890519766
        ],
        [
          -111.751394705256,
          40.4818879212875
        ],
        [
          -111.751431134413,
          40.4818836614606
        ],
        [
          -111.751467164366,
          40.4818777554731
        ],
        [
          -111.751502666654,
          40.4818702243814
        ],
        [
          -111.751537514698,
          40.4818610950363
        ],
        [
          -111.751571584251,
          40.4818503999867
        ],
        [
          -111.751604753842,
          40.4818381773636
        ],
        [
          -111.75163690521,
          40.4818244707446
        ],
        [
          -111.751667923722,
          40.4818093289981
        ],
        [
          -111.751697698787,
          40.481792806109
        ],
        [
          -111.751726124244,
          40.4817749609867
        ],
        [
          -111.751753098747,
          40.4817558572549
        ],
        [
          -111.75177852612,
          40.4817355630244
        ],
        [
          -111.751802315706,
          40.4817141506508
        ],
        [
          -111.751824382687,
          40.4816916964762
        ],
        [
          -111.752689205184,
          40.4807564194762
        ]
      ]
    ]
  }
}