{
  "type": "Feature",
  "properties": {
    "parcel_id": "501360004",
    "owner_name_raw": "QQ UTAH 5 LLC",
    "owner_class": "UNCLASSIFIED",
    "epsg": "EPSG:4326"
  },
  "geometry": {
    "type": "Polygon",
    "coordinates": [
      [
        [
          -111.908729756359,
          40.4133170811451
        ],
        [
          -111.908969763746,
          40.4133232689866
        ],
        [
          -111.909320709476,
          40.4133354552095
        ],
        [
          -111.909320308827,
          40.4133407155916
        ],
        [
          -111.909352208003,
          40.4133421409765
        ],
        [
          -111.909443812806,
          40.4133531856571
        ],
        [
          -111.909525302578,
          40.4133569939785
        ],
        [
          -111.90956978266,
          40.4134058852008
        ],
        [
          -111.90957095047,
          40.4136009182952
        ],
        [
          -111.909142066007,
          40.4136032054684
        ],
        [
          -111.909146762399,
          40.4141183748769
        ],
        [
          -111.908737083917,
          40.414120556703
        ],
        [
          -111.908729756359,
          40.4133170811451
        ]
      ]
    ]
  }
}