{
  "type": "Feature",
  "properties": {
    "parcel_id": "515390002",
    "owner_name_raw": "UTAH DEPARTMENT OF TRANSPORTATION",
    "owner_class": "STATE",
    "epsg": "EPSG:4326"
  },
  "geometry": {
    "type": "Polygon",
    "coordinates": [
      [
        [
          -111.642248920087,
          40.1461740552682
        ],
        [
          -111.641154759495,
          40.1461862265647
        ],
        [
          -111.641148949191,
          40.1458473109339
        ],
        [
          -111.641239061893,
          40.1458620065144
        ],
        [
          -111.641241216951,
          40.1459875838662
        ],
        [
          -111.641352577503,
          40.1460467842331
        ],
        [
          -111.642156013626,
          40.1460378464662
        ],
        [
          -111.642245892765,
          40.1459769719754
        ],
        [
          -111.642248991054,
          40.1461740126944
        ],
        [
          -111.642248920087,
          40.1461740552682
        ]
      ]
    ]
  }
}