{
  "type": "Feature",
  "properties": {
    "parcel_id": "517260340",
    "owner_name_raw": "EDGE HOMES UTAH LLC",
    "owner_class": "UNCLASSIFIED",
    "epsg": "EPSG:4326"
  },
  "geometry": {
    "type": "Polygon",
    "coordinates": [
      [
        [
          -111.94960535027,
          40.3795533032571
        ],
        [
          -111.94991882727,
          40.3796869829322
        ],
        [
          -111.949858992285,
          40.3797779034361
        ],
        [
          -111.949822484752,
          40.379836521828
        ],
        [
          -111.949817258078,
          40.3798432120509
        ],
        [
          -111.949810463906,
          40.3798490279699
        ],
        [
          -111.949802347744,
          40.3798537594264
        ],
        [
          -111.949793202872,
          40.3798572354489
        ],
        [
          -111.949783359739,
          40.379859330431
        ],
        [
          -111.949773174029,
          40.3798599686705
        ],
        [
          -111.949763013803,
          40.3798591271046
        ],
        [
          -111.949753246204,
          40.3798568361432
        ],
        [
          -111.949679974219,
          40.3798344326406
        ],
        [
          -111.949487952141,
          40.3797779650237
        ],
        [
          -111.949478876894,
          40.3797744667134
        ],
        [
          -111.949470761979,
          40.3797697957669
        ],
        [
          -111.949501987466,
          40.3797148160932
        ],
        [
          -111.949534838704,
          40.3796603889042
        ],
        [
          -111.949569298859,
          40.3796065420933
        ],
        [
          -111.94960535027,
          40.3795533032571
        ]
      ]
    ]
  }
}