{
  "type": "Feature",
  "properties": {
    "parcel_id": "517730201",
    "owner_name_raw": "EDGE HOMES UTAH LLC",
    "owner_class": "UNCLASSIFIED",
    "epsg": "EPSG:4326"
  },
  "geometry": {
    "type": "Polygon",
    "coordinates": [
      [
        [
          -111.907031429331,
          40.4011733113793
        ],
        [
          -111.907357869021,
          40.4011721737383
        ],
        [
          -111.907358761946,
          40.4013221205366
        ],
        [
          -111.907357601345,
          40.4013317468027
        ],
        [
          -111.907353996536,
          40.4013410155834
        ],
        [
          -111.907348086097,
          40.4013495705629
        ],
        [
          -111.907340097241,
          40.4013570828661
        ],
        [
          -111.907330337081,
          40.4013632637011
        ],
        [
          -111.907319180822,
          40.4013678754609
        ],
        [
          -111.907307057339,
          40.401370740858
        ],
        [
          -111.90729443269,
          40.4013717497393
        ],
        [
          -111.907097650439,
          40.4013724338269
        ],
        [
          -111.907085033291,
          40.4013715148203
        ],
        [
          -111.907072893115,
          40.4013687412779
        ],
        [
          -111.907061695281,
          40.4013642195181
        ],
        [
          -111.907051869039,
          40.4013581228742
        ],
        [
          -111.90704379106,
          40.4013506850497
        ],
        [
          -111.907037771,
          40.40134219116
        ],
        [
          -111.907034039626,
          40.4013329668028
        ],
        [
          -111.907032739973,
          40.4013233655769
        ],
        [
          -111.907031429331,
          40.4011733113793
        ]
      ]
    ]
  }
}