{
  "type": "Feature",
  "properties": {
    "parcel_id": "517980405",
    "owner_name_raw": "EDGE HOMES UTAH LLC",
    "owner_class": "UNCLASSIFIED",
    "epsg": "EPSG:4326"
  },
  "geometry": {
    "type": "Polygon",
    "coordinates": [
      [
        [
          -111.910681274449,
          40.4006806207371
        ],
        [
          -111.910700758009,
          40.4005699833971
        ],
        [
          -111.910717167535,
          40.4005393290614
        ],
        [
          -111.911032186942,
          40.4006058005867
        ],
        [
          -111.911024113981,
          40.400630215949
        ],
        [
          -111.911017430815,
          40.4006548736591
        ],
        [
          -111.911012149873,
          40.4006797278603
        ],
        [
          -111.911008280975,
          40.4007047323305
        ],
        [
          -111.910681274449,
          40.4006806207371
        ]
      ]
    ]
  }
}