{
  "type": "Feature",
  "properties": {
    "parcel_id": "518090826",
    "owner_name_raw": "EDGE HOMES UTAH LLC",
    "owner_class": "UNCLASSIFIED",
    "epsg": "EPSG:4326"
  },
  "geometry": {
    "type": "Polygon",
    "coordinates": [
      [
        [
          -111.951252128374,
          40.3794206942627
        ],
        [
          -111.951475297739,
          40.3792107891941
        ],
        [
          -111.951543397224,
          40.37925314061
        ],
        [
          -111.951323011738,
          40.3794604260073
        ],
        [
          -111.951252128374,
          40.3794206942627
        ]
      ]
    ]
  }
}