{
  "type": "Feature",
  "properties": {
    "parcel_id": "518110932",
    "owner_name_raw": "EDGE HOMES UTAH LLC",
    "owner_class": "UNCLASSIFIED",
    "epsg": "EPSG:4326"
  },
  "geometry": {
    "type": "Polygon",
    "coordinates": [
      [
        [
          -111.954740222842,
          40.3797217690295
        ],
        [
          -111.954838615315,
          40.3796070249316
        ],
        [
          -111.955138666095,
          40.3797575028742
        ],
        [
          -111.955040270927,
          40.3798722460316
        ],
        [
          -111.954740222842,
          40.3797217690295
        ]
      ]
    ]
  }
}