{
  "type": "Feature",
  "properties": {
    "parcel_id": "518110903",
    "owner_name_raw": "EDGE HOMES UTAH LLC",
    "owner_class": "UNCLASSIFIED",
    "epsg": "EPSG:4326"
  },
  "geometry": {
    "type": "Polygon",
    "coordinates": [
      [
        [
          -111.954798245925,
          40.3803919833212
        ],
        [
          -111.954858456448,
          40.3803424839365
        ],
        [
          -111.954914973013,
          40.3802905185571
        ],
        [
          -111.955197129352,
          40.3804600835248
        ],
        [
          -111.955054103185,
          40.3805844090903
        ],
        [
          -111.954798245925,
          40.3803919833212
        ]
      ]
    ]
  }
}