{
  "type": "Feature",
  "properties": {
    "parcel_id": "518210520",
    "owner_name_raw": "EDGE HOMES UTAH LLC",
    "owner_class": "UNCLASSIFIED",
    "epsg": "EPSG:4326"
  },
  "geometry": {
    "type": "Polygon",
    "coordinates": [
      [
        [
          -111.912054053815,
          40.3978065295894
        ],
        [
          -111.912052441339,
          40.3976150122827
        ],
        [
          -111.912393150767,
          40.3976547866571
        ],
        [
          -111.912390227597,
          40.3976756486857
        ],
        [
          -111.91238933652,
          40.3976966181716
        ],
        [
          -111.91238999229,
          40.3978053453711
        ],
        [
          -111.912054053815,
          40.3978065295894
        ]
      ]
    ]
  }
}