{
  "type": "Feature",
  "properties": {
    "parcel_id": "518210527",
    "owner_name_raw": "EDGE HOMES UTAH LLC",
    "owner_class": "UNCLASSIFIED",
    "epsg": "EPSG:4326"
  },
  "geometry": {
    "type": "Polygon",
    "coordinates": [
      [
        [
          -111.91170723764,
          40.3981632239472
        ],
        [
          -111.91170674716,
          40.3980272385082
        ],
        [
          -111.911707929687,
          40.3980176284181
        ],
        [
          -111.91171154817,
          40.3980083779574
        ],
        [
          -111.911717463919,
          40.3979998416791
        ],
        [
          -111.911725450195,
          40.3979923467632
        ],
        [
          -111.911735200897,
          40.3979861804761
        ],
        [
          -111.911746342302,
          40.3979815791605
        ],
        [
          -111.911758447378,
          40.3979787191765
        ],
        [
          -111.911771052161,
          40.3979777101423
        ],
        [
          -111.912040581781,
          40.397976761265
        ],
        [
          -111.912041697488,
          40.3981620527335
        ],
        [
          -111.91170723764,
          40.3981632239472
        ]
      ]
    ]
  }
}