{
  "type": "Feature",
  "properties": {
    "parcel_id": "518210524",
    "owner_name_raw": "EDGE HOMES UTAH LLC",
    "owner_class": "UNCLASSIFIED",
    "epsg": "EPSG:4326"
  },
  "geometry": {
    "type": "Polygon",
    "coordinates": [
      [
        [
          -111.911704277691,
          40.3973518840121
        ],
        [
          -111.912139572532,
          40.3973503536168
        ],
        [
          -111.912106580106,
          40.397450548939
        ],
        [
          -111.912095993461,
          40.3974826967623
        ],
        [
          -111.911704748408,
          40.3974840739102
        ],
        [
          -111.911704277691,
          40.3973518840121
        ]
      ]
    ]
  }
}