{
  "type": "Feature",
  "properties": {
    "parcel_id": "518390701",
    "owner_name_raw": "EDGE HOMES UTAH LLC",
    "owner_class": "UNCLASSIFIED",
    "epsg": "EPSG:4326"
  },
  "geometry": {
    "type": "Polygon",
    "coordinates": [
      [
        [
          -111.906248865565,
          40.4015840361409
        ],
        [
          -111.906248867361,
          40.4015839766255
        ],
        [
          -111.906249514169,
          40.4015786293875
        ],
        [
          -111.906251518314,
          40.4015734809614
        ],
        [
          -111.906254802793,
          40.4015687291633
        ],
        [
          -111.906259241406,
          40.4015645565699
        ],
        [
          -111.90626466361,
          40.4015611235036
        ],
        [
          -111.906270861071,
          40.4015585618717
        ],
        [
          -111.906277595665,
          40.4015569700992
        ],
        [
          -111.906284608631,
          40.4015564093462
        ],
        [
          -111.906586063478,
          40.4015553613269
        ],
        [
          -111.906587358848,
          40.4017040437683
        ],
        [
          -111.906249933661,
          40.4017052162886
        ],
        [
          -111.906248865565,
          40.4015840361409
        ]
      ]
    ]
  }
}