{
  "type": "Feature",
  "properties": {
    "parcel_id": "518420221",
    "owner_name_raw": "EDGE HOMES UTAH LLC",
    "owner_class": "UNCLASSIFIED",
    "epsg": "EPSG:4326"
  },
  "geometry": {
    "type": "Polygon",
    "coordinates": [
      [
        [
          -112.039105358121,
          40.3070491245374
        ],
        [
          -112.039104497535,
          40.3068295761224
        ],
        [
          -112.039534657606,
          40.3068285882841
        ],
        [
          -112.03953551909,
          40.3070481360173
        ],
        [
          -112.039105358121,
          40.3070491245374
        ]
      ]
    ]
  }
}