{
  "type": "Feature",
  "properties": {
    "parcel_id": "518420240",
    "owner_name_raw": "EDGE HOMES UTAH LLC",
    "owner_class": "UNCLASSIFIED",
    "epsg": "EPSG:4326"
  },
  "geometry": {
    "type": "Polygon",
    "coordinates": [
      [
        [
          -112.039755887507,
          40.3093112358298
        ],
        [
          -112.039755322467,
          40.3091679790433
        ],
        [
          -112.039756638534,
          40.3091572698881
        ],
        [
          -112.039760673309,
          40.3091469632561
        ],
        [
          -112.039767271245,
          40.3091374564837
        ],
        [
          -112.039776177981,
          40.3091291160718
        ],
        [
          -112.03978705015,
          40.3091222635564
        ],
        [
          -112.039799468613,
          40.3091171631128
        ],
        [
          -112.03981295462,
          40.3091140113712
        ],
        [
          -112.039826988264,
          40.3091129298363
        ],
        [
          -112.040237269515,
          40.3091127825561
        ],
        [
          -112.040238044761,
          40.309310129519
        ],
        [
          -112.039755887507,
          40.3093112358298
        ]
      ]
    ]
  }
}