{
  "type": "Feature",
  "properties": {
    "parcel_id": "518420232",
    "owner_name_raw": "EDGE HOMES UTAH LLC",
    "owner_class": "UNCLASSIFIED",
    "epsg": "EPSG:4326"
  },
  "geometry": {
    "type": "Polygon",
    "coordinates": [
      [
        [
          -112.039746633962,
          40.3069440316824
        ],
        [
          -112.040176793134,
          40.3069430424757
        ],
        [
          -112.040177421056,
          40.3071029560472
        ],
        [
          -112.03976013564,
          40.3075325653202
        ],
        [
          -112.039751619571,
          40.3074988291511
        ],
        [
          -112.039748676731,
          40.3074645469568
        ],
        [
          -112.039746633962,
          40.3069440316824
        ]
      ]
    ]
  }
}