{
  "type": "Feature",
  "properties": {
    "parcel_id": "518420248",
    "owner_name_raw": "EDGE HOMES UTAH LLC",
    "owner_class": "UNCLASSIFIED",
    "epsg": "EPSG:4326"
  },
  "geometry": {
    "type": "Polygon",
    "coordinates": [
      [
        [
          -112.039762239495,
          40.3109282229868
        ],
        [
          -112.039761450774,
          40.310727281036
        ],
        [
          -112.040243616113,
          40.3107261713233
        ],
        [
          -112.040244405732,
          40.3109271132775
        ],
        [
          -112.039762239495,
          40.3109282229868
        ]
      ]
    ]
  }
}