{
  "type": "Feature",
  "properties": {
    "parcel_id": "518420212",
    "owner_name_raw": "EDGE HOMES UTAH LLC",
    "owner_class": "UNCLASSIFIED",
    "epsg": "EPSG:4326"
  },
  "geometry": {
    "type": "Polygon",
    "coordinates": [
      [
        [
          -112.039113238143,
          40.3090603912
        ],
        [
          -112.0391124081,
          40.308849384073
        ],
        [
          -112.039542833173,
          40.3088579078618
        ],
        [
          -112.03954266968,
          40.3088689121311
        ],
        [
          -112.039543415281,
          40.3090593965441
        ],
        [
          -112.039113238143,
          40.3090603912
        ]
      ]
    ]
  }
}