{
  "type": "Feature",
  "properties": {
    "parcel_id": "518430308",
    "owner_name_raw": "EDGE HOMES UTAH LLC",
    "owner_class": "UNCLASSIFIED",
    "epsg": "EPSG:4326"
  },
  "geometry": {
    "type": "Polygon",
    "coordinates": [
      [
        [
          -112.04023960244,
          40.3096968522128
        ],
        [
          -112.040238843364,
          40.3095034856625
        ],
        [
          -112.040720999719,
          40.3095023731896
        ],
        [
          -112.040721761491,
          40.3096957397431
        ],
        [
          -112.04023960244,
          40.3096968522128
        ]
      ]
    ]
  }
}