{
  "type": "Feature",
  "properties": {
    "parcel_id": "518420233",
    "owner_name_raw": "EDGE HOMES UTAH LLC",
    "owner_class": "UNCLASSIFIED",
    "epsg": "EPSG:4326"
  },
  "geometry": {
    "type": "Polygon",
    "coordinates": [
      [
        [
          -112.039985782558,
          40.307736906345
        ],
        [
          -112.040243275651,
          40.307473098322
        ],
        [
          -112.040504015256,
          40.3076222575773
        ],
        [
          -112.040246522163,
          40.3078860663877
        ],
        [
          -112.039985782558,
          40.307736906345
        ]
      ]
    ]
  }
}