{
  "type": "Feature",
  "properties": {
    "parcel_id": "521680013",
    "owner_name_raw": "UTAH COUNTY",
    "owner_class": "UNCLASSIFIED",
    "epsg": "EPSG:4326"
  },
  "geometry": {
    "type": "Polygon",
    "coordinates": [
      [
        [
          -111.763854989281,
          40.4653236835557
        ],
        [
          -111.764044652383,
          40.4644488706426
        ],
        [
          -111.764083817133,
          40.464448782478
        ],
        [
          -111.763854989281,
          40.4653236835557
        ]
      ]
    ]
  }
}