{
  "type": "Feature",
  "properties": {
    "parcel_id": "522440005",
    "owner_name_raw": "PROVO UTAH STAKE CHURCH OF JESUS CHRIST OF LDS",
    "owner_class": "UNCLASSIFIED",
    "epsg": "EPSG:4326"
  },
  "geometry": {
    "type": "Polygon",
    "coordinates": [
      [
        [
          -111.634800256838,
          40.2223376713414
        ],
        [
          -111.634776290684,
          40.2222687153657
        ],
        [
          -111.634774879449,
          40.2222617630462
        ],
        [
          -111.634775434609,
          40.222254740499
        ],
        [
          -111.634777930822,
          40.2222479682664
        ],
        [
          -111.63478225415,
          40.2222417554657
        ],
        [
          -111.634788207256,
          40.2222363856789
        ],
        [
          -111.634795518411,
          40.2222321040087
        ],
        [
          -111.634803853901,
          40.2222291058914
        ],
        [
          -111.634812833252,
          40.2222275281754
        ],
        [
          -111.634932854462,
          40.2222168109143
        ],
        [
          -111.634966802695,
          40.2223036704085
        ],
        [
          -111.634800256838,
          40.2223376713414
        ]
      ]
    ]
  }
}