{
  "type": "Feature",
  "properties": {
    "parcel_id": "526410199",
    "owner_name_raw": "Federal",
    "owner_class": "UNCLASSIFIED",
    "epsg": "EPSG:4326"
  },
  "geometry": {
    "type": "Polygon",
    "coordinates": [
      [
        [
          -111.602352620092,
          40.182922392043
        ],
        [
          -111.602351030972,
          40.1826718843273
        ],
        [
          -111.602637280036,
          40.1826720222746
        ],
        [
          -111.602638861071,
          40.1829208265871
        ],
        [
          -111.602352620092,
          40.182922392043
        ]
      ]
    ]
  }
}