{
  "type": "Feature",
  "properties": {
    "parcel_id": "526410185",
    "owner_name_raw": "Federal",
    "owner_class": "UNCLASSIFIED",
    "epsg": "EPSG:4326"
  },
  "geometry": {
    "type": "Polygon",
    "coordinates": [
      [
        [
          -111.601207663363,
          40.1829288515212
        ],
        [
          -111.601206032023,
          40.1826713194983
        ],
        [
          -111.601492281087,
          40.1826714601908
        ],
        [
          -111.601493899851,
          40.1829271529228
        ],
        [
          -111.601207663363,
          40.1829288515212
        ]
      ]
    ]
  }
}