{
  "type": "Feature",
  "properties": {
    "parcel_id": "527090262",
    "owner_name_raw": "Federal",
    "owner_class": "UNCLASSIFIED",
    "epsg": "EPSG:4326"
  },
  "geometry": {
    "type": "Polygon",
    "coordinates": [
      [
        [
          -111.599143274653,
          40.1829402612972
        ],
        [
          -111.598588734747,
          40.1829433407354
        ],
        [
          -111.598824058317,
          40.1826228663495
        ],
        [
          -111.598844432328,
          40.1826298966842
        ],
        [
          -111.598865798267,
          40.182634922551
        ],
        [
          -111.598887819788,
          40.1826378648325
        ],
        [
          -111.598910150226,
          40.1826386772111
        ],
        [
          -111.59893243805,
          40.1826373468981
        ],
        [
          -111.598954332402,
          40.1826338948355
        ],
        [
          -111.598975488619,
          40.182628375366
        ],
        [
          -111.598995573654,
          40.1826208753773
        ],
        [
          -111.599142138285,
          40.182819462384
        ],
        [
          -111.599143274653,
          40.1829402612972
        ]
      ]
    ]
  }
}