{
  "type": "Feature",
  "properties": {
    "parcel_id": "527240010",
    "owner_name_raw": "BC OF UTAH LLC",
    "owner_class": "UNCLASSIFIED",
    "epsg": "EPSG:4326"
  },
  "geometry": {
    "type": "Polygon",
    "coordinates": [
      [
        [
          -111.623177481789,
          40.1862280299505
        ],
        [
          -111.622020081598,
          40.1860143268208
        ],
        [
          -111.622021235933,
          40.1859271140534
        ],
        [
          -111.621915154779,
          40.1859073247099
        ],
        [
          -111.621908865674,
          40.1852838936116
        ],
        [
          -111.622168831899,
          40.1853088598104
        ],
        [
          -111.622429503033,
          40.1853290864007
        ],
        [
          -111.62269073104,
          40.1853445619002
        ],
        [
          -111.622952367572,
          40.1853552775236
        ],
        [
          -111.623223624652,
          40.1853637976623
        ],
        [
          -111.623177481789,
          40.1862280299505
        ]
      ]
    ]
  }
}