{
  "type": "Feature",
  "properties": {
    "parcel_id": "527320021",
    "owner_name_raw": "CITY OF SARATOGA SPRINGS",
    "owner_class": "STATE",
    "epsg": "EPSG:4326"
  },
  "geometry": {
    "type": "Polygon",
    "coordinates": [
      [
        [
          -111.908141968008,
          40.3356123542724
        ],
        [
          -111.907846573196,
          40.3353362439164
        ],
        [
          -111.907940006969,
          40.3353678749422
        ],
        [
          -111.908440365887,
          40.3355372714912
        ],
        [
          -111.908815516723,
          40.3357256900894
        ],
        [
          -111.909211662984,
          40.3358950775231
        ],
        [
          -111.909564019967,
          40.3360226707559
        ],
        [
          -111.910089218201,
          40.3363105285843
        ],
        [
          -111.909902103619,
          40.336390212008
        ],
        [
          -111.909328303833,
          40.336028504151
        ],
        [
          -111.908141968008,
          40.3356123542724
        ]
      ]
    ]
  }
}