{
  "type": "Feature",
  "properties": {
    "parcel_id": "528360058",
    "owner_name_raw": "State",
    "owner_class": "STATE",
    "epsg": "EPSG:4326"
  },
  "geometry": {
    "type": "Polygon",
    "coordinates": [
      [
        [
          -111.895739219036,
          40.3219158184757
        ],
        [
          -111.895482112218,
          40.3222205416558
        ],
        [
          -111.895442866389,
          40.3221794971344
        ],
        [
          -111.895405371722,
          40.322137511776
        ],
        [
          -111.895369666985,
          40.3220946289913
        ],
        [
          -111.895335789098,
          40.3220508931192
        ],
        [
          -111.895303773091,
          40.3220063493806
        ],
        [
          -111.895273652066,
          40.321961043832
        ],
        [
          -111.89524545717,
          40.3219150233174
        ],
        [
          -111.895219217556,
          40.3218683354203
        ],
        [
          -111.895454622872,
          40.3218323948709
        ],
        [
          -111.895739219036,
          40.3219158184757
        ]
      ]
    ]
  }
}