{
  "type": "Feature",
  "properties": {
    "parcel_id": "529650014",
    "owner_name_raw": "UTAH DEPARTMENT OF TRANSPORTATION",
    "owner_class": "STATE",
    "epsg": "EPSG:4326"
  },
  "geometry": {
    "type": "Polygon",
    "coordinates": [
      [
        [
          -111.916078230505,
          40.3849369758397
        ],
        [
          -111.916079019226,
          40.3847833003054
        ],
        [
          -111.916163965716,
          40.3847832866202
        ],
        [
          -111.916163857918,
          40.3843876184722
        ],
        [
          -111.916199638714,
          40.3839888544418
        ],
        [
          -111.916200487622,
          40.3871227716635
        ],
        [
          -111.916164625978,
          40.3871639658588
        ],
        [
          -111.916164170532,
          40.3854783312245
        ],
        [
          -111.916177152086,
          40.3850033772362
        ],
        [
          -111.916164053751,
          40.3849949499651
        ],
        [
          -111.916164035784,
          40.3849369635231
        ],
        [
          -111.916078230505,
          40.3849369758397
        ]
      ]
    ]
  }
}