{
  "type": "Feature",
  "properties": {
    "parcel_id": "532060007",
    "owner_name_raw": "UTAH DEPARTMENT OF TRANSPORTATION",
    "owner_class": "STATE",
    "epsg": "EPSG:4326"
  },
  "geometry": {
    "type": "Polygon",
    "coordinates": [
      [
        [
          -111.768932455014,
          40.3736893754379
        ],
        [
          -111.768994183648,
          40.3736466619152
        ],
        [
          -111.768994168376,
          40.3736485275057
        ],
        [
          -111.768993884216,
          40.3736525599936
        ],
        [
          -111.768993081739,
          40.3736565517433
        ],
        [
          -111.7689917687,
          40.3736604641823
        ],
        [
          -111.768989957787,
          40.3736642595042
        ],
        [
          -111.768987666498,
          40.3736679010347
        ],
        [
          -111.768984916975,
          40.3736713535853
        ],
        [
          -111.768981735787,
          40.3736745837938
        ],
        [
          -111.768978153673,
          40.3736775604465
        ],
        [
          -111.768974205248,
          40.3736802547797
        ],
        [
          -111.768969928665,
          40.3736826407579
        ],
        [
          -111.768965365251,
          40.3736846953253
        ],
        [
          -111.7689605591,
          40.3736863986284
        ],
        [
          -111.768955556657,
          40.373687734208
        ],
        [
          -111.768950406259,
          40.3736886891585
        ],
        [
          -111.768945157676,
          40.373689254252
        ],
        [
          -111.768939861624,
          40.3736894240281
        ],
        [
          -111.768932455014,
          40.3736893754379
        ]
      ]
    ]
  }
}