{
  "type": "Feature",
  "properties": {
    "parcel_id": "533730002",
    "owner_name_raw": "HCPI/UTAH LLC",
    "owner_class": "UNCLASSIFIED",
    "epsg": "EPSG:4326"
  },
  "geometry": {
    "type": "Polygon",
    "coordinates": [
      [
        [
          -111.712855270727,
          40.3130895227635
        ],
        [
          -111.712855949853,
          40.3130894891993
        ],
        [
          -111.712854177477,
          40.3129825788884
        ],
        [
          -111.7130487885,
          40.3129806890148
        ],
        [
          -111.713050103634,
          40.313059937619
        ],
        [
          -111.713114698791,
          40.3130593094885
        ],
        [
          -111.713115156932,
          40.3130869979129
        ],
        [
          -111.712855270727,
          40.3130895227635
        ]
      ]
    ]
  }
}