{
  "type": "Feature",
  "properties": {
    "parcel_id": "533730009",
    "owner_name_raw": "HCPI/UTAH LLC",
    "owner_class": "UNCLASSIFIED",
    "epsg": "EPSG:4326"
  },
  "geometry": {
    "type": "Polygon",
    "coordinates": [
      [
        [
          -111.71285669815,
          40.3131757121729
        ],
        [
          -111.712856651438,
          40.313175749162
        ],
        [
          -111.712853942119,
          40.313012420251
        ],
        [
          -111.713033175781,
          40.313010679705
        ],
        [
          -111.713034198962,
          40.3130723933699
        ],
        [
          -111.713313731322,
          40.3130696760382
        ],
        [
          -111.713312270662,
          40.3129817014227
        ],
        [
          -111.713343098147,
          40.3129814020842
        ],
        [
          -111.713341373382,
          40.3128773192245
        ],
        [
          -111.713504473301,
          40.3128757334819
        ],
        [
          -111.713508561534,
          40.3131221793612
        ],
        [
          -111.713447698877,
          40.3131699679053
        ],
        [
          -111.71285669815,
          40.3131757121729
        ]
      ]
    ]
  }
}