{
  "type": "Feature",
  "properties": {
    "parcel_id": "533730008",
    "owner_name_raw": "HCPI/UTAH LLC",
    "owner_class": "UNCLASSIFIED",
    "epsg": "EPSG:4326"
  },
  "geometry": {
    "type": "Polygon",
    "coordinates": [
      [
        [
          -111.713447721335,
          40.3131699768101
        ],
        [
          -111.712856681082,
          40.3131757203927
        ],
        [
          -111.712851812213,
          40.3128821017967
        ],
        [
          -111.713154106086,
          40.3128791645768
        ],
        [
          -111.713154409717,
          40.3128974687701
        ],
        [
          -111.713143324506,
          40.3129061728842
        ],
        [
          -111.713143899428,
          40.3129409132962
        ],
        [
          -111.713161020419,
          40.312953691012
        ],
        [
          -111.713161362677,
          40.3129741891922
        ],
        [
          -111.713149775308,
          40.3129832878478
        ],
        [
          -111.712996958404,
          40.3129847722101
        ],
        [
          -111.712997207237,
          40.3129996459712
        ],
        [
          -111.713068900881,
          40.3129989479716
        ],
        [
          -111.713069825248,
          40.3130547358491
        ],
        [
          -111.713145820924,
          40.3130539988061
        ],
        [
          -111.713146106588,
          40.3130712857507
        ],
        [
          -111.713313761865,
          40.3130696554886
        ],
        [
          -111.713313254317,
          40.3130390866979
        ],
        [
          -111.713292033415,
          40.3130392921932
        ],
        [
          -111.713291307576,
          40.3129956073008
        ],
        [
          -111.713198465793,
          40.3129965087408
        ],
        [
          -111.713197748938,
          40.3129532889257
        ],
        [
          -111.713214440534,
          40.3129401831017
        ],
        [
          -111.713213863815,
          40.3129054426895
        ],
        [
          -111.713202493839,
          40.3128969564007
        ],
        [
          -111.713202190208,
          40.3128786535772
        ],
        [
          -111.713504484979,
          40.3128757149872
        ],
        [
          -111.713508572314,
          40.313122106753
        ],
        [
          -111.71344766025,
          40.3131699357111
        ],
        [
          -111.713447721335,
          40.3131699768101
        ]
      ]
    ]
  }
}