{
  "type": "Feature",
  "properties": {
    "parcel_id": "536520017",
    "owner_name_raw": "HILLWOOD HOMES UTAH LLC",
    "owner_class": "UNCLASSIFIED",
    "epsg": "EPSG:4326"
  },
  "geometry": {
    "type": "Polygon",
    "coordinates": [
      [
        [
          -111.787217570096,
          40.4280413022669
        ],
        [
          -111.786894377817,
          40.4280420948101
        ],
        [
          -111.786893973575,
          40.4279460472482
        ],
        [
          -111.787217165854,
          40.42794525402
        ],
        [
          -111.787217570096,
          40.4280413022669
        ]
      ]
    ]
  }
}