{
  "type": "Feature",
  "properties": {
    "parcel_id": "536520004",
    "owner_name_raw": "HILLWOOD HOMES UTAH LLC",
    "owner_class": "UNCLASSIFIED",
    "epsg": "EPSG:4326"
  },
  "geometry": {
    "type": "Polygon",
    "coordinates": [
      [
        [
          -111.78741829685,
          40.4271414313755
        ],
        [
          -111.78729261266,
          40.4271417390971
        ],
        [
          -111.787291575106,
          40.426894785278
        ],
        [
          -111.787417258397,
          40.4268944700332
        ],
        [
          -111.78741829685,
          40.4271414313755
        ]
      ]
    ]
  }
}