{
  "type": "Feature",
  "properties": {
    "parcel_id": "536520006",
    "owner_name_raw": "HILLWOOD HOMES UTAH LLC",
    "owner_class": "UNCLASSIFIED",
    "epsg": "EPSG:4326"
  },
  "geometry": {
    "type": "Polygon",
    "coordinates": [
      [
        [
          -111.787669695772,
          40.4271408371311
        ],
        [
          -111.787543980141,
          40.4271411489556
        ],
        [
          -111.787542941689,
          40.4268941677812
        ],
        [
          -111.787668625879,
          40.4268938518526
        ],
        [
          -111.787669695772,
          40.4271408371311
        ]
      ]
    ]
  }
}