{
  "type": "Feature",
  "properties": {
    "parcel_id": "540130005",
    "owner_name_raw": "UTAH DEPARTMENT OF TRANSPORTATION",
    "owner_class": "STATE",
    "epsg": "EPSG:4326"
  },
  "geometry": {
    "type": "Polygon",
    "coordinates": [
      [
        [
          -111.724168321937,
          40.2963230297516
        ],
        [
          -111.723774075613,
          40.296324367172
        ],
        [
          -111.723772685021,
          40.2961432423877
        ],
        [
          -111.724166930447,
          40.2961419049637
        ],
        [
          -111.724168321937,
          40.2963230297516
        ]
      ]
    ]
  }
}