{
  "type": "Feature",
  "properties": {
    "parcel_id": "540370080",
    "owner_name_raw": "UTAH COUNTY",
    "owner_class": "UNCLASSIFIED",
    "epsg": "EPSG:4326"
  },
  "geometry": {
    "type": "Polygon",
    "coordinates": [
      [
        [
          -111.573907409128,
          40.3552686931234
        ],
        [
          -111.573969610275,
          40.3549819135918
        ],
        [
          -111.57432810904,
          40.3549914056827
        ],
        [
          -111.57435391135,
          40.3549794984686
        ],
        [
          -111.574781654054,
          40.3552918338448
        ],
        [
          -111.574139574222,
          40.3552748404345
        ],
        [
          -111.574049949306,
          40.3552724670796
        ],
        [
          -111.573907409128,
          40.3552686931234
        ]
      ]
    ]
  }
}