{
  "type": "Feature",
  "properties": {
    "parcel_id": "541650001",
    "owner_name_raw": "DAWES HOLDINGS OF UTAH LLC",
    "owner_class": "UNCLASSIFIED",
    "epsg": "EPSG:4326"
  },
  "geometry": {
    "type": "Polygon",
    "coordinates": [
      [
        [
          -111.666296798683,
          40.2913202008771
        ],
        [
          -111.66627881865,
          40.2913338179176
        ],
        [
          -111.666257610806,
          40.2913443928754
        ],
        [
          -111.666234044788,
          40.2913514921226
        ],
        [
          -111.666209086925,
          40.2913548245536
        ],
        [
          -111.666183760624,
          40.2913542535215
        ],
        [
          -111.666159104397,
          40.2913498024417
        ],
        [
          -111.66613612928,
          40.2913416538312
        ],
        [
          -111.666115777374,
          40.2913301418252
        ],
        [
          -111.666032411196,
          40.2912699345303
        ],
        [
          -111.665952541809,
          40.291207029645
        ],
        [
          -111.665466361899,
          40.2908092706326
        ],
        [
          -111.665974485854,
          40.2904450758412
        ],
        [
          -111.666286854333,
          40.2903049810548
        ],
        [
          -111.666839124197,
          40.2909506251571
        ],
        [
          -111.666796764449,
          40.290959545169
        ],
        [
          -111.666755500577,
          40.29097107275
        ],
        [
          -111.666715607962,
          40.290985130968
        ],
        [
          -111.66667735283,
          40.2910016260022
        ],
        [
          -111.666640990483,
          40.2910204477694
        ],
        [
          -111.666606763588,
          40.2910414706584
        ],
        [
          -111.666574900564,
          40.2910645543685
        ],
        [
          -111.666545614051,
          40.2910895448457
        ],
        [
          -111.666296741191,
          40.2913202214333
        ],
        [
          -111.666296798683,
          40.2913202008771
        ]
      ]
    ]
  }
}