{
  "type": "Feature",
  "properties": {
    "parcel_id": "543040201",
    "owner_name_raw": "UTAH DEPARTMENT OF TRANSPORTATION",
    "owner_class": "STATE",
    "epsg": "EPSG:4326"
  },
  "geometry": {
    "type": "Polygon",
    "coordinates": [
      [
        [
          -112.003031315998,
          40.3789385649433
        ],
        [
          -112.002515039831,
          40.3785542700701
        ],
        [
          -112.002903286307,
          40.3783114799613
        ],
        [
          -112.003291666632,
          40.3786876109372
        ],
        [
          -112.003031315998,
          40.3789385649433
        ]
      ]
    ]
  }
}