{
  "type": "Feature",
  "properties": {
    "parcel_id": "543110506",
    "owner_name_raw": "PROGRESS SALT LAKE CITY LLC",
    "owner_class": "CITY",
    "epsg": "EPSG:4326"
  },
  "geometry": {
    "type": "Polygon",
    "coordinates": [
      [
        [
          -111.898248611578,
          40.3067254282926
        ],
        [
          -111.898107513196,
          40.3066852159389
        ],
        [
          -111.898207448077,
          40.3064796633026
        ],
        [
          -111.898265432532,
          40.3064961880985
        ],
        [
          -111.898348544662,
          40.3065198757787
        ],
        [
          -111.898248611578,
          40.3067254282926
        ]
      ]
    ]
  }
}