{
  "type": "Feature",
  "properties": {
    "parcel_id": "543220026",
    "owner_name_raw": "UTAH DEPARTMENT OF TRANSPORTATION",
    "owner_class": "STATE",
    "epsg": "EPSG:4326"
  },
  "geometry": {
    "type": "Polygon",
    "coordinates": [
      [
        [
          -111.766280948994,
          40.3551048260025
        ],
        [
          -111.766226433945,
          40.3550622647341
        ],
        [
          -111.76617119051,
          40.3550202523833
        ],
        [
          -111.766115228205,
          40.3549787961893
        ],
        [
          -111.766058556673,
          40.3549379032958
        ],
        [
          -111.766073625013,
          40.3549262609966
        ],
        [
          -111.766280948994,
          40.3551048260025
        ]
      ]
    ]
  }
}