{
  "type": "Feature",
  "properties": {
    "parcel_id": "544390047",
    "owner_name_raw": "LGI HOMES - UTAH LLC",
    "owner_class": "UNCLASSIFIED",
    "epsg": "EPSG:4326"
  },
  "geometry": {
    "type": "Polygon",
    "coordinates": [
      [
        [
          -111.82207206478,
          39.9607748840553
        ],
        [
          -111.821391463391,
          39.9606543184159
        ],
        [
          -111.821404989906,
          39.9605366688212
        ],
        [
          -111.821412799277,
          39.9604187148528
        ],
        [
          -111.822082333422,
          39.9605373157946
        ],
        [
          -111.82207206478,
          39.9607748840553
        ]
      ]
    ]
  }
}