{
  "type": "Feature",
  "properties": {
    "parcel_id": "544330028",
    "owner_name_raw": "LGI HOMES - UTAH LLC",
    "owner_class": "UNCLASSIFIED",
    "epsg": "EPSG:4326"
  },
  "geometry": {
    "type": "Polygon",
    "coordinates": [
      [
        [
          -111.825221574335,
          39.9556001738389
        ],
        [
          -111.824591326213,
          39.9555631059806
        ],
        [
          -111.824592900234,
          39.9555476093655
        ],
        [
          -111.824592183251,
          39.9555320755667
        ],
        [
          -111.824589184421,
          39.9555167029644
        ],
        [
          -111.824583942042,
          39.9555016878803
        ],
        [
          -111.824576523063,
          39.9554872220703
        ],
        [
          -111.824567022232,
          39.9554734902758
        ],
        [
          -111.824555560883,
          39.9554606678642
        ],
        [
          -111.824542285385,
          39.9554489185894
        ],
        [
          -111.825175245521,
          39.9550042947896
        ],
        [
          -111.825221574335,
          39.9556001738389
        ]
      ]
    ]
  }
}