{
  "type": "Feature",
  "properties": {
    "parcel_id": "544400071",
    "owner_name_raw": "LGI HOMES - UTAH LLC",
    "owner_class": "UNCLASSIFIED",
    "epsg": "EPSG:4326"
  },
  "geometry": {
    "type": "Polygon",
    "coordinates": [
      [
        [
          -111.823220132374,
          39.9582963361623
        ],
        [
          -111.82280078802,
          39.9581557363152
        ],
        [
          -111.82286512846,
          39.9580445405807
        ],
        [
          -111.822923171722,
          39.9579313269011
        ],
        [
          -111.822974810442,
          39.9578163046826
        ],
        [
          -111.823019949101,
          39.9576996866775
        ],
        [
          -111.823474497533,
          39.9578623824254
        ],
        [
          -111.823220132374,
          39.9582963361623
        ]
      ]
    ]
  }
}