{
  "type": "Feature",
  "properties": {
    "parcel_id": "544400063",
    "owner_name_raw": "LGI HOMES - UTAH LLC",
    "owner_class": "UNCLASSIFIED",
    "epsg": "EPSG:4326"
  },
  "geometry": {
    "type": "Polygon",
    "coordinates": [
      [
        [
          -111.821923497805,
          39.9586214854994
        ],
        [
          -111.822003085844,
          39.9583816732862
        ],
        [
          -111.822445096489,
          39.9584921023989
        ],
        [
          -111.822424543597,
          39.9585523448245
        ],
        [
          -111.822407347722,
          39.9586132020171
        ],
        [
          -111.822393539906,
          39.9586745641169
        ],
        [
          -111.822383145074,
          39.9587363203532
        ],
        [
          -111.821923497805,
          39.9586214854994
        ]
      ]
    ]
  }
}