{
  "type": "Feature",
  "properties": {
    "parcel_id": "544400058",
    "owner_name_raw": "LGI HOMES - UTAH LLC",
    "owner_class": "UNCLASSIFIED",
    "epsg": "EPSG:4326"
  },
  "geometry": {
    "type": "Polygon",
    "coordinates": [
      [
        [
          -111.822156758843,
          39.9600333168325
        ],
        [
          -111.82158986261,
          39.9599290465623
        ],
        [
          -111.821625734994,
          39.9598915817734
        ],
        [
          -111.821664447033,
          39.9598558161469
        ],
        [
          -111.821697689192,
          39.9598283249802
        ],
        [
          -111.82173267153,
          39.9598021331226
        ],
        [
          -111.821769307716,
          39.9597773052144
        ],
        [
          -111.821807507335,
          39.9597539025292
        ],
        [
          -111.821853180028,
          39.9597264229418
        ],
        [
          -111.821897707133,
          39.9596978600733
        ],
        [
          -111.821941044937,
          39.9596682419637
        ],
        [
          -111.821983150893,
          39.9596375976887
        ],
        [
          -111.822023983664,
          39.9596059573317
        ],
        [
          -111.822063503163,
          39.9595733519539
        ],
        [
          -111.822101670593,
          39.9595398135638
        ],
        [
          -111.822138448482,
          39.959505375086
        ],
        [
          -111.822392930423,
          39.9595907024384
        ],
        [
          -111.822218890819,
          39.9599060220313
        ],
        [
          -111.822156758843,
          39.9600333168325
        ]
      ]
    ]
  }
}