{
  "type": "Feature",
  "properties": {
    "parcel_id": "544610805",
    "owner_name_raw": "RICHMOND AMERICAN HOMES OF UTAH INC",
    "owner_class": "UNCLASSIFIED",
    "epsg": "EPSG:4326"
  },
  "geometry": {
    "type": "Polygon",
    "coordinates": [
      [
        [
          -111.710159146285,
          40.0682357520078
        ],
        [
          -111.710230591096,
          40.0682356227651
        ],
        [
          -111.710231026779,
          40.068378338887
        ],
        [
          -111.710159582866,
          40.0683784681294
        ],
        [
          -111.710159146285,
          40.0682357520078
        ]
      ]
    ]
  }
}