{
  "type": "Feature",
  "properties": {
    "parcel_id": "544610822",
    "owner_name_raw": "RICHMOND AMERICAN HOMES OF UTAH INC",
    "owner_class": "UNCLASSIFIED",
    "epsg": "EPSG:4326"
  },
  "geometry": {
    "type": "Polygon",
    "coordinates": [
      [
        [
          -111.708624054822,
          40.0679723087796
        ],
        [
          -111.708624586625,
          40.0681479590229
        ],
        [
          -111.708553142712,
          40.0681480868909
        ],
        [
          -111.708552610011,
          40.0679724366479
        ],
        [
          -111.708624054822,
          40.0679723087796
        ]
      ]
    ]
  }
}