{
  "type": "Feature",
  "properties": {
    "parcel_id": "550130085",
    "owner_name_raw": "UTAH COUNTY",
    "owner_class": "UNCLASSIFIED",
    "epsg": "EPSG:4326"
  },
  "geometry": {
    "type": "Polygon",
    "coordinates": [
      [
        [
          -111.678414794287,
          40.2699791245776
        ],
        [
          -111.678378967677,
          40.2699787948902
        ],
        [
          -111.678378841913,
          40.269967818558
        ],
        [
          -111.678414665828,
          40.2699681475601
        ],
        [
          -111.678414794287,
          40.2699791245776
        ]
      ]
    ]
  }
}