{
  "type": "Feature",
  "properties": {
    "parcel_id": "553170007",
    "owner_name_raw": "HOUSING AUTHORITY OF UTAH COUNTY",
    "owner_class": "UNCLASSIFIED",
    "epsg": "EPSG:4326"
  },
  "geometry": {
    "type": "Polygon",
    "coordinates": [
      [
        [
          -111.723279064366,
          40.3077549495625
        ],
        [
          -111.723131481944,
          40.3077553633254
        ],
        [
          -111.723131136991,
          40.3076831047971
        ],
        [
          -111.723278719413,
          40.3076826903487
        ],
        [
          -111.723279064366,
          40.3077549495625
        ]
      ]
    ]
  }
}