{
  "type": "Feature",
  "properties": {
    "parcel_id": "553890002",
    "owner_name_raw": "UTAH DEPARTMENT OF TRANSPORTATION",
    "owner_class": "STATE",
    "epsg": "EPSG:4326"
  },
  "geometry": {
    "type": "Polygon",
    "coordinates": [
      [
        [
          -111.731627141539,
          40.3119957426344
        ],
        [
          -111.731628636335,
          40.3120671060563
        ],
        [
          -111.731191783816,
          40.3120582237355
        ],
        [
          -111.730977550892,
          40.3120428812309
        ],
        [
          -111.730403873277,
          40.312031211664
        ],
        [
          -111.730394087341,
          40.3120317596752
        ],
        [
          -111.73038462707,
          40.312033745821
        ],
        [
          -111.730375852384,
          40.3120370945377
        ],
        [
          -111.730368097118,
          40.312041678422
        ],
        [
          -111.730361656324,
          40.3120473230782
        ],
        [
          -111.730356775045,
          40.3120538137531
        ],
        [
          -111.73035363899,
          40.3120609035065
        ],
        [
          -111.730352367472,
          40.3120683226061
        ],
        [
          -111.730351652413,
          40.3120844227083
        ],
        [
          -111.73032426278,
          40.3120844747678
        ],
        [
          -111.730322437403,
          40.311984399802
        ],
        [
          -111.731627141539,
          40.3119957426344
        ]
      ]
    ]
  }
}