{
  "type": "Feature",
  "properties": {
    "parcel_id": "557180021",
    "owner_name_raw": "UTAH COUNTY",
    "owner_class": "UNCLASSIFIED",
    "epsg": "EPSG:4326"
  },
  "geometry": {
    "type": "Polygon",
    "coordinates": [
      [
        [
          -111.791952799499,
          40.0204913616223
        ],
        [
          -111.7919837081,
          40.0204926330878
        ],
        [
          -111.792014261052,
          40.02049643258
        ],
        [
          -111.792044106819,
          40.0205027163819
        ],
        [
          -111.792072902,
          40.0205114121927
        ],
        [
          -111.792100315282,
          40.0205224199589
        ],
        [
          -111.792126031253,
          40.0205356130258
        ],
        [
          -111.79214975403,
          40.0205508395951
        ],
        [
          -111.792171210661,
          40.020567924471
        ],
        [
          -111.792171290205,
          40.0205679950497
        ],
        [
          -111.792171352671,
          40.0205680505452
        ],
        [
          -111.79218652923,
          40.0205827419672
        ],
        [
          -111.792200043869,
          40.0205983561314
        ],
        [
          -111.792211801414,
          40.0206147830776
        ],
        [
          -111.792221719065,
          40.0206319071213
        ],
        [
          -111.792229726979,
          40.0206496076693
        ],
        [
          -111.792235768761,
          40.0206677600683
        ],
        [
          -111.792239801863,
          40.0206862364831
        ],
        [
          -111.792241797883,
          40.0207049067969
        ],
        [
          -111.792241801666,
          40.0207049800076
        ],
        [
          -111.792241815994,
          40.0207052454176
        ],
        [
          -111.792259545043,
          40.0209766484894
        ],
        [
          -111.792283406866,
          40.0212477747598
        ],
        [
          -111.79228343319,
          40.0212480396284
        ],
        [
          -111.792283486409,
          40.0212485610107
        ],
        [
          -111.792314110095,
          40.0215150268002
        ],
        [
          -111.792351516709,
          40.0217809832773
        ],
        [
          -111.792395692011,
          40.022046329201
        ],
        [
          -111.792446619184,
          40.0223109635635
        ],
        [
          -111.792446725349,
          40.02231148017
        ],
        [
          -111.79244681212,
          40.0223119068161
        ],
        [
          -111.792493568497,
          40.0225298426136
        ],
        [
          -111.79254505238,
          40.0227471519554
        ],
        [
          -111.792601249523,
          40.0229637747129
        ],
        [
          -111.792662144375,
          40.023179650948
        ],
        [
          -111.792662268016,
          40.0231800722232
        ],
        [
          -111.792662438719,
          40.0231806578653
        ],
        [
          -111.792707190584,
          40.0233302452823
        ],
        [
          -111.792754119344,
          40.0234794406566
        ],
        [
          -111.792803219158,
          40.023628225414
        ],
        [
          -111.792854483911,
          40.023776581031
        ],
        [
          -111.79290790722,
          40.0239244890382
        ],
        [
          -111.792963482433,
          40.0240719310216
        ],
        [
          -111.79302120263,
          40.0242188886257
        ],
        [
          -111.793081060624,
          40.0243653435551
        ],
        [
          -111.793081298859,
          40.0243659151934
        ],
        [
          -111.793081315624,
          40.0243659556345
        ],
        [
          -111.79308665923,
          40.0243759937026
        ],
        [
          -111.793094007977,
          40.0243852586256
        ],
        [
          -111.793103177035,
          40.0243935173796
        ],
        [
          -111.793113935792,
          40.0244005622472
        ],
        [
          -111.793126013652,
          40.0244062160419
        ],
        [
          -111.793139106841,
          40.024410336564
        ],
        [
          -111.793152886049,
          40.0244128201777
        ],
        [
          -111.793167004714,
          40.0244136044172
        ],
        [
          -111.793167060121,
          40.0244136041084
        ],
        [
          -111.793902052703,
          40.0244087798422
        ],
        [
          -111.793902094751,
          40.0244087795143
        ],
        [
          -111.793923368057,
          40.0244066349468
        ],
        [
          -111.793943358524,
          40.0244006649911
        ],
        [
          -111.793960911157,
          40.024391214574
        ],
        [
          -111.793975011814,
          40.0243788297132
        ],
        [
          -111.79397503543,
          40.0243788030701
        ],
        [
          -111.793975083304,
          40.0243787490176
        ],
        [
          -111.79398840261,
          40.0243655342596
        ],
        [
          -111.794003726687,
          40.024353661749
        ],
        [
          -111.794020826851,
          40.0243433086603
        ],
        [
          -111.794039447918,
          40.0243346294938
        ],
        [
          -111.794059312005,
          40.0243277537695
        ],
        [
          -111.794080122679,
          40.0243227840946
        ],
        [
          -111.794101569381,
          40.024319794632
        ],
        [
          -111.794123332063,
          40.024318829994
        ],
        [
          -111.794123417352,
          40.0243188302251
        ],
        [
          -111.794123739728,
          40.02431883219
        ],
        [
          -111.794144295423,
          40.0243198796266
        ],
        [
          -111.794164557764,
          40.0243227289818
        ],
        [
          -111.794184258294,
          40.0243273425037
        ],
        [
          -111.794203135997,
          40.0243336590671
        ],
        [
          -111.794220940761,
          40.0243415949826
        ],
        [
          -111.794237436688,
          40.0243510451059
        ],
        [
          -111.794252405223,
          40.0243618842305
        ],
        [
          -111.794265648045,
          40.0243739687471
        ],
        [
          -111.794276989698,
          40.0243871385461
        ],
        [
          -111.794286279917,
          40.0244012191386
        ],
        [
          -111.794293395613,
          40.0244160239688
        ],
        [
          -111.794298242511,
          40.0244313568855
        ],
        [
          -111.794300756392,
          40.0244470147409
        ],
        [
          -111.794300903951,
          40.0244627900821
        ],
        [
          -111.794298683232,
          40.0244784738999
        ],
        [
          -111.794294123658,
          40.0244938583978
        ],
        [
          -111.794287285639,
          40.0245087397451
        ],
        [
          -111.794278259772,
          40.0245229207776
        ],
        [
          -111.794267165644,
          40.0245362136096
        ],
        [
          -111.79425415024,
          40.0245484421236
        ],
        [
          -111.794239386004,
          40.0245594443032
        ],
        [
          -111.794223068548,
          40.02456907438
        ],
        [
          -111.794205414064,
          40.0245772047645
        ],
        [
          -111.794186656459,
          40.024583727737
        ],
        [
          -111.794167044254,
          40.0245885568743
        ],
        [
          -111.794146837293,
          40.0245916281951
        ],
        [
          -111.794126303301,
          40.0245929010073
        ],
        [
          -111.794105714335,
          40.0245923584473
        ],
        [
          -111.794085343179,
          40.0245900077036
        ],
        [
          -111.794065459735,
          40.0245858799212
        ],
        [
          -111.79404632744,
          40.0245800297893
        ],
        [
          -111.79402819978,
          40.0245725348165
        ],
        [
          -111.794027915071,
          40.0245723999938
        ],
        [
          -111.794016753212,
          40.0245678429925
        ],
        [
          -111.79400487113,
          40.0245645488997
        ],
        [
          -111.793992498855,
          40.024562579351
        ],
        [
          -111.793979874441,
          40.0245619742937
        ],
        [
          -111.793409037512,
          40.0245657220657
        ],
        [
          -111.791772239691,
          40.024576451957
        ],
        [
          -111.789512713545,
          40.0245912253321
        ],
        [
          -111.787265717999,
          40.0246058741937
        ],
        [
          -111.787274426934,
          40.0246058998374
        ],
        [
          -111.787257063495,
          40.0246073593056
        ],
        [
          -111.787240401845,
          40.0246113756724
        ],
        [
          -111.787225077869,
          40.0246177960436
        ],
        [
          -111.787211676404,
          40.0246263753866
        ],
        [
          -111.787200708913,
          40.024636786272
        ],
        [
          -111.787192593969,
          40.02464863137
        ],
        [
          -111.787187641276,
          40.0246614586146
        ],
        [
          -111.787186039864,
          40.0246747805718
        ],
        [
          -111.78718314358,
          40.0243837272988
        ],
        [
          -111.787185030861,
          40.0243970337812
        ],
        [
          -111.78719026231,
          40.0244098049273
        ],
        [
          -111.787198638122,
          40.024421552783
        ],
        [
          -111.787209838279,
          40.0244318284924
        ],
        [
          -111.78722343485,
          40.0244402394468
        ],
        [
          -111.787238908344,
          40.0244464642851
        ],
        [
          -111.787255667556,
          40.0244502651723
        ],
        [
          -111.787273072159,
          40.0244514968864
        ],
        [
          -111.787273140778,
          40.0244514965648
        ],
        [
          -111.788770896461,
          40.0244417365971
        ],
        [
          -111.790227993497,
          40.0244322242731
        ],
        [
          -111.791585642538,
          40.0244233420672
        ],
        [
          -111.792780011997,
          40.0244155178554
        ],
        [
          -111.792780093489,
          40.0244155171283
        ],
        [
          -111.792800717933,
          40.0244134764098
        ],
        [
          -111.792820171307,
          40.0244078473085
        ],
        [
          -111.792837404191,
          40.0243989334881
        ],
        [
          -111.792851486946,
          40.0243872158079
        ],
        [
          -111.792861659873,
          40.0243733263828
        ],
        [
          -111.792867374188,
          40.0243580144835
        ],
        [
          -111.792868321628,
          40.0243421061173
        ],
        [
          -111.792864451085,
          40.024326459469
        ],
        [
          -111.792864426685,
          40.0243263999234
        ],
        [
          -111.792864088954,
          40.0243255701794
        ],
        [
          -111.792779926831,
          40.0241128445928
        ],
        [
          -111.792700186308,
          40.0238991217873
        ],
        [
          -111.792624887494,
          40.0236844556443
        ],
        [
          -111.792554049374,
          40.0234689002832
        ],
        [
          -111.792487689811,
          40.0232525100483
        ],
        [
          -111.792425825536,
          40.0230353394948
        ],
        [
          -111.79236847215,
          40.0228174433752
        ],
        [
          -111.792315644113,
          40.0225988766255
        ],
        [
          -111.792315446452,
          40.0225980207705
        ],
        [
          -111.792315235463,
          40.0225971071922
        ],
        [
          -111.792263884541,
          40.022363117424
        ],
        [
          -111.792217741876,
          40.0221284914106
        ],
        [
          -111.792176820837,
          40.0218932971255
        ],
        [
          -111.79214113328,
          40.0216576027075
        ],
        [
          -111.792110689546,
          40.0214214764411
        ],
        [
          -111.792085498455,
          40.0211849867364
        ],
        [
          -111.792065567306,
          40.0209482021097
        ],
        [
          -111.792050901873,
          40.0207111911633
        ],
        [
          -111.792050854871,
          40.0207102640801
        ],
        [
          -111.792050852378,
          40.0207102127876
        ],
        [
          -111.792048574906,
          40.0206972223234
        ],
        [
          -111.792043106325,
          40.0206848023556
        ],
        [
          -111.792034647099,
          40.0206734081726
        ],
        [
          -111.792023507325,
          40.0206634574597
        ],
        [
          -111.792010095362,
          40.0206553149883
        ],
        [
          -111.791994902862,
          40.0206492792437
        ],
        [
          -111.791978486747,
          40.020645571483
        ],
        [
          -111.791961448795,
          40.0206443276248
        ],
        [
          -111.791961381771,
          40.0206443276869
        ],
        [
          -111.791922793739,
          40.0206444246866
        ],
        [
          -111.791922707978,
          40.020644424992
        ],
        [
          -111.791878963753,
          40.0206466436196
        ],
        [
          -111.791835903158,
          40.0206529463816
        ],
        [
          -111.79179417389,
          40.0206632384742
        ],
        [
          -111.791754403619,
          40.0206773650869
        ],
        [
          -111.791754328182,
          40.0206773963308
        ],
        [
          -111.791196253405,
          40.0209091536291
        ],
        [
          -111.791196106687,
          40.0209092146508
        ],
        [
          -111.791120196856,
          40.0209391667519
        ],
        [
          -111.791042659967,
          40.0209665657877
        ],
        [
          -111.790963642349,
          40.0209913600537
        ],
        [
          -111.790883293124,
          40.0210135027612
        ],
        [
          -111.790883134833,
          40.0210135434259
        ],
        [
          -111.790882841038,
          40.0210136191231
        ],
        [
          -111.790807213484,
          40.0210318133442
        ],
        [
          -111.790730692809,
          40.0210476669563
        ],
        [
          -111.790653402478,
          40.0210611543816
        ],
        [
          -111.790575467199,
          40.0210722538596
        ],
        [
          -111.79049701272,
          40.0210809474825
        ],
        [
          -111.790418165626,
          40.0210872212241
        ],
        [
          -111.790339053136,
          40.0210910649625
        ],
        [
          -111.790259802899,
          40.0210924724962
        ],
        [
          -111.790259492922,
          40.0210924732141
        ],
        [
          -111.789616503096,
          40.0210940761068
        ],
        [
          -111.789367093942,
          40.0210946959379
        ],
        [
          -111.789366685055,
          40.0210946969768
        ],
        [
          -111.789262200435,
          40.0210976235031
        ],
        [
          -111.789158197713,
          40.0211058384901
        ],
        [
          -111.789055132808,
          40.0211193059239
        ],
        [
          -111.788953457528,
          40.0211379667636
        ],
        [
          -111.78885361759,
          40.021161739201
        ],
        [
          -111.788756050666,
          40.021190519019
        ],
        [
          -111.788661184461,
          40.0212241800484
        ],
        [
          -111.788569434845,
          40.0212625747213
        ],
        [
          -111.788569082746,
          40.0212627339237
        ],
        [
          -111.788511751367,
          40.0212899204255
        ],
        [
          -111.787582325627,
          40.0217518684723
        ],
        [
          -111.787582195398,
          40.0217519331591
        ],
        [
          -111.787548143774,
          40.0217675488614
        ],
        [
          -111.787512724087,
          40.021781264299
        ],
        [
          -111.787476116863,
          40.0217930095691
        ],
        [
          -111.787438508677,
          40.0218027248105
        ],
        [
          -111.787400091209,
          40.021810360508
        ],
        [
          -111.787361060261,
          40.0218158777454
        ],
        [
          -111.787321614764,
          40.0218192484033
        ],
        [
          -111.787281955761,
          40.0218204553028
        ],
        [
          -111.787281800537,
          40.0218204557634
        ],
        [
          -111.787247354638,
          40.0218205410667
        ],
        [
          -111.78724728589,
          40.0218205413458
        ],
        [
          -111.78722986023,
          40.0218219321166
        ],
        [
          -111.787213123542,
          40.0218258991607
        ],
        [
          -111.787197718806,
          40.0218322900745
        ],
        [
          -111.787184237828,
          40.0218408593357
        ],
        [
          -111.787173198514,
          40.0218512777354
        ],
        [
          -111.787165024962,
          40.0218631450261
        ],
        [
          -111.787160031179,
          40.0218760052976
        ],
        [
          -111.787158408969,
          40.0218893644929
        ],
        [
          -111.78715552034,
          40.0215990822192
        ],
        [
          -111.787157391946,
          40.0216123422658
        ],
        [
          -111.78716258483,
          40.0216250728854
        ],
        [
          -111.787170901997,
          40.0216367910306
        ],
        [
          -111.787182027862,
          40.0216470520718
        ],
        [
          -111.787195540268,
          40.0216554666675
        ],
        [
          -111.787210926504,
          40.0216617155373
        ],
        [
          -111.787227602758,
          40.0216655615762
        ],
        [
          -111.787244936272,
          40.0216668588516
        ],
        [
          -111.787245004645,
          40.0216668588248
        ],
        [
          -111.787281128598,
          40.0216667687058
        ],
        [
          -111.78728122811,
          40.0216667684215
        ],
        [
          -111.787306653159,
          40.021665997173
        ],
        [
          -111.787331941473,
          40.0216638381295
        ],
        [
          -111.787356964048,
          40.0216603023046
        ],
        [
          -111.787381593238,
          40.0216554077354
        ],
        [
          -111.787405703402,
          40.0216491793901
        ],
        [
          -111.787429171546,
          40.021641649041
        ],
        [
          -111.787451877954,
          40.0216328551021
        ],
        [
          -111.787473706794,
          40.0216228424333
        ],
        [
          -111.787473790277,
          40.0216228009561
        ],
        [
          -111.788216246062,
          40.0212537831996
        ],
        [
          -111.788403215117,
          40.0211608534113
        ],
        [
          -111.788403632407,
          40.0211606459091
        ],
        [
          -111.788457606237,
          40.0211348536827
        ],
        [
          -111.788512749872,
          40.0211105559464
        ],
        [
          -111.788568992779,
          40.0210877837797
        ],
        [
          -111.788626263023,
          40.0210665663107
        ],
        [
          -111.788684487352,
          40.0210469306789
        ],
        [
          -111.788743591294,
          40.0210289020005
        ],
        [
          -111.788803499253,
          40.0210125033363
        ],
        [
          -111.788864134605,
          40.0209977556619
        ],
        [
          -111.788925419794,
          40.0209846778415
        ],
        [
          -111.788987276433,
          40.020973286603
        ],
        [
          -111.789049625406,
          40.0209635965171
        ],
        [
          -111.789112386966,
          40.0209556199787
        ],
        [
          -111.789175480837,
          40.0209493671907
        ],
        [
          -111.78923882632,
          40.020944846151
        ],
        [
          -111.789302342394,
          40.0209420626428
        ],
        [
          -111.789365947818,
          40.0209410202264
        ],
        [
          -111.789366445359,
          40.0209410189405
        ],
        [
          -111.790251630867,
          40.0209388127222
        ],
        [
          -111.790251803534,
          40.0209388129428
        ],
        [
          -111.790340090719,
          40.0209372529623
        ],
        [
          -111.790428169757,
          40.0209323577887
        ],
        [
          -111.790515825945,
          40.0209241393539
        ],
        [
          -111.790602845611,
          40.0209126176899
        ],
        [
          -111.790603014975,
          40.0209125919464
        ],
        [
          -111.790603269355,
          40.0209125528933
        ],
        [
          -111.790668067609,
          40.0209016339244
        ],
        [
          -111.790732288585,
          40.0208888705461
        ],
        [
          -111.790795842798,
          40.0208742805417
        ],
        [
          -111.790858641692,
          40.0208578842394
        ],
        [
          -111.790920597765,
          40.0208397044845
        ],
        [
          -111.790981624687,
          40.0208197666068
        ],
        [
          -111.791041637426,
          40.0207980983861
        ],
        [
          -111.791100552358,
          40.0207747300129
        ],
        [
          -111.791100780457,
          40.0207746353461
        ],
        [
          -111.791658856132,
          40.020542876903
        ],
        [
          -111.791658974026,
          40.0205428278925
        ],
        [
          -111.791689614278,
          40.0205310187567
        ],
        [
          -111.791721149798,
          40.0205206838427
        ],
        [
          -111.79175345978,
          40.0205118627414
        ],
        [
          -111.791786420455,
          40.0205045892446
        ],
        [
          -111.791819905558,
          40.0204988912158
        ],
        [
          -111.791853786817,
          40.0204947904828
        ],
        [
          -111.791887934443,
          40.0204923027548
        ],
        [
          -111.791922217625,
          40.0204914375618
        ],
        [
          -111.791922351768,
          40.0204914373697
        ],
        [
          -111.791951338606,
          40.0204913644478
        ],
        [
          -111.791951460346,
          40.020491363996
        ],
        [
          -111.791952799499,
          40.0204913616223
        ]
      ]
    ]
  }
}