{
  "type": "Feature",
  "properties": {
    "parcel_id": "558860153",
    "owner_name_raw": "K2 UTAH INVESTMENTS LLC",
    "owner_class": "UNCLASSIFIED",
    "epsg": "EPSG:4326"
  },
  "geometry": {
    "type": "Polygon",
    "coordinates": [
      [
        [
          -111.8189867668,
          40.3683997916768
        ],
        [
          -111.818850427693,
          40.3684001633183
        ],
        [
          -111.818850145622,
          40.3683397890135
        ],
        [
          -111.818986486526,
          40.3683394173718
        ],
        [
          -111.8189867668,
          40.3683997916768
        ]
      ]
    ]
  }
}