{
  "type": "Feature",
  "properties": {
    "parcel_id": "559480536",
    "owner_name_raw": "CPD SBTR SALT LAKE I LLC",
    "owner_class": "UNCLASSIFIED",
    "epsg": "EPSG:4326"
  },
  "geometry": {
    "type": "Polygon",
    "coordinates": [
      [
        [
          -111.915815832611,
          40.356021434731
        ],
        [
          -111.915457110165,
          40.3560227100443
        ],
        [
          -111.915456293596,
          40.3558882386351
        ],
        [
          -111.915815015144,
          40.3558869640039
        ],
        [
          -111.915815832611,
          40.356021434731
        ]
      ]
    ]
  }
}