{
  "type": "Feature",
  "properties": {
    "parcel_id": "570170003",
    "owner_name_raw": "UTAH DEPARTMENT OF TRANSPORTATION",
    "owner_class": "STATE",
    "epsg": "EPSG:4326"
  },
  "geometry": {
    "type": "Polygon",
    "coordinates": [
      [
        [
          -111.779900159693,
          40.3574500552427
        ],
        [
          -111.780186142855,
          40.3576333450491
        ],
        [
          -111.780157553972,
          40.3576594517189
        ],
        [
          -111.779871588776,
          40.3574761455546
        ],
        [
          -111.779900159693,
          40.3574500552427
        ]
      ]
    ]
  }
}