{
  "type": "Feature",
  "properties": {
    "parcel_id": "570230051",
    "owner_name_raw": "UTAH DEPARTMENT OF TRANSPORTATION",
    "owner_class": "STATE",
    "epsg": "EPSG:4326"
  },
  "geometry": {
    "type": "Polygon",
    "coordinates": [
      [
        [
          -111.77835636086,
          40.3565036513429
        ],
        [
          -111.778358955194,
          40.3564609358277
        ],
        [
          -111.779900855887,
          40.3574491763014
        ],
        [
          -111.779872196037,
          40.357475345335
        ],
        [
          -111.77835636086,
          40.3565036513429
        ]
      ]
    ]
  }
}