{
  "type": "Feature",
  "properties": {
    "parcel_id": "570320003",
    "owner_name_raw": "UTAH DEPARTMENT OF TRANSPORTATION",
    "owner_class": "STATE",
    "epsg": "EPSG:4326"
  },
  "geometry": {
    "type": "Polygon",
    "coordinates": [
      [
        [
          -111.785307692513,
          40.3624761865501
        ],
        [
          -111.784680883142,
          40.362451265901
        ],
        [
          -111.784689462053,
          40.3617677699739
        ],
        [
          -111.785289168354,
          40.3621517457819
        ],
        [
          -111.785312318837,
          40.3621559163546
        ],
        [
          -111.785307692513,
          40.3624761865501
        ]
      ]
    ]
  }
}