{
  "type": "Feature",
  "properties": {
    "parcel_id": "570320004",
    "owner_name_raw": "UTAH DEPARTMENT OF TRANSPORTATION",
    "owner_class": "STATE",
    "epsg": "EPSG:4326"
  },
  "geometry": {
    "type": "Polygon",
    "coordinates": [
      [
        [
          -111.785308282707,
          40.3624762967518
        ],
        [
          -111.785301741175,
          40.362929432329
        ],
        [
          -111.785158371852,
          40.3629237299421
        ],
        [
          -111.78515828741,
          40.3629033413895
        ],
        [
          -111.785220174147,
          40.3629031894353
        ],
        [
          -111.785249364902,
          40.3628355075005
        ],
        [
          -111.785252821619,
          40.3624740913486
        ],
        [
          -111.785308282707,
          40.3624762967518
        ]
      ]
    ]
  }
}