{
  "type": "Feature",
  "properties": {
    "parcel_id": "570450002",
    "owner_name_raw": "UTAH COMMUNITY FEDERAL CREDIT UNION",
    "owner_class": "UNCLASSIFIED",
    "epsg": "EPSG:4326"
  },
  "geometry": {
    "type": "Polygon",
    "coordinates": [
      [
        [
          -111.702529116773,
          40.3112418679121
        ],
        [
          -111.702368224014,
          40.3108783490673
        ],
        [
          -111.702815787147,
          40.310877240727
        ],
        [
          -111.702931937516,
          40.3111513892827
        ],
        [
          -111.703387888218,
          40.3111502576568
        ],
        [
          -111.703411880423,
          40.3112050860023
        ],
        [
          -111.703462375623,
          40.3113147487248
        ],
        [
          -111.703480374269,
          40.3113492269148
        ],
        [
          -111.703522370508,
          40.3114455709391
        ],
        [
          -111.703580145656,
          40.3115782143128
        ],
        [
          -111.703601364336,
          40.3116433309302
        ],
        [
          -111.703615860875,
          40.3117095107203
        ],
        [
          -111.703616012916,
          40.3117315976543
        ],
        [
          -111.703609172523,
          40.3117530601486
        ],
        [
          -111.703595743798,
          40.3117726302876
        ],
        [
          -111.703576520055,
          40.3117891519495
        ],
        [
          -111.703399227652,
          40.3117787290335
        ],
        [
          -111.703312830383,
          40.3117649222294
        ],
        [
          -111.703032624287,
          40.311756784461
        ],
        [
          -111.702748351517,
          40.3117394204602
        ],
        [
          -111.702529116773,
          40.3112418679121
        ]
      ]
    ]
  }
}