{
  "type": "Feature",
  "properties": {
    "parcel_id": "570710002",
    "owner_name_raw": "UTAH VALLEY ISLAMIC CENTER",
    "owner_class": "UNCLASSIFIED",
    "epsg": "EPSG:4326"
  },
  "geometry": {
    "type": "Polygon",
    "coordinates": [
      [
        [
          -111.686541172638,
          40.2805367674525
        ],
        [
          -111.686540058727,
          40.2801274158558
        ],
        [
          -111.686776555497,
          40.2801270375601
        ],
        [
          -111.686777671204,
          40.2805363891592
        ],
        [
          -111.686541172638,
          40.2805367674525
        ]
      ]
    ]
  }
}