{
  "type": "Feature",
  "properties": {
    "parcel_id": "570910007",
    "owner_name_raw": "UTAH DEPARTMENT OF TRANSPORTATION",
    "owner_class": "STATE",
    "epsg": "EPSG:4326"
  },
  "geometry": {
    "type": "Polygon",
    "coordinates": [
      [
        [
          -111.69363239354,
          40.2732424775864
        ],
        [
          -111.693631303884,
          40.2733205850298
        ],
        [
          -111.693432183318,
          40.2733189510669
        ],
        [
          -111.69343339245,
          40.2732325072481
        ],
        [
          -111.69363239354,
          40.2732424775864
        ]
      ]
    ]
  }
}