{
  "type": "Feature",
  "properties": {
    "parcel_id": "571010001",
    "owner_name_raw": "UTAH COMMUNITY CREDIT UNION",
    "owner_class": "UNCLASSIFIED",
    "epsg": "EPSG:4326"
  },
  "geometry": {
    "type": "Polygon",
    "coordinates": [
      [
        [
          -111.662127355429,
          40.2538529548804
        ],
        [
          -111.663320281295,
          40.2538657657086
        ],
        [
          -111.663320867895,
          40.254352833844
        ],
        [
          -111.662860678941,
          40.254665762362
        ],
        [
          -111.662114884118,
          40.2546766472532
        ],
        [
          -111.662127321293,
          40.2538529562516
        ],
        [
          -111.662127355429,
          40.2538529548804
        ]
      ]
    ]
  }
}