{
  "type": "Feature",
  "properties": {
    "parcel_id": "580040056",
    "owner_name_raw": "METROPOLITAN WATER DISTRICT OF SALT LAKE AND SANDY",
    "owner_class": "SPECIAL_DISTRICT",
    "epsg": "EPSG:4326"
  },
  "geometry": {
    "type": "Polygon",
    "coordinates": [
      [
        [
          -111.913509409017,
          40.4497641876913
        ],
        [
          -111.91339553408,
          40.449596408522
        ],
        [
          -111.913361111537,
          40.4495477979028
        ],
        [
          -111.91352180487,
          40.4494704726976
        ],
        [
          -111.913569004163,
          40.4494468437171
        ],
        [
          -111.91361510123,
          40.4494219865448
        ],
        [
          -111.913660040905,
          40.4493959309258
        ],
        [
          -111.91370376941,
          40.4493687080391
        ],
        [
          -111.915161303027,
          40.4484275065036
        ],
        [
          -111.91521567109,
          40.4483907898653
        ],
        [
          -111.915267816455,
          40.4483522513771
        ],
        [
          -111.915317633802,
          40.4483119688722
        ],
        [
          -111.915365022515,
          40.4482700237066
        ],
        [
          -111.915409886882,
          40.4482265005941
        ],
        [
          -111.915452136292,
          40.4481814874358
        ],
        [
          -111.915491685412,
          40.4481350751422
        ],
        [
          -111.915528454365,
          40.4480873574496
        ],
        [
          -111.915652728199,
          40.4479176579231
        ],
        [
          -111.916796624916,
          40.4481412288367
        ],
        [
          -111.916808803376,
          40.4481436091738
        ],
        [
          -111.916684101045,
          40.4484075341756
        ],
        [
          -111.916673329347,
          40.4484056057135
        ],
        [
          -111.915640484162,
          40.4482207725226
        ],
        [
          -111.915246333958,
          40.4485336134987
        ],
        [
          -111.913553845081,
          40.4495373443251
        ],
        [
          -111.913509425187,
          40.4497641507772
        ],
        [
          -111.913509409017,
          40.4497641876913
        ]
      ]
    ]
  }
}