{
  "type": "Feature",
  "properties": {
    "parcel_id": "580020502",
    "owner_name_raw": "STATE ROAD COMMISSION OF UTAH",
    "owner_class": "UNCLASSIFIED",
    "epsg": "EPSG:4326"
  },
  "geometry": {
    "type": "Polygon",
    "coordinates": [
      [
        [
          -111.903172819334,
          40.4424171778186
        ],
        [
          -111.903293457687,
          40.4426880638489
        ],
        [
          -111.908205352236,
          40.4461332052867
        ],
        [
          -111.90718370545,
          40.4461347619178
        ],
        [
          -111.906445909226,
          40.445586790654
        ],
        [
          -111.905735984131,
          40.4449600365708
        ],
        [
          -111.902100397972,
          40.4424170636457
        ],
        [
          -111.903172781605,
          40.4424171573085
        ],
        [
          -111.903172819334,
          40.4424171778186
        ]
      ]
    ]
  }
}