{
  "type": "Feature",
  "properties": {
    "parcel_id": "580020513",
    "owner_name_raw": "STATE ROAD COMMISSION OF UTAH",
    "owner_class": "UNCLASSIFIED",
    "epsg": "EPSG:4326"
  },
  "geometry": {
    "type": "Polygon",
    "coordinates": [
      [
        [
          -111.894607879869,
          40.4351658302739
        ],
        [
          -111.895281146513,
          40.4358373107384
        ],
        [
          -111.894852248575,
          40.4362554995212
        ],
        [
          -111.894364899059,
          40.4362572902178
        ],
        [
          -111.893273620262,
          40.4351687136224
        ],
        [
          -111.894607879869,
          40.4351658302739
        ]
      ]
    ]
  }
}