{
  "type": "Feature",
  "properties": {
    "parcel_id": "580060203",
    "owner_name_raw": "UTAH COUNTY",
    "owner_class": "UNCLASSIFIED",
    "epsg": "EPSG:4326"
  },
  "geometry": {
    "type": "Polygon",
    "coordinates": [
      [
        [
          -111.901815213412,
          40.4251881597428
        ],
        [
          -111.901818680011,
          40.4251901066508
        ],
        [
          -111.902249873144,
          40.4256855515483
        ],
        [
          -111.902236725401,
          40.4256766992334
        ],
        [
          -111.902160134142,
          40.4255836770275
        ],
        [
          -111.902052331816,
          40.425481143812
        ],
        [
          -111.901940960484,
          40.4253822751577
        ],
        [
          -111.901815213412,
          40.4251881597428
        ]
      ]
    ]
  }
}