{
  "type": "Feature",
  "properties": {
    "parcel_id": "580040076",
    "owner_name_raw": "UTAH DEPARTMENT OF TRANSPORTATION",
    "owner_class": "STATE",
    "epsg": "EPSG:4326"
  },
  "geometry": {
    "type": "Polygon",
    "coordinates": [
      [
        [
          -111.930716397536,
          40.4204174673838
        ],
        [
          -111.932501410192,
          40.4204075645982
        ],
        [
          -111.932452746657,
          40.4205566998481
        ],
        [
          -111.931666016504,
          40.4231228825365
        ],
        [
          -111.931644666245,
          40.4244878661816
        ],
        [
          -111.930794051502,
          40.4277143865948
        ],
        [
          -111.928546586137,
          40.4277207550083
        ],
        [
          -111.929934175129,
          40.4235911892526
        ],
        [
          -111.930716392146,
          40.4204175008946
        ],
        [
          -111.930716397536,
          40.4204174673838
        ]
      ]
    ]
  }
}