{
  "type": "Feature",
  "properties": {
    "parcel_id": "580020501",
    "owner_name_raw": "UTAH COUNTY",
    "owner_class": "UNCLASSIFIED",
    "epsg": "EPSG:4326"
  },
  "geometry": {
    "type": "Polygon",
    "coordinates": [
      [
        [
          -111.901838111468,
          40.4466709245274
        ],
        [
          -111.901793914356,
          40.4470778379252
        ],
        [
          -111.901783481727,
          40.4469998632754
        ],
        [
          -111.901771088019,
          40.4469220549486
        ],
        [
          -111.901756737782,
          40.4468444415063
        ],
        [
          -111.901740436283,
          40.4467670514387
        ],
        [
          -111.901722189506,
          40.446689913154
        ],
        [
          -111.901702004149,
          40.4466130549682
        ],
        [
          -111.901679887621,
          40.4465365050945
        ],
        [
          -111.901655848041,
          40.4464602916329
        ],
        [
          -111.901629894233,
          40.4463844425603
        ],
        [
          -111.901602035723,
          40.4463089857196
        ],
        [
          -111.901572282738,
          40.4462339488101
        ],
        [
          -111.901540646199,
          40.4461593593768
        ],
        [
          -111.901507137719,
          40.4460852448008
        ],
        [
          -111.901471769597,
          40.4460116322887
        ],
        [
          -111.901434554816,
          40.4459385488629
        ],
        [
          -111.901395507036,
          40.445866021352
        ],
        [
          -111.900563797339,
          40.4443625867977
        ],
        [
          -111.900490251851,
          40.4442323739734
        ],
        [
          -111.900414149472,
          40.4441030146611
        ],
        [
          -111.900335507308,
          40.4439745379431
        ],
        [
          -111.900254343035,
          40.4438469727035
        ],
        [
          -111.900170674899,
          40.4437203476216
        ],
        [
          -111.900084521705,
          40.4435946911655
        ],
        [
          -111.89999590282,
          40.4434700315856
        ],
        [
          -111.899904838162,
          40.4433463969086
        ],
        [
          -111.899224497285,
          40.4424387537657
        ],
        [
          -111.89936080585,
          40.4424383852676
        ],
        [
          -111.900007697957,
          40.4433014010718
        ],
        [
          -111.900099636978,
          40.4434262226605
        ],
        [
          -111.900189106737,
          40.4435520789961
        ],
        [
          -111.900276087122,
          40.4436789417827
        ],
        [
          -111.900360558582,
          40.4438067824982
        ],
        [
          -111.900442502129,
          40.443935572401
        ],
        [
          -111.900521899345,
          40.4440652825361
        ],
        [
          -111.900598732382,
          40.4441958837417
        ],
        [
          -111.900672983969,
          40.444327346656
        ],
        [
          -111.901191008257,
          40.4452637544915
        ],
        [
          -111.901504696361,
          40.4458307799477
        ],
        [
          -111.901558931547,
          40.4459326366827
        ],
        [
          -111.901609642103,
          40.4460355394854
        ],
        [
          -111.901656793227,
          40.4461394177289
        ],
        [
          -111.90170035256,
          40.4462442001171
        ],
        [
          -111.901740290205,
          40.4463498147337
        ],
        [
          -111.901776578755,
          40.4464561890916
        ],
        [
          -111.901809193304,
          40.4465632501826
        ],
        [
          -111.901838111468,
          40.4466709245274
        ]
      ]
    ]
  }
}