{
  "type": "Feature",
  "properties": {
    "parcel_id": "580030058",
    "owner_name_raw": "STATE ARMORY BOARD THE",
    "owner_class": "UNCLASSIFIED",
    "epsg": "EPSG:4326"
  },
  "geometry": {
    "type": "Polygon",
    "coordinates": [
      [
        [
          -111.928894766853,
          40.4352437961932
        ],
        [
          -111.923576734083,
          40.4388650168788
        ],
        [
          -111.920120009683,
          40.4388598029334
        ],
        [
          -111.919879634886,
          40.4387098461106
        ],
        [
          -111.919885857516,
          40.4387040209183
        ],
        [
          -111.919319034047,
          40.4383504041333
        ],
        [
          -111.919076260748,
          40.4368282670117
        ],
        [
          -111.919553506912,
          40.4352091324532
        ],
        [
          -111.928894766853,
          40.4352437961932
        ]
      ]
    ]
  }
}