{
  "type": "Feature",
  "properties": {
    "parcel_id": "580050028",
    "owner_name_raw": "UTAH COUNTY",
    "owner_class": "UNCLASSIFIED",
    "epsg": "EPSG:4326"
  },
  "geometry": {
    "type": "Polygon",
    "coordinates": [
      [
        [
          -111.911844908051,
          40.4312942739614
        ],
        [
          -111.911769060596,
          40.4312692857762
        ],
        [
          -111.911711125549,
          40.4312809162513
        ],
        [
          -111.911673743955,
          40.4312620773285
        ],
        [
          -111.911649908955,
          40.4312229409555
        ],
        [
          -111.911641855559,
          40.431217554104
        ],
        [
          -111.911662956985,
          40.4310248702839
        ],
        [
          -111.911650806372,
          40.4309818997816
        ],
        [
          -111.911226002956,
          40.4305937089194
        ],
        [
          -111.911124619991,
          40.4305165267036
        ],
        [
          -111.910324626213,
          40.429780534159
        ],
        [
          -111.909964657804,
          40.4294123758821
        ],
        [
          -111.90962213378,
          40.4290897557049
        ],
        [
          -111.909245130618,
          40.4287879600666
        ],
        [
          -111.90900809396,
          40.428582877264
        ],
        [
          -111.908778127943,
          40.4283766648607
        ],
        [
          -111.90874075623,
          40.4283537188256
        ],
        [
          -111.908726509848,
          40.4283381600198
        ],
        [
          -111.908398214239,
          40.4278285714117
        ],
        [
          -111.90820847478,
          40.4275919711145
        ],
        [
          -111.908359749277,
          40.4274687190966
        ],
        [
          -111.908431228224,
          40.4275517719986
        ],
        [
          -111.90863182562,
          40.4280577042868
        ],
        [
          -111.910383625764,
          40.4295459832428
        ],
        [
          -111.911740933446,
          40.4306888357383
        ],
        [
          -111.911844342112,
          40.4307983124084
        ],
        [
          -111.912015933806,
          40.4313605810887
        ],
        [
          -111.912410676,
          40.4318294458501
        ],
        [
          -111.912323534027,
          40.4318722175153
        ],
        [
          -111.912477867288,
          40.4320574860962
        ],
        [
          -111.912476785716,
          40.4320568508686
        ],
        [
          -111.912398233435,
          40.4319880575333
        ],
        [
          -111.912250555792,
          40.4318249677881
        ],
        [
          -111.912183703168,
          40.4317271594276
        ],
        [
          -111.912126590978,
          40.4316523854174
        ],
        [
          -111.912042281393,
          40.4315628669633
        ],
        [
          -111.911932490198,
          40.4314335570767
        ],
        [
          -111.911844908051,
          40.4312942739614
        ]
      ]
    ]
  }
}