{
  "type": "Feature",
  "properties": {
    "parcel_id": "580040041",
    "owner_name_raw": "UNITED STATES OF AMERICA",
    "owner_class": "UNCLASSIFIED",
    "epsg": "EPSG:4326"
  },
  "geometry": {
    "type": "Polygon",
    "coordinates": [
      [
        [
          -111.935476769652,
          40.4276674943196
        ],
        [
          -111.930799073983,
          40.4276969409818
        ],
        [
          -111.931644956401,
          40.4244882019532
        ],
        [
          -111.931651779105,
          40.424051575696
        ],
        [
          -111.935477134368,
          40.424028998836
        ],
        [
          -111.935476769652,
          40.4276674943196
        ]
      ]
    ]
  }
}