{
  "type": "Feature",
  "properties": {
    "parcel_id": "580020205",
    "owner_name_raw": "UTAH COUNTY",
    "owner_class": "UNCLASSIFIED",
    "epsg": "EPSG:4326"
  },
  "geometry": {
    "type": "Polygon",
    "coordinates": [
      [
        [
          -111.895593400906,
          40.4429831265882
        ],
        [
          -111.89537064297,
          40.4430278190911
        ],
        [
          -111.895492019738,
          40.4429737309858
        ],
        [
          -111.895593400906,
          40.4429831265882
        ]
      ]
    ]
  }
}