{
  "type": "Feature",
  "properties": {
    "parcel_id": "580030063",
    "owner_name_raw": "STATE ARMORY BOARD THE",
    "owner_class": "UNCLASSIFIED",
    "epsg": "EPSG:4326"
  },
  "geometry": {
    "type": "Polygon",
    "coordinates": [
      [
        [
          -111.916437098478,
          40.4351974000959
        ],
        [
          -111.916511558934,
          40.4361841170795
        ],
        [
          -111.916351219537,
          40.4374526348358
        ],
        [
          -111.916335395076,
          40.4375399077503
        ],
        [
          -111.916322195438,
          40.4376274330275
        ],
        [
          -111.916311627518,
          40.4377151649406
        ],
        [
          -111.916303696837,
          40.4378030576551
        ],
        [
          -111.916298407539,
          40.4378910652528
        ],
        [
          -111.916295762387,
          40.4379791417554
        ],
        [
          -111.916295762762,
          40.438067241149
        ],
        [
          -111.916298408664,
          40.4381553174077
        ],
        [
          -111.916303698712,
          40.4382433245181
        ],
        [
          -111.916311630141,
          40.4383312165031
        ],
        [
          -111.916322198809,
          40.4384189474457
        ],
        [
          -111.916335399192,
          40.4385064715134
        ],
        [
          -111.916351224396,
          40.4385937429818
        ],
        [
          -111.916369666152,
          40.438680716259
        ],
        [
          -111.916390714827,
          40.4387673459085
        ],
        [
          -111.916414359423,
          40.438853586674
        ],
        [
          -111.915221208978,
          40.4388517249411
        ],
        [
          -111.915605843328,
          40.4369387045776
        ],
        [
          -111.914981902278,
          40.4351919144199
        ],
        [
          -111.916436934985,
          40.4351974192407
        ],
        [
          -111.916437098478,
          40.4351974000959
        ]
      ]
    ]
  }
}