{
  "type": "Feature",
  "properties": {
    "parcel_id": "580060202",
    "owner_name_raw": "UTAH COUNTY",
    "owner_class": "UNCLASSIFIED",
    "epsg": "EPSG:4326"
  },
  "geometry": {
    "type": "Polygon",
    "coordinates": [
      [
        [
          -111.903104074859,
          40.427527073047
        ],
        [
          -111.903232069516,
          40.4278493868478
        ],
        [
          -111.903481648451,
          40.4282140409248
        ],
        [
          -111.903370277119,
          40.4280722264922
        ],
        [
          -111.903232816016,
          40.4278525583976
        ],
        [
          -111.903145872571,
          40.4276530144237
        ],
        [
          -111.903104074859,
          40.427527073047
        ]
      ]
    ]
  }
}