{
  "type": "Feature",
  "properties": {
    "parcel_id": "580050144",
    "owner_name_raw": "UTAH STATE ARMORY BOARD THE",
    "owner_class": "UNCLASSIFIED",
    "epsg": "EPSG:4326"
  },
  "geometry": {
    "type": "Polygon",
    "coordinates": [
      [
        [
          -111.916542440318,
          40.4308739038107
        ],
        [
          -111.916542442115,
          40.4307374299093
        ],
        [
          -111.916856109557,
          40.4310076744279
        ],
        [
          -111.916814540018,
          40.431108324279
        ],
        [
          -111.916542440318,
          40.4308739038107
        ]
      ]
    ]
  }
}