{
  "type": "Feature",
  "properties": {
    "parcel_id": "580220139",
    "owner_name_raw": "UTAH DEPARTMENT OF TRANSPORTATION",
    "owner_class": "STATE",
    "epsg": "EPSG:4326"
  },
  "geometry": {
    "type": "Polygon",
    "coordinates": [
      [
        [
          -111.938855930816,
          40.394762741372
        ],
        [
          -111.938897514728,
          40.3948810562482
        ],
        [
          -111.93893971756,
          40.3949980945395
        ],
        [
          -111.938983911517,
          40.395114705577
        ],
        [
          -111.939030089155,
          40.3952308697159
        ],
        [
          -111.939078242692,
          40.3953465673868
        ],
        [
          -111.939128364016,
          40.3954617790989
        ],
        [
          -111.939180444682,
          40.3955764854436
        ],
        [
          -111.939234475916,
          40.3956906670972
        ],
        [
          -111.939290448613,
          40.3958043048247
        ],
        [
          -111.939356751981,
          40.3959415910644
        ],
        [
          -111.939418419755,
          40.3960801244855
        ],
        [
          -111.939475411531,
          40.3962198143113
        ],
        [
          -111.939527689965,
          40.3963605690077
        ],
        [
          -111.939575220806,
          40.3965022963436
        ],
        [
          -111.939617972908,
          40.3966449034509
        ],
        [
          -111.939655918262,
          40.3967882968859
        ],
        [
          -111.939689032003,
          40.39693238269
        ],
        [
          -111.939973744948,
          40.3982723841247
        ],
        [
          -111.940010359838,
          40.39845167255
        ],
        [
          -111.940044050808,
          40.3986312926795
        ],
        [
          -111.94007481267,
          40.3988112168561
        ],
        [
          -111.94010264069,
          40.3989914173763
        ],
        [
          -111.940127530581,
          40.3991718664941
        ],
        [
          -111.940149478513,
          40.3993525364254
        ],
        [
          -111.940168481106,
          40.3995333993527
        ],
        [
          -111.940184535434,
          40.3997144274285
        ],
        [
          -111.940197639025,
          40.3998955927806
        ],
        [
          -111.940207789863,
          40.4000768675154
        ],
        [
          -111.940214986384,
          40.4002582237231
        ],
        [
          -111.940219227481,
          40.4004396334813
        ],
        [
          -111.9402205125,
          40.4006210688597
        ],
        [
          -111.940218841243,
          40.4008025019243
        ],
        [
          -111.940214213969,
          40.4009839047416
        ],
        [
          -111.940206631389,
          40.4011652493831
        ],
        [
          -111.939362748621,
          40.4011406570394
        ],
        [
          -111.939384379682,
          40.4008883203616
        ],
        [
          -111.939398943569,
          40.4006356889706
        ],
        [
          -111.939406433663,
          40.4003828776351
        ],
        [
          -111.939406846564,
          40.4001300012071
        ],
        [
          -111.939400182083,
          40.3998771745692
        ],
        [
          -111.939386443247,
          40.3996245125827
        ],
        [
          -111.939365636299,
          40.3993721300357
        ],
        [
          -111.939337770691,
          40.3991201415903
        ],
        [
          -111.939302859083,
          40.3988686617308
        ],
        [
          -111.939260917334,
          40.398617804712
        ],
        [
          -111.9392119645,
          40.3983676845069
        ],
        [
          -111.93915602282,
          40.3981184147549
        ],
        [
          -111.939093117708,
          40.3978701087103
        ],
        [
          -111.939023277743,
          40.397622879191
        ],
        [
          -111.938946534652,
          40.3973768385266
        ],
        [
          -111.938862923302,
          40.3971320985082
        ],
        [
          -111.938075793399,
          40.394925414695
        ],
        [
          -111.938855930816,
          40.394762741372
        ]
      ]
    ]
  }
}