{
  "type": "Feature",
  "properties": {
    "parcel_id": "580290014",
    "owner_name_raw": "UTAH POWER & LIGHT COMPANY",
    "owner_class": "UNCLASSIFIED",
    "epsg": "EPSG:4326"
  },
  "geometry": {
    "type": "Polygon",
    "coordinates": [
      [
        [
          -111.898031133041,
          40.3913620446401
        ],
        [
          -111.897223598805,
          40.3913647889232
        ],
        [
          -111.897217785806,
          40.3913660881986
        ],
        [
          -111.897213740693,
          40.3906696579614
        ],
        [
          -111.898031133041,
          40.3913620446401
        ]
      ]
    ]
  }
}