{
  "type": "Feature",
  "properties": {
    "parcel_id": "580210284",
    "owner_name_raw": "UTAH DEPARTMENT OF TRANSPORTATION",
    "owner_class": "STATE",
    "epsg": "EPSG:4326"
  },
  "geometry": {
    "type": "Polygon",
    "coordinates": [
      [
        [
          -111.936645805722,
          40.4059199424164
        ],
        [
          -111.93665145882,
          40.4059635712431
        ],
        [
          -111.936639811264,
          40.4060183697371
        ],
        [
          -111.93659595102,
          40.4060941606802
        ],
        [
          -111.936551844638,
          40.406138576723
        ],
        [
          -111.936506174289,
          40.4061697688996
        ],
        [
          -111.936645805722,
          40.4059199424164
        ]
      ]
    ]
  }
}