{
  "type": "Feature",
  "properties": {
    "parcel_id": "580210246",
    "owner_name_raw": "UNITED STATES OF AMERICA",
    "owner_class": "UNCLASSIFIED",
    "epsg": "EPSG:4326"
  },
  "geometry": {
    "type": "Polygon",
    "coordinates": [
      [
        [
          -111.949674869093,
          40.4203445396255
        ],
        [
          -111.949726240151,
          40.416650041616
        ],
        [
          -111.949806314179,
          40.4130473421341
        ],
        [
          -111.954650286211,
          40.413071704418
        ],
        [
          -111.959296433047,
          40.4130572104367
        ],
        [
          -111.959383577715,
          40.4056851441324
        ],
        [
          -111.963994302183,
          40.4057981063347
        ],
        [
          -111.963942516104,
          40.4130425386203
        ],
        [
          -111.963899654786,
          40.4190320412029
        ],
        [
          -111.963797419321,
          40.4190198190807
        ],
        [
          -111.963616539046,
          40.4189981966359
        ],
        [
          -111.963400925412,
          40.4190132214181
        ],
        [
          -111.963157027422,
          40.4190302131166
        ],
        [
          -111.962825622744,
          40.4190167715858
        ],
        [
          -111.962588702868,
          40.4189982335669
        ],
        [
          -111.962387178411,
          40.4189824701601
        ],
        [
          -111.962177583488,
          40.4189239330322
        ],
        [
          -111.962042040288,
          40.4188657330208
        ],
        [
          -111.961946878157,
          40.418824872136
        ],
        [
          -111.96176425605,
          40.4187464556337
        ],
        [
          -111.961567361509,
          40.4185777154361
        ],
        [
          -111.961227126392,
          40.4184544961425
        ],
        [
          -111.960975351076,
          40.4184019551175
        ],
        [
          -111.960780104045,
          40.418343364823
        ],
        [
          -111.960520454996,
          40.4183183136933
        ],
        [
          -111.960046838923,
          40.4183836460407
        ],
        [
          -111.959732454625,
          40.4184963913295
        ],
        [
          -111.95962055688,
          40.4185844793322
        ],
        [
          -111.959548450909,
          40.4186412433716
        ],
        [
          -111.959375615946,
          40.4187743639829
        ],
        [
          -111.959228575209,
          40.4188876160778
        ],
        [
          -111.959101894788,
          40.4189659797546
        ],
        [
          -111.958943447243,
          40.4190549090331
        ],
        [
          -111.958794838946,
          40.4191383170132
        ],
        [
          -111.958667193734,
          40.4192496405648
        ],
        [
          -111.958605392337,
          40.4193742474124
        ],
        [
          -111.95853481979,
          40.4194956526777
        ],
        [
          -111.958471060066,
          40.4195925083688
        ],
        [
          -111.95843786552,
          40.4197302283838
        ],
        [
          -111.958399842529,
          40.4198845675582
        ],
        [
          -111.958363046636,
          40.4200142648512
        ],
        [
          -111.958323078793,
          40.4201551442892
        ],
        [
          -111.958313646482,
          40.4202534249534
        ],
        [
          -111.958304613024,
          40.4203477115291
        ],
        [
          -111.958304169256,
          40.4203560222169
        ],
        [
          -111.954412271288,
          40.4203509251502
        ],
        [
          -111.949730331977,
          40.4203651768295
        ],
        [
          -111.949674869093,
          40.4203445396255
        ]
      ]
    ]
  }
}