{
  "type": "Feature",
  "properties": {
    "parcel_id": "580200209",
    "owner_name_raw": "UTAH DEPARTMENT OF TRANSPORTATION",
    "owner_class": "STATE",
    "epsg": "EPSG:4326"
  },
  "geometry": {
    "type": "Polygon",
    "coordinates": [
      [
        [
          -111.892186660565,
          40.4133238332586
        ],
        [
          -111.891818496825,
          40.4133250349871
        ],
        [
          -111.89193623362,
          40.4128830389239
        ],
        [
          -111.891902080571,
          40.412353303683
        ],
        [
          -111.891947423035,
          40.4123531552602
        ],
        [
          -111.891947332305,
          40.4123366905889
        ],
        [
          -111.892367233615,
          40.4123353192168
        ],
        [
          -111.892186660565,
          40.4133238332586
        ]
      ]
    ]
  }
}