{
  "type": "Feature",
  "properties": {
    "parcel_id": "580200501",
    "owner_name_raw": "UTAH COUNTY",
    "owner_class": "UNCLASSIFIED",
    "epsg": "EPSG:4326"
  },
  "geometry": {
    "type": "Polygon",
    "coordinates": [
      [
        [
          -111.90105870528,
          40.4059507646282
        ],
        [
          -111.906836431134,
          40.4059327079947
        ],
        [
          -111.906837238719,
          40.4060685454455
        ],
        [
          -111.901082313904,
          40.4060884147475
        ],
        [
          -111.900811510474,
          40.4061415290357
        ],
        [
          -111.900199878139,
          40.4063515581222
        ],
        [
          -111.899997180482,
          40.4061864943302
        ],
        [
          -111.900120045758,
          40.4060883586563
        ],
        [
          -111.900241663275,
          40.4061873972612
        ],
        [
          -111.900760362198,
          40.4060092802084
        ],
        [
          -111.90105870528,
          40.4059507646282
        ]
      ]
    ]
  }
}