{
  "type": "Feature",
  "properties": {
    "parcel_id": "580210141",
    "owner_name_raw": "UTAH DEPARTMENT OF TRANSPORTATION",
    "owner_class": "STATE",
    "epsg": "EPSG:4326"
  },
  "geometry": {
    "type": "Polygon",
    "coordinates": [
      [
        [
          -111.925866054652,
          40.416781167037
        ],
        [
          -111.925835181352,
          40.4166741071369
        ],
        [
          -111.925963392503,
          40.4166717448356
        ],
        [
          -111.927191951842,
          40.4166652303824
        ],
        [
          -111.927268857511,
          40.4167737080857
        ],
        [
          -111.927684973321,
          40.4167715420761
        ],
        [
          -111.927685983925,
          40.4168822136552
        ],
        [
          -111.925965367898,
          40.4168913386476
        ],
        [
          -111.925897662774,
          40.4168922065545
        ],
        [
          -111.925866078906,
          40.4167812176479
        ],
        [
          -111.925866054652,
          40.416781167037
        ]
      ]
    ]
  }
}