{
  "type": "Feature",
  "properties": {
    "parcel_id": "580210335",
    "owner_name_raw": "UTAH DEPARTMENT OF TRANSPORTATION",
    "owner_class": "STATE",
    "epsg": "EPSG:4326"
  },
  "geometry": {
    "type": "Polygon",
    "coordinates": [
      [
        [
          -111.935590803591,
          40.4158956689718
        ],
        [
          -111.935588613498,
          40.4167301738101
        ],
        [
          -111.93546926872,
          40.4167306457228
        ],
        [
          -111.935350318301,
          40.4167311155837
        ],
        [
          -111.93535120943,
          40.4163943954507
        ],
        [
          -111.935590803591,
          40.4158956689718
        ]
      ]
    ]
  }
}