{
  "type": "Feature",
  "properties": {
    "parcel_id": "580210081",
    "owner_name_raw": "UTAH DEPARTMENT OF TRANSPORTATION",
    "owner_class": "STATE",
    "epsg": "EPSG:4326"
  },
  "geometry": {
    "type": "Polygon",
    "coordinates": [
      [
        [
          -111.925946253546,
          40.4131647350341
        ],
        [
          -111.926639162752,
          40.4131613705969
        ],
        [
          -111.926677863971,
          40.4133628883951
        ],
        [
          -111.925947192285,
          40.413366436125
        ],
        [
          -111.925946253546,
          40.4131647350341
        ]
      ]
    ]
  }
}