{
  "type": "Feature",
  "properties": {
    "parcel_id": "580340814",
    "owner_name_raw": "EDGE HOMES UTAH LLC",
    "owner_class": "UNCLASSIFIED",
    "epsg": "EPSG:4326"
  },
  "geometry": {
    "type": "Polygon",
    "coordinates": [
      [
        [
          -111.945032765574,
          40.3668656281666
        ],
        [
          -111.945035687793,
          40.3656268789876
        ],
        [
          -111.945714200599,
          40.3656286962041
        ],
        [
          -111.945745758175,
          40.3655727746235
        ],
        [
          -111.945782790596,
          40.365518837379
        ],
        [
          -111.945825084598,
          40.365467195092
        ],
        [
          -111.945872396615,
          40.3654181451678
        ],
        [
          -111.94626773529,
          40.3650393480842
        ],
        [
          -111.94631112485,
          40.3650003808873
        ],
        [
          -111.946357696891,
          40.3649636081557
        ],
        [
          -111.946407260666,
          40.3649291805047
        ],
        [
          -111.946459613176,
          40.3648972389444
        ],
        [
          -111.946514539999,
          40.3648679143026
        ],
        [
          -111.946571816169,
          40.3648413266888
        ],
        [
          -111.946631207098,
          40.3648175850021
        ],
        [
          -111.946692469537,
          40.3647967864852
        ],
        [
          -111.946466755245,
          40.3668684494204
        ],
        [
          -111.945032765574,
          40.3668656281666
        ]
      ]
    ]
  }
}