{
  "type": "Feature",
  "properties": {
    "parcel_id": "580350069",
    "owner_name_raw": "UTAH DEPARTMENT OF TRANSPORTATION",
    "owner_class": "STATE",
    "epsg": "EPSG:4326"
  },
  "geometry": {
    "type": "Polygon",
    "coordinates": [
      [
        [
          -111.916294047159,
          40.3693575273981
        ],
        [
          -111.916110849231,
          40.3693574897554
        ],
        [
          -111.916106426825,
          40.3679027026756
        ],
        [
          -111.916096044996,
          40.36740665719
        ],
        [
          -111.916078614086,
          40.3669114957693
        ],
        [
          -111.916043464805,
          40.3657499383134
        ],
        [
          -111.916026436341,
          40.3652738479932
        ],
        [
          -111.916019079139,
          40.3647976119428
        ],
        [
          -111.916011792005,
          40.3634194223766
        ],
        [
          -111.916001887181,
          40.3631454292999
        ],
        [
          -111.915985539639,
          40.3619879905332
        ],
        [
          -111.915977233816,
          40.3615750529504
        ],
        [
          -111.915975918682,
          40.3607420842502
        ],
        [
          -111.915991738015,
          40.3600708332549
        ],
        [
          -111.916014557918,
          40.3585200872222
        ],
        [
          -111.916024428606,
          40.3569682431163
        ],
        [
          -111.916038589648,
          40.3564687088213
        ],
        [
          -111.916130948138,
          40.355481098142
        ],
        [
          -111.916298970825,
          40.3554811323697
        ],
        [
          -111.916294047159,
          40.3693575273981
        ]
      ]
    ]
  }
}