{
  "type": "Feature",
  "properties": {
    "parcel_id": "580330354",
    "owner_name_raw": "UTAH DEPARTMENT OF TRANSPORTATION",
    "owner_class": "STATE",
    "epsg": "EPSG:4326"
  },
  "geometry": {
    "type": "Polygon",
    "coordinates": [
      [
        [
          -111.930003852056,
          40.3838936978616
        ],
        [
          -111.929826145795,
          40.3837579067875
        ],
        [
          -111.929652166956,
          40.3836193431157
        ],
        [
          -111.929481990064,
          40.383478066183
        ],
        [
          -111.929315688013,
          40.3833341364884
        ],
        [
          -111.929153332039,
          40.3831876156674
        ],
        [
          -111.928994991687,
          40.3830385664656
        ],
        [
          -111.928840734782,
          40.3828870527115
        ],
        [
          -111.9286906274,
          40.3827331392898
        ],
        [
          -111.928562492606,
          40.3828034630773
        ],
        [
          -111.928451595584,
          40.3826853007884
        ],
        [
          -111.928579731276,
          40.3826149775618
        ],
        [
          -111.928495412709,
          40.3825224377769
        ],
        [
          -111.92837100233,
          40.3826511676538
        ],
        [
          -111.928267106778,
          40.3825924518063
        ],
        [
          -111.928418456733,
          40.382435846995
        ],
        [
          -111.928334291123,
          40.382338879838
        ],
        [
          -111.928251823106,
          40.3822410698468
        ],
        [
          -111.928171067221,
          40.3821424342612
        ],
        [
          -111.928092037705,
          40.3820429904668
        ],
        [
          -111.926818520381,
          40.3804215800047
        ],
        [
          -111.926547710663,
          40.3803699077767
        ],
        [
          -111.92632414065,
          40.3800852537258
        ],
        [
          -111.926391708332,
          40.3798781556978
        ],
        [
          -111.924044351206,
          40.376889260765
        ],
        [
          -111.923773556758,
          40.3768375824061
        ],
        [
          -111.923518604101,
          40.3765129288186
        ],
        [
          -111.923586177173,
          40.3763058321277
        ],
        [
          -111.922704207634,
          40.3751827159134
        ],
        [
          -111.922608637969,
          40.3750649747257
        ],
        [
          -111.922508295727,
          40.374949560751
        ],
        [
          -111.922403278489,
          40.3748365862377
        ],
        [
          -111.922293688379,
          40.3747261610626
        ],
        [
          -111.922179631972,
          40.3746183926233
        ],
        [
          -111.922061220182,
          40.3745133857342
        ],
        [
          -111.921938568162,
          40.3744112425242
        ],
        [
          -111.921811795187,
          40.3743120623374
        ],
        [
          -111.921681024539,
          40.3742159416368
        ],
        [
          -111.921546383389,
          40.3741229739099
        ],
        [
          -111.921408002671,
          40.374033249578
        ],
        [
          -111.921266016955,
          40.3739468559082
        ],
        [
          -111.921120564319,
          40.3738638769287
        ],
        [
          -111.920971786209,
          40.3737843933464
        ],
        [
          -111.920819827308,
          40.3737084824692
        ],
        [
          -111.920664835392,
          40.3736362181302
        ],
        [
          -111.920506961184,
          40.3735676706157
        ],
        [
          -111.920346358213,
          40.3735029065977
        ],
        [
          -111.920183182659,
          40.3734419890679
        ],
        [
          -111.920017593205,
          40.3733849772773
        ],
        [
          -111.919849750882,
          40.3733319266778
        ],
        [
          -111.919679818912,
          40.373282888869
        ],
        [
          -111.919507962546,
          40.3732379115473
        ],
        [
          -111.919334348911,
          40.3731970384598
        ],
        [
          -111.91915914684,
          40.3731603093619
        ],
        [
          -111.918982526711,
          40.3731277599782
        ],
        [
          -111.918804660281,
          40.373099421968
        ],
        [
          -111.91862572052,
          40.3730753228944
        ],
        [
          -111.918445881441,
          40.3730554861976
        ],
        [
          -111.918265317932,
          40.3730399311718
        ],
        [
          -111.918084205585,
          40.3730286729469
        ],
        [
          -111.917902720525,
          40.3730217224731
        ],
        [
          -111.920254764162,
          40.3730147671639
        ],
        [
          -111.920367136154,
          40.3730533312267
        ],
        [
          -111.920478508878,
          40.3730935425744
        ],
        [
          -111.920588840733,
          40.3731353861836
        ],
        [
          -111.920698090507,
          40.3731788464212
        ],
        [
          -111.920806217389,
          40.3732239070501
        ],
        [
          -111.920913180992,
          40.3732705512355
        ],
        [
          -111.92101894136,
          40.3733187615506
        ],
        [
          -111.921123458989,
          40.373368519984
        ],
        [
          -111.921226694836,
          40.3734198079456
        ],
        [
          -111.92132861034,
          40.373472606274
        ],
        [
          -111.921429167431,
          40.3735268952438
        ],
        [
          -111.921528328549,
          40.3735826545723
        ],
        [
          -111.921626056652,
          40.3736398634279
        ],
        [
          -111.921722315235,
          40.3736985004373
        ],
        [
          -111.921817068344,
          40.3737585436938
        ],
        [
          -111.921910280583,
          40.3738199707654
        ],
        [
          -111.922001917135,
          40.3738827587031
        ],
        [
          -111.92209194377,
          40.3739468840496
        ],
        [
          -111.92218032686,
          40.3740123228479
        ],
        [
          -111.922267033392,
          40.3740790506505
        ],
        [
          -111.922352030976,
          40.3741470425285
        ],
        [
          -111.922435287863,
          40.3742162730805
        ],
        [
          -111.922516772954,
          40.3742867164428
        ],
        [
          -111.922596455811,
          40.3743583462985
        ],
        [
          -111.92267430667,
          40.3744311358873
        ],
        [
          -111.92275029645,
          40.3745050580163
        ],
        [
          -111.922824396767,
          40.374580085069
        ],
        [
          -111.922896579942,
          40.3746561890165
        ],
        [
          -111.922966819011,
          40.3747333414277
        ],
        [
          -111.923035087738,
          40.3748115134798
        ],
        [
          -111.923101360621,
          40.3748906759692
        ],
        [
          -111.923165612907,
          40.3749707993226
        ],
        [
          -111.924043893963,
          40.376089207358
        ],
        [
          -111.924314683919,
          40.3761408849222
        ],
        [
          -111.92456964017,
          40.376465535512
        ],
        [
          -111.924502069793,
          40.3766726337651
        ],
        [
          -111.926870689143,
          40.379688573948
        ],
        [
          -111.927141496167,
          40.3797402453299
        ],
        [
          -111.927365067078,
          40.3800248981014
        ],
        [
          -111.927297502091,
          40.3802319970469
        ],
        [
          -111.928553474419,
          40.381831054396
        ],
        [
          -111.928654399997,
          40.3819580932052
        ],
        [
          -111.928759215568,
          40.3820832906731
        ],
        [
          -111.928792614032,
          40.3820486939732
        ],
        [
          -111.928896511381,
          40.3821074075574
        ],
        [
          -111.928834721663,
          40.3821713428515
        ],
        [
          -111.929017035648,
          40.3823749795818
        ],
        [
          -111.929042516361,
          40.3823609942541
        ],
        [
          -111.929153414281,
          40.3824791564276
        ],
        [
          -111.929127933568,
          40.3824931403622
        ],
        [
          -111.929272387426,
          40.3826410659317
        ],
        [
          -111.929420844256,
          40.3827866734224
        ],
        [
          -111.929573239988,
          40.3829299000065
        ],
        [
          -111.929729508847,
          40.3830706838844
        ],
        [
          -111.92988958339,
          40.3832089643105
        ],
        [
          -111.930053394531,
          40.3833446816198
        ],
        [
          -111.93022087157,
          40.3834777772539
        ],
        [
          -111.930391942225,
          40.3836081937854
        ],
        [
          -111.930680097513,
          40.3836102979096
        ],
        [
          -111.930921154132,
          40.3837787699592
        ],
        [
          -111.930936225167,
          40.383889781812
        ],
        [
          -111.930003852056,
          40.3838936978616
        ]
      ]
    ]
  }
}