{
  "type": "Feature",
  "properties": {
    "parcel_id": "580330193",
    "owner_name_raw": "UTAH DEPARTMENT OF TRANSPORTATION",
    "owner_class": "STATE",
    "epsg": "EPSG:4326"
  },
  "geometry": {
    "type": "Polygon",
    "coordinates": [
      [
        [
          -111.944991909296,
          40.3838294761263
        ],
        [
          -111.944994730905,
          40.3823755222163
        ],
        [
          -111.946465069107,
          40.383426008542
        ],
        [
          -111.946746437624,
          40.3837399508361
        ],
        [
          -111.947336085488,
          40.383547988435
        ],
        [
          -111.948588769084,
          40.3832134055515
        ],
        [
          -111.948959187595,
          40.3828816614334
        ],
        [
          -111.94939681536,
          40.3823143085023
        ],
        [
          -111.949445947787,
          40.3824144569291
        ],
        [
          -111.949489740822,
          40.3825160323875
        ],
        [
          -111.949528123283,
          40.3826188697697
        ],
        [
          -111.949561032784,
          40.3827228019174
        ],
        [
          -111.949744781379,
          40.3833613689557
        ],
        [
          -111.949743721367,
          40.3838663908871
        ],
        [
          -111.944991909296,
          40.3838294761263
        ]
      ]
    ]
  }
}