{
  "type": "Feature",
  "properties": {
    "parcel_id": "580370042",
    "owner_name_raw": "STATE OF UTAH",
    "owner_class": "STATE",
    "epsg": "EPSG:4326"
  },
  "geometry": {
    "type": "Polygon",
    "coordinates": [
      [
        [
          -111.893696265925,
          40.3602137855616
        ],
        [
          -111.891512452486,
          40.3601962040323
        ],
        [
          -111.891509568894,
          40.3596922984087
        ],
        [
          -111.893539385941,
          40.3591902262597
        ],
        [
          -111.8935448998,
          40.3601489888587
        ],
        [
          -111.893696265925,
          40.3602137855616
        ]
      ]
    ]
  }
}