{
  "type": "Feature",
  "properties": {
    "parcel_id": "580350061",
    "owner_name_raw": "UTAH DEPARTMENT OF TRANSPORTATION",
    "owner_class": "STATE",
    "epsg": "EPSG:4326"
  },
  "geometry": {
    "type": "Polygon",
    "coordinates": [
      [
        [
          -111.916555623993,
          40.3674017128488
        ],
        [
          -111.91657794084,
          40.3674016738362
        ],
        [
          -111.916584815647,
          40.3679011387587
        ],
        [
          -111.916587137792,
          40.3691525427213
        ],
        [
          -111.916670707164,
          40.3692508540535
        ],
        [
          -111.916671463546,
          40.3693121590286
        ],
        [
          -111.916649306273,
          40.3693043091318
        ],
        [
          -111.916628949128,
          40.3692940113157
        ],
        [
          -111.91661085454,
          40.3692814995027
        ],
        [
          -111.916595433542,
          40.3692670579078
        ],
        [
          -111.916583036435,
          40.3692510145827
        ],
        [
          -111.916573944829,
          40.3692337339637
        ],
        [
          -111.916568365249,
          40.3692156085937
        ],
        [
          -111.916566424438,
          40.3691970502051
        ],
        [
          -111.916555347312,
          40.36740177171
        ],
        [
          -111.916555623993,
          40.3674017128488
        ]
      ]
    ]
  }
}