{
  "type": "Feature",
  "properties": {
    "parcel_id": "580350078",
    "owner_name_raw": "UTAH DEPARTMENT OF TRANSPORTATION",
    "owner_class": "STATE",
    "epsg": "EPSG:4326"
  },
  "geometry": {
    "type": "Polygon",
    "coordinates": [
      [
        [
          -111.911562376216,
          40.3729962719098
        ],
        [
          -111.911562371724,
          40.3725572358591
        ],
        [
          -111.911690175938,
          40.3725581330817
        ],
        [
          -111.911696509061,
          40.3729960734407
        ],
        [
          -111.911562376216,
          40.3729962719098
        ]
      ]
    ]
  }
}