{
  "type": "Feature",
  "properties": {
    "parcel_id": "580330497",
    "owner_name_raw": "UTAH DEPARTMENT OF TRANSPORTATION",
    "owner_class": "STATE",
    "epsg": "EPSG:4326"
  },
  "geometry": {
    "type": "Polygon",
    "coordinates": [
      [
        [
          -111.940254048063,
          40.3865591698665
        ],
        [
          -111.940288885628,
          40.3865534653735
        ],
        [
          -111.940300644575,
          40.3865954898973
        ],
        [
          -111.940254048063,
          40.3865591698665
        ]
      ]
    ]
  }
}