{
  "type": "Feature",
  "properties": {
    "parcel_id": "580330433",
    "owner_name_raw": "UTAH DEPARTMENT OF TRANSPORTATION",
    "owner_class": "STATE",
    "epsg": "EPSG:4326"
  },
  "geometry": {
    "type": "Polygon",
    "coordinates": [
      [
        [
          -111.93334944138,
          40.3856653204904
        ],
        [
          -111.93334838047,
          40.3855991893401
        ],
        [
          -111.933748932069,
          40.3855999789621
        ],
        [
          -111.933758720112,
          40.3858044763724
        ],
        [
          -111.933553076609,
          40.3857366119431
        ],
        [
          -111.93334944138,
          40.3856653204904
        ]
      ]
    ]
  }
}