{
  "type": "Feature",
  "properties": {
    "parcel_id": "580330407",
    "owner_name_raw": "UTAH DEPARTMENT OF TRANSPORTATION",
    "owner_class": "STATE",
    "epsg": "EPSG:4326"
  },
  "geometry": {
    "type": "Polygon",
    "coordinates": [
      [
        [
          -111.930003704732,
          40.3838737768476
        ],
        [
          -111.930936097607,
          40.3838652570593
        ],
        [
          -111.930951827107,
          40.3839742844031
        ],
        [
          -111.931128470474,
          40.3840859988862
        ],
        [
          -111.931307975596,
          40.3841950343177
        ],
        [
          -111.931490272465,
          40.3843013481864
        ],
        [
          -111.931675289984,
          40.3844048990422
        ],
        [
          -111.931862955995,
          40.3845056465126
        ],
        [
          -111.932053197308,
          40.3846035513184
        ],
        [
          -111.932245939728,
          40.3846985752885
        ],
        [
          -111.932441108084,
          40.3847906813756
        ],
        [
          -111.932448787781,
          40.3852708967024
        ],
        [
          -111.932205510312,
          40.385162619399
        ],
        [
          -111.931965600928,
          40.3850500661491
        ],
        [
          -111.931729189129,
          40.3849332976862
        ],
        [
          -111.931496402528,
          40.3848123770191
        ],
        [
          -111.931267366781,
          40.3846873693971
        ],
        [
          -111.931042205517,
          40.3845583422755
        ],
        [
          -111.930821040278,
          40.3844253652787
        ],
        [
          -111.930603990446,
          40.3842885101632
        ],
        [
          -111.930252715932,
          40.3843192218485
        ],
        [
          -111.930010238179,
          40.3841519356089
        ],
        [
          -111.930015425052,
          40.3838825313378
        ],
        [
          -111.930003155861,
          40.3838734805607
        ],
        [
          -111.930003704732,
          40.3838737768476
        ]
      ]
    ]
  }
}