{
  "type": "Feature",
  "properties": {
    "parcel_id": "580350041",
    "owner_name_raw": "UTAH DEPARTMENT OF TRANSPORTATION",
    "owner_class": "STATE",
    "epsg": "EPSG:4326"
  },
  "geometry": {
    "type": "Polygon",
    "coordinates": [
      [
        [
          -111.916465756532,
          40.3742748059078
        ],
        [
          -111.916452061716,
          40.3730263755425
        ],
        [
          -111.916589914484,
          40.3730259731296
        ],
        [
          -111.916532568731,
          40.374274578015
        ],
        [
          -111.916465756532,
          40.3742748059078
        ]
      ]
    ]
  }
}