{
  "type": "Feature",
  "properties": {
    "parcel_id": "580330338",
    "owner_name_raw": "UTAH DEPARTMENT OF TRANSPORTATION",
    "owner_class": "STATE",
    "epsg": "EPSG:4326"
  },
  "geometry": {
    "type": "Polygon",
    "coordinates": [
      [
        [
          -111.93545937737,
          40.3880357647361
        ],
        [
          -111.935462229521,
          40.387186901993
        ],
        [
          -111.936007849157,
          40.3870976439105
        ],
        [
          -111.936021610449,
          40.3871723757528
        ],
        [
          -111.935592504102,
          40.3872425717441
        ],
        [
          -111.935551689147,
          40.3872768421353
        ],
        [
          -111.935549109186,
          40.3880450503266
        ],
        [
          -111.935459418693,
          40.3880357421567
        ],
        [
          -111.93545937737,
          40.3880357647361
        ]
      ]
    ]
  }
}