{
  "type": "Feature",
  "properties": {
    "parcel_id": "580360187",
    "owner_name_raw": "UTAH COUNTY",
    "owner_class": "UNCLASSIFIED",
    "epsg": "EPSG:4326"
  },
  "geometry": {
    "type": "Polygon",
    "coordinates": [
      [
        [
          -111.896895655335,
          40.3634056938987
        ],
        [
          -111.896898419452,
          40.3637220306677
        ],
        [
          -111.896862288392,
          40.3636789509238
        ],
        [
          -111.896823014867,
          40.363637498569
        ],
        [
          -111.896717937131,
          40.3635322364505
        ],
        [
          -111.896808032331,
          40.36346997307
        ],
        [
          -111.896895655335,
          40.3634056938987
        ]
      ]
    ]
  }
}