{
  "type": "Feature",
  "properties": {
    "parcel_id": "580340779",
    "owner_name_raw": "EDGE HOMES UTAH LLC",
    "owner_class": "UNCLASSIFIED",
    "epsg": "EPSG:4326"
  },
  "geometry": {
    "type": "Polygon",
    "coordinates": [
      [
        [
          -111.951583760326,
          40.3738882390264
        ],
        [
          -111.951569299247,
          40.3738884655518
        ],
        [
          -111.951561047322,
          40.3735735103339
        ],
        [
          -111.951575576674,
          40.3735757482236
        ],
        [
          -111.951583760326,
          40.3738882390264
        ]
      ]
    ]
  }
}