{
  "type": "Feature",
  "properties": {
    "parcel_id": "580350137",
    "owner_name_raw": "UTAH DEPARTMENT OF TRANSPORTATION",
    "owner_class": "STATE",
    "epsg": "EPSG:4326"
  },
  "geometry": {
    "type": "Polygon",
    "coordinates": [
      [
        [
          -111.91576900074,
          40.3729932791342
        ],
        [
          -111.911900451783,
          40.3730013883032
        ],
        [
          -111.91190045358,
          40.373002019982
        ],
        [
          -111.91089048579,
          40.3730047451663
        ],
        [
          -111.910881835913,
          40.372997334061
        ],
        [
          -111.911574047128,
          40.3729963150254
        ],
        [
          -111.911696509061,
          40.3729961350346
        ],
        [
          -111.911696496484,
          40.3729954205462
        ],
        [
          -111.911697609497,
          40.37299541644
        ],
        [
          -111.911697622972,
          40.3729975024175
        ],
        [
          -111.915756633633,
          40.3729831428426
        ],
        [
          -111.915769014215,
          40.3729931867435
        ],
        [
          -111.91576900074,
          40.3729932791342
        ]
      ]
    ]
  }
}