{
  "type": "Feature",
  "properties": {
    "parcel_id": "580330439",
    "owner_name_raw": "UTAH DEPARTMENT OF TRANSPORTATION",
    "owner_class": "STATE",
    "epsg": "EPSG:4326"
  },
  "geometry": {
    "type": "Polygon",
    "coordinates": [
      [
        [
          -111.933775886019,
          40.3858100126043
        ],
        [
          -111.933799079621,
          40.3862254989804
        ],
        [
          -111.933606286788,
          40.3871596025117
        ],
        [
          -111.933587241606,
          40.3871620335878
        ],
        [
          -111.9337803749,
          40.3862621886813
        ],
        [
          -111.93375849733,
          40.3858043983683
        ],
        [
          -111.933775886019,
          40.3858100126043
        ]
      ]
    ]
  }
}