{
  "type": "Feature",
  "properties": {
    "parcel_id": "580330431",
    "owner_name_raw": "UTAH DEPARTMENT OF TRANSPORTATION",
    "owner_class": "STATE",
    "epsg": "EPSG:4326"
  },
  "geometry": {
    "type": "Polygon",
    "coordinates": [
      [
        [
          -111.933666733525,
          40.3838780966146
        ],
        [
          -111.93374901651,
          40.3855999187483
        ],
        [
          -111.933348406521,
          40.3855991250208
        ],
        [
          -111.933349827656,
          40.3856875927313
        ],
        [
          -111.933120408018,
          40.3855982601079
        ],
        [
          -111.93289359203,
          40.3855051497796
        ],
        [
          -111.932669486882,
          40.3854083057342
        ],
        [
          -111.932448198487,
          40.3853077737237
        ],
        [
          -111.932426726955,
          40.3839363275663
        ],
        [
          -111.932426324509,
          40.3838833374023
        ],
        [
          -111.933666722745,
          40.383878069244
        ],
        [
          -111.933666733525,
          40.3838780966146
        ]
      ]
    ]
  }
}