{
  "type": "Feature",
  "properties": {
    "parcel_id": "580320128",
    "owner_name_raw": "UTAH DEPARTMENT OF TRANSPORTATION",
    "owner_class": "STATE",
    "epsg": "EPSG:4326"
  },
  "geometry": {
    "type": "Polygon",
    "coordinates": [
      [
        [
          -111.916300416214,
          40.3806645137392
        ],
        [
          -111.916296866072,
          40.381018515873
        ],
        [
          -111.916220538917,
          40.3810181696201
        ],
        [
          -111.916221434538,
          40.3806641551671
        ],
        [
          -111.916300416214,
          40.3806645137392
        ]
      ]
    ]
  }
}