{
  "type": "Feature",
  "properties": {
    "parcel_id": "580490109",
    "owner_name_raw": "UTAH DEPARTMENT OF TRANSPORTATION",
    "owner_class": "STATE",
    "epsg": "EPSG:4326"
  },
  "geometry": {
    "type": "Polygon",
    "coordinates": [
      [
        [
          -112.039933645238,
          40.3330214511812
        ],
        [
          -112.039941456707,
          40.3331165582044
        ],
        [
          -112.039946783069,
          40.3332117647817
        ],
        [
          -112.039949622214,
          40.3333070331835
        ],
        [
          -112.039949973016,
          40.3334023256556
        ],
        [
          -112.039886591483,
          40.3401617887037
        ],
        [
          -112.039806443793,
          40.3474430128758
        ],
        [
          -112.039699712259,
          40.3547328576538
        ],
        [
          -112.039638574718,
          40.3589350594247
        ],
        [
          -112.039636073314,
          40.359029777985
        ],
        [
          -112.039631290036,
          40.359124445448
        ],
        [
          -112.039624226496,
          40.3592190298968
        ],
        [
          -112.039614885076,
          40.3593134994428
        ],
        [
          -112.039603268924,
          40.3594078222362
        ],
        [
          -112.039589381958,
          40.3595019664766
        ],
        [
          -112.039573228858,
          40.3595959004242
        ],
        [
          -112.039554815073,
          40.3596895924101
        ],
        [
          -112.039534146809,
          40.3597830108473
        ],
        [
          -112.039511231034,
          40.3598761242408
        ],
        [
          -112.039486075476,
          40.3599689011989
        ],
        [
          -112.039458688614,
          40.3600613104433
        ],
        [
          -112.039429079684,
          40.3601533208198
        ],
        [
          -112.039397258666,
          40.3602449013089
        ],
        [
          -112.03936323629,
          40.3603360210359
        ],
        [
          -112.039327024026,
          40.3604266492819
        ],
        [
          -112.039288634084,
          40.3605167554935
        ],
        [
          -112.039248079405,
          40.3606063092938
        ],
        [
          -112.039205373665,
          40.3606952804918
        ],
        [
          -112.039160531259,
          40.3607836390934
        ],
        [
          -112.039113567309,
          40.3608713553108
        ],
        [
          -112.039064497646,
          40.3609583995733
        ],
        [
          -112.039013338815,
          40.3610447425365
        ],
        [
          -112.038960108064,
          40.3611303550926
        ],
        [
          -112.03890482334,
          40.3612152083802
        ],
        [
          -112.038847503282,
          40.361299273794
        ],
        [
          -112.038788167216,
          40.3613825229943
        ],
        [
          -112.038726835146,
          40.3614649279168
        ],
        [
          -112.038663527751,
          40.3615464607819
        ],
        [
          -112.038598266375,
          40.3616270941039
        ],
        [
          -112.03853107302,
          40.3617068007006
        ],
        [
          -112.038461970342,
          40.3617855537023
        ],
        [
          -112.038478041855,
          40.3616852595784
        ],
        [
          -112.038492174841,
          40.3615847959692
        ],
        [
          -112.03850436624,
          40.3614841846273
        ],
        [
          -112.038514613412,
          40.361383447337
        ],
        [
          -112.038522914138,
          40.3612826059103
        ],
        [
          -112.038529266621,
          40.3611816821817
        ],
        [
          -112.038533669485,
          40.3610806980037
        ],
        [
          -112.038536121777,
          40.3609796752419
        ],
        [
          -112.038536894328,
          40.3609268504685
        ],
        [
          -112.038545397289,
          40.3608171461372
        ],
        [
          -112.038551839154,
          40.360707360145
        ],
        [
          -112.038556218605,
          40.360597514974
        ],
        [
          -112.038558534743,
          40.3604876331181
        ],
        [
          -112.038618954531,
          40.3553150984628
        ],
        [
          -112.038627598121,
          40.3547238707328
        ],
        [
          -112.038734661133,
          40.3474350717908
        ],
        [
          -112.03881628206,
          40.3401559967485
        ],
        [
          -112.038844546652,
          40.3371709496925
        ],
        [
          -112.038849952305,
          40.3369079963244
        ],
        [
          -112.038861199602,
          40.3366451494304
        ],
        [
          -112.038878285315,
          40.3363824844095
        ],
        [
          -112.038901204543,
          40.3361200766097
        ],
        [
          -112.038929950713,
          40.3358580013059
        ],
        [
          -112.038964515578,
          40.3355963336785
        ],
        [
          -112.039004889223,
          40.3353351487921
        ],
        [
          -112.039051060068,
          40.3350745215732
        ],
        [
          -112.039103014868,
          40.3348145267896
        ],
        [
          -112.03916073872,
          40.3345552390283
        ],
        [
          -112.039224215065,
          40.3342967326745
        ],
        [
          -112.039293425697,
          40.33403908189
        ],
        [
          -112.039368350761,
          40.333782360592
        ],
        [
          -112.039448968766,
          40.3335266424317
        ],
        [
          -112.039535256586,
          40.3332720007738
        ],
        [
          -112.03962718947,
          40.3330185086744
        ],
        [
          -112.039933666797,
          40.3330214135182
        ],
        [
          -112.039933645238,
          40.3330214511812
        ]
      ]
    ]
  }
}