{
  "type": "Feature",
  "properties": {
    "parcel_id": "580420010",
    "owner_name_raw": "UNITED STATES OF AMERICA",
    "owner_class": "UNCLASSIFIED",
    "epsg": "EPSG:4326"
  },
  "geometry": {
    "type": "Polygon",
    "coordinates": [
      [
        [
          -112.040022076292,
          40.4151500711245
        ],
        [
          -112.021065635826,
          40.415236015916
        ],
        [
          -112.020994332948,
          40.4058796065385
        ],
        [
          -112.039948179979,
          40.4057936730546
        ],
        [
          -112.040022076292,
          40.4151500711245
        ]
      ]
    ]
  }
}