{
  "type": "Feature",
  "properties": {
    "parcel_id": "580420001",
    "owner_name_raw": "UTAH STATE ARMORY BOARD",
    "owner_class": "UNCLASSIFIED",
    "epsg": "EPSG:4326"
  },
  "geometry": {
    "type": "Polygon",
    "coordinates": [
      [
        [
          -112.020716514574,
          40.4152704697199
        ],
        [
          -112.039672963125,
          40.41518458174
        ],
        [
          -112.039713485229,
          40.4203173671147
        ],
        [
          -112.027864820718,
          40.4203714112116
        ],
        [
          -112.027855497104,
          40.419163980618
        ],
        [
          -112.024300956949,
          40.4191799594128
        ],
        [
          -112.024310217681,
          40.4203873904036
        ],
        [
          -112.020755612848,
          40.4204032608526
        ],
        [
          -112.020716514574,
          40.4152704697199
        ]
      ]
    ]
  }
}