{
  "type": "Feature",
  "properties": {
    "parcel_id": "580480005",
    "owner_name_raw": "STATE OF UTAH",
    "owner_class": "STATE",
    "epsg": "EPSG:4326"
  },
  "geometry": {
    "type": "Polygon",
    "coordinates": [
      [
        [
          -112.039314688939,
          40.3620304616073
        ],
        [
          -112.039310173108,
          40.3614574167706
        ],
        [
          -112.04005929619,
          40.3614539587118
        ],
        [
          -112.040063820105,
          40.3620270042624
        ],
        [
          -112.039314688939,
          40.3620304616073
        ]
      ]
    ]
  }
}