{
  "type": "Feature",
  "properties": {
    "parcel_id": "580400192",
    "owner_name_raw": "STATE OF UTAH",
    "owner_class": "STATE",
    "epsg": "EPSG:4326"
  },
  "geometry": {
    "type": "Polygon",
    "coordinates": [
      [
        [
          -111.98796516821,
          40.3475524353046
        ],
        [
          -111.983199568797,
          40.3475292974044
        ],
        [
          -111.983266445675,
          40.3438592388223
        ],
        [
          -111.987954417173,
          40.3438502511369
        ],
        [
          -111.98796516821,
          40.3475524353046
        ]
      ]
    ]
  }
}