{
  "type": "Feature",
  "properties": {
    "parcel_id": "580550026",
    "owner_name_raw": "UTAH STATE DEPT OF NATURAL RESOURCES",
    "owner_class": "UNCLASSIFIED",
    "epsg": "EPSG:4326"
  },
  "geometry": {
    "type": "Polygon",
    "coordinates": [
      [
        [
          -112.154814247088,
          40.4103822859289
        ],
        [
          -112.164401127987,
          40.4104131909125
        ],
        [
          -112.174014046555,
          40.4104433927348
        ],
        [
          -112.173979983338,
          40.4141122869663
        ],
        [
          -112.164330394642,
          40.414031510101
        ],
        [
          -112.154729869231,
          40.4139503535411
        ],
        [
          -112.154814247088,
          40.4103822859289
        ]
      ]
    ]
  }
}