{
  "type": "Feature",
  "properties": {
    "parcel_id": "580630002",
    "owner_name_raw": "UNITED STATES OF AMERICA",
    "owner_class": "UNCLASSIFIED",
    "epsg": "EPSG:4326"
  },
  "geometry": {
    "type": "Polygon",
    "coordinates": [
      [
        [
          -112.17344301897,
          40.3741267999623
        ],
        [
          -112.173371266036,
          40.3778112313102
        ],
        [
          -112.168642132834,
          40.3777301275718
        ],
        [
          -112.168700561955,
          40.3740596097219
        ],
        [
          -112.17344301897,
          40.3741267999623
        ]
      ]
    ]
  }
}