{
  "type": "Feature",
  "properties": {
    "parcel_id": "580600022",
    "owner_name_raw": "UNITED STATES OF AMERICA",
    "owner_class": "UNCLASSIFIED",
    "epsg": "EPSG:4326"
  },
  "geometry": {
    "type": "Polygon",
    "coordinates": [
      [
        [
          -112.145361219658,
          40.392365466409
        ],
        [
          -112.135842265767,
          40.3922775397621
        ],
        [
          -112.135842174139,
          40.392277508974
        ],
        [
          -112.135820596605,
          40.3814832801464
        ],
        [
          -112.140555529331,
          40.3815012974898
        ],
        [
          -112.145290467447,
          40.3815191211745
        ],
        [
          -112.145237321319,
          40.3779151688561
        ],
        [
          -112.149978845882,
          40.3779183790286
        ],
        [
          -112.150025389394,
          40.3815367642022
        ],
        [
          -112.154760330204,
          40.38155420536
        ],
        [
          -112.154840253315,
          40.3888198182211
        ],
        [
          -112.145337647864,
          40.3887500364556
        ],
        [
          -112.145361219658,
          40.392365466409
        ]
      ]
    ]
  }
}