{
  "type": "Feature",
  "properties": {
    "parcel_id": "590010081",
    "owner_name_raw": "State",
    "owner_class": "STATE",
    "epsg": "EPSG:4326"
  },
  "geometry": {
    "type": "Polygon",
    "coordinates": [
      [
        [
          -111.897180964761,
          40.3279441117372
        ],
        [
          -111.897149715067,
          40.3279162102587
        ],
        [
          -111.897335528889,
          40.327808985801
        ],
        [
          -111.897458291757,
          40.3279431687219
        ],
        [
          -111.897180964761,
          40.3279441117372
        ]
      ]
    ]
  }
}