{
  "type": "Feature",
  "properties": {
    "parcel_id": "590020155",
    "owner_name_raw": "UTAH DEPARTMENT OF TRANSPORTATION",
    "owner_class": "STATE",
    "epsg": "EPSG:4326"
  },
  "geometry": {
    "type": "Polygon",
    "coordinates": [
      [
        [
          -111.90574126892,
          40.3262937039041
        ],
        [
          -111.905910112668,
          40.3261911859041
        ],
        [
          -111.906474991285,
          40.3268047479282
        ],
        [
          -111.906573420762,
          40.3269140695709
        ],
        [
          -111.906668740028,
          40.3270249813041
        ],
        [
          -111.906760904892,
          40.327137431701
        ],
        [
          -111.906849872626,
          40.3272513686212
        ],
        [
          -111.907298987149,
          40.3278404135353
        ],
        [
          -111.907134960168,
          40.3279115095618
        ],
        [
          -111.906702972924,
          40.327339256845
        ],
        [
          -111.906625605843,
          40.3272400573131
        ],
        [
          -111.906544396182,
          40.3271426590157
        ],
        [
          -111.906459416048,
          40.3270471484423
        ],
        [
          -111.906370740898,
          40.3269536104068
        ],
        [
          -111.90574126892,
          40.3262937039041
        ]
      ]
    ]
  }
}