{
  "type": "Feature",
  "properties": {
    "parcel_id": "590010085",
    "owner_name_raw": "State",
    "owner_class": "STATE",
    "epsg": "EPSG:4326"
  },
  "geometry": {
    "type": "Polygon",
    "coordinates": [
      [
        [
          -111.897547019256,
          40.3280408299705
        ],
        [
          -111.897372886228,
          40.3281259305878
        ],
        [
          -111.897181153407,
          40.3279443199264
        ],
        [
          -111.897457860566,
          40.3279433796505
        ],
        [
          -111.897547019256,
          40.3280408299705
        ]
      ]
    ]
  }
}