{
  "type": "Feature",
  "properties": {
    "parcel_id": "590130112",
    "owner_name_raw": "UTAH DEPARTMENT OF TRANSPORTATION",
    "owner_class": "STATE",
    "epsg": "EPSG:4326"
  },
  "geometry": {
    "type": "Polygon",
    "coordinates": [
      [
        [
          -111.89592267478,
          40.2902699960274
        ],
        [
          -111.896206322322,
          40.2904218847863
        ],
        [
          -111.896163776609,
          40.2904463035999
        ],
        [
          -111.896122856256,
          40.2904722884048
        ],
        [
          -111.896030820262,
          40.2905152704463
        ],
        [
          -111.896030469919,
          40.2914095542425
        ],
        [
          -111.895922331623,
          40.291351644225
        ],
        [
          -111.89592267478,
          40.2902699960274
        ]
      ]
    ]
  }
}