{
  "type": "Feature",
  "properties": {
    "parcel_id": "590150002",
    "owner_name_raw": "UNITED STATES OF AMERICA",
    "owner_class": "UNCLASSIFIED",
    "epsg": "EPSG:4326"
  },
  "geometry": {
    "type": "Polygon",
    "coordinates": [
      [
        [
          -111.925463575269,
          40.3038902842959
        ],
        [
          -111.925465114083,
          40.2902730281049
        ],
        [
          -111.925465066472,
          40.2902730013815
        ],
        [
          -111.931301348109,
          40.2902746075261
        ],
        [
          -111.931301145989,
          40.2975082013196
        ],
        [
          -111.937138041175,
          40.297509492812
        ],
        [
          -111.937137627052,
          40.2902759279358
        ],
        [
          -111.948810150801,
          40.2902776814015
        ],
        [
          -111.948786405633,
          40.305336047453
        ],
        [
          -111.944399970728,
          40.3053347095259
        ],
        [
          -111.94439057435,
          40.3038979441432
        ],
        [
          -111.925463575269,
          40.3038902842959
        ]
      ]
    ]
  }
}