{
  "type": "Feature",
  "properties": {
    "parcel_id": "590110002",
    "owner_name_raw": "STATE OF UTAH",
    "owner_class": "STATE",
    "epsg": "EPSG:4326"
  },
  "geometry": {
    "type": "Polygon",
    "coordinates": [
      [
        [
          -111.925460013449,
          40.3039414307675
        ],
        [
          -111.925440241529,
          40.3111702303019
        ],
        [
          -111.925454666676,
          40.3183979493059
        ],
        [
          -111.920537610408,
          40.3183936691781
        ],
        [
          -111.920523704487,
          40.3111659490309
        ],
        [
          -111.920543994734,
          40.3039371517787
        ],
        [
          -111.925463577964,
          40.3039324322852
        ],
        [
          -111.925460013449,
          40.3039414307675
        ]
      ]
    ]
  }
}