{
  "type": "Feature",
  "properties": {
    "parcel_id": "590280003",
    "owner_name_raw": "UNITED STATES OF AMERICA",
    "owner_class": "UNCLASSIFIED",
    "epsg": "EPSG:4326"
  },
  "geometry": {
    "type": "Polygon",
    "coordinates": [
      [
        [
          -111.986618276494,
          40.268758180061
        ],
        [
          -111.986650157703,
          40.2724343922191
        ],
        [
          -111.977196540978,
          40.2724405210305
        ],
        [
          -111.977131406832,
          40.2614259394982
        ],
        [
          -111.986590879674,
          40.2614174652524
        ],
        [
          -111.986618276494,
          40.268758180061
        ]
      ]
    ]
  }
}