{
  "type": "Feature",
  "properties": {
    "parcel_id": "590860001",
    "owner_name_raw": "UTAH STATE DEPT OF NATURAL RESOURCES",
    "owner_class": "STATE",
    "epsg": "EPSG:4326"
  },
  "geometry": {
    "type": "Polygon",
    "coordinates": [
      [
        [
          -111.901664653075,
          40.2218447586869
        ],
        [
          -111.8969174296,
          40.221757303921
        ],
        [
          -111.896911696551,
          40.2253442874834
        ],
        [
          -111.892165119863,
          40.2252472644912
        ],
        [
          -111.892170180073,
          40.2216696384676
        ],
        [
          -111.892175239384,
          40.2180920087141
        ],
        [
          -111.896923125817,
          40.2181702978035
        ],
        [
          -111.901671023927,
          40.2182483954238
        ],
        [
          -111.911166852488,
          40.21840401283
        ],
        [
          -111.91115917279,
          40.2220190999494
        ],
        [
          -111.91115149489,
          40.2256341848458
        ],
        [
          -111.911136120223,
          40.2328643485172
        ],
        [
          -111.901645494705,
          40.2326338291381
        ],
        [
          -111.90165826785,
          40.2254411285805
        ],
        [
          -111.901664653075,
          40.2218447586869
        ]
      ]
    ]
  }
}