{
  "type": "Feature",
  "properties": {
    "parcel_id": "590840005",
    "owner_name_raw": "UNITED STATES OF AMERICA",
    "owner_class": "UNCLASSIFIED",
    "epsg": "EPSG:4326"
  },
  "geometry": {
    "type": "Polygon",
    "coordinates": [
      [
        [
          -111.986719937038,
          40.2324845188105
        ],
        [
          -111.991498423682,
          40.2324315489077
        ],
        [
          -111.991483468529,
          40.2360880702085
        ],
        [
          -111.991468509783,
          40.2397445860728
        ],
        [
          -111.991453884312,
          40.2433199765189
        ],
        [
          -111.991439246265,
          40.2468976135867
        ],
        [
          -111.986656795355,
          40.2468990658036
        ],
        [
          -111.986718171848,
          40.2433480418481
        ],
        [
          -111.986779540257,
          40.2397970140168
        ],
        [
          -111.986749736851,
          40.236140770489
        ],
        [
          -111.986719937038,
          40.2324845188105
        ]
      ]
    ]
  }
}