{
  "type": "Feature",
  "properties": {
    "parcel_id": "590910002",
    "owner_name_raw": "UNITED STATES OF AMERICA",
    "owner_class": "UNCLASSIFIED",
    "epsg": "EPSG:4326"
  },
  "geometry": {
    "type": "Polygon",
    "coordinates": [
      [
        [
          -111.972464304995,
          40.2105149586634
        ],
        [
          -111.967786677597,
          40.2105183393858
        ],
        [
          -111.967790893391,
          40.206899064983
        ],
        [
          -111.972462344871,
          40.20689027587
        ],
        [
          -111.972464304995,
          40.2105149586634
        ]
      ]
    ]
  }
}