{
  "type": "Feature",
  "properties": {
    "parcel_id": "590910001",
    "owner_name_raw": "UTAH STATE DEPT OF NATURAL RESOURCES",
    "owner_class": "STATE",
    "epsg": "EPSG:4326"
  },
  "geometry": {
    "type": "Polygon",
    "coordinates": [
      [
        [
          -111.967778217264,
          40.2177568729343
        ],
        [
          -111.967786653343,
          40.2105183352696
        ],
        [
          -111.967786585969,
          40.2105182941082
        ],
        [
          -111.972464238519,
          40.210514918188
        ],
        [
          -111.972462278395,
          40.2068902360785
        ],
        [
          -111.967790826915,
          40.2068990251915
        ],
        [
          -111.967795042709,
          40.2032797455179
        ],
        [
          -111.977125592935,
          40.2032511826303
        ],
        [
          -111.986456135077,
          40.2032218705128
        ],
        [
          -111.986483020755,
          40.2068627744668
        ],
        [
          -111.986509910026,
          40.2105036728944
        ],
        [
          -111.98656627392,
          40.217761872823
        ],
        [
          -111.977158178424,
          40.2177597484362
        ],
        [
          -111.967778217264,
          40.2177568729343
        ]
      ]
    ]
  }
}