{
  "type": "Feature",
  "properties": {
    "parcel_id": "590930003",
    "owner_name_raw": "UTAH STATE DEPT OF NATURAL RESOURCES",
    "owner_class": "STATE",
    "epsg": "EPSG:4326"
  },
  "geometry": {
    "type": "Polygon",
    "coordinates": [
      [
        [
          -111.991503869269,
          40.2032271610069
        ],
        [
          -111.986691991348,
          40.203270127131
        ],
        [
          -111.98668787886,
          40.1959084507405
        ],
        [
          -111.986628204674,
          40.1885813715942
        ],
        [
          -111.991435776971,
          40.1885616406697
        ],
        [
          -111.991483695803,
          40.1958826520765
        ],
        [
          -111.991503869269,
          40.2032271610069
        ]
      ]
    ]
  }
}