{
  "type": "Feature",
  "properties": {
    "parcel_id": "591000003",
    "owner_name_raw": "UTAH STATE DEPT OF NATURAL RESOURCES",
    "owner_class": "STATE",
    "epsg": "EPSG:4326"
  },
  "geometry": {
    "type": "Polygon",
    "coordinates": [
      [
        [
          -111.926022137831,
          40.1851102031514
        ],
        [
          -111.921268135668,
          40.1851230688471
        ],
        [
          -111.921274672708,
          40.18150311748
        ],
        [
          -111.926027924778,
          40.181489824895
        ],
        [
          -111.930781175051,
          40.1814763394523
        ],
        [
          -111.930786222685,
          40.1778555270494
        ],
        [
          -111.940303123925,
          40.1778270941553
        ],
        [
          -111.940307902064,
          40.1850703673131
        ],
        [
          -111.930776139994,
          40.1850971411771
        ],
        [
          -111.926022137831,
          40.1851102031514
        ]
      ]
    ]
  }
}