{
  "type": "Feature",
  "properties": {
    "parcel_id": "591480003",
    "owner_name_raw": "UNITED STATES OF AMERICA",
    "owner_class": "UNCLASSIFIED",
    "epsg": "EPSG:4326"
  },
  "geometry": {
    "type": "Polygon",
    "coordinates": [
      [
        [
          -112.139097920257,
          40.1956860307744
        ],
        [
          -112.139033402354,
          40.2030522842647
        ],
        [
          -112.129564170215,
          40.2030976854625
        ],
        [
          -112.124829550102,
          40.2031200968597
        ],
        [
          -112.124805436625,
          40.1957978028237
        ],
        [
          -112.124802632085,
          40.1921563849094
        ],
        [
          -112.124799827545,
          40.1885149622424
        ],
        [
          -112.129552353776,
          40.1885143034463
        ],
        [
          -112.139057418814,
          40.1885124032315
        ],
        [
          -112.139097920257,
          40.1956860307744
        ]
      ]
    ]
  }
}