{
  "type": "Feature",
  "properties": {
    "parcel_id": "591500037",
    "owner_name_raw": "UTAH STATE DEPT OF NATURAL RESOURCES",
    "owner_class": "STATE",
    "epsg": "EPSG:4326"
  },
  "geometry": {
    "type": "Polygon",
    "coordinates": [
      [
        [
          -111.948778831038,
          40.2830321345227
        ],
        [
          -111.948779337688,
          40.2794031938523
        ],
        [
          -111.953514883065,
          40.2794535330431
        ],
        [
          -111.953514111412,
          40.2831297586179
        ],
        [
          -111.953512650752,
          40.2902903421215
        ],
        [
          -111.948777826722,
          40.2902899693646
        ],
        [
          -111.948778831038,
          40.2830321345227
        ]
      ]
    ]
  }
}