{
  "type": "Feature",
  "properties": {
    "parcel_id": "591510034",
    "owner_name_raw": "UNITED STATES OF AMERICA",
    "owner_class": "UNCLASSIFIED",
    "epsg": "EPSG:4326"
  },
  "geometry": {
    "type": "Polygon",
    "coordinates": [
      [
        [
          -112.158551505469,
          40.2580929378068
        ],
        [
          -112.158546365309,
          40.254477852541
        ],
        [
          -112.15854054243,
          40.2470343570176
        ],
        [
          -112.168056158181,
          40.2470212548649
        ],
        [
          -112.177574543438,
          40.2470267154097
        ],
        [
          -112.177586846764,
          40.2542938074977
        ],
        [
          -112.177600618836,
          40.2616327246157
        ],
        [
          -112.168081027141,
          40.2616617050415
        ],
        [
          -112.158557595149,
          40.2616900959207
        ],
        [
          -112.158557552928,
          40.2616900979772
        ],
        [
          -112.158551505469,
          40.2580929378068
        ]
      ]
    ]
  }
}