{
  "type": "Feature",
  "properties": {
    "parcel_id": "591510014",
    "owner_name_raw": "UNITED STATES OF AMERICA",
    "owner_class": "UNCLASSIFIED",
    "epsg": "EPSG:4326"
  },
  "geometry": {
    "type": "Polygon",
    "coordinates": [
      [
        [
          -112.139475872938,
          40.2983616566216
        ],
        [
          -112.139509345063,
          40.2911425681957
        ],
        [
          -112.148978065163,
          40.2910586687275
        ],
        [
          -112.158526002298,
          40.2910524422486
        ],
        [
          -112.158503921709,
          40.2982517426634
        ],
        [
          -112.158481835729,
          40.3054510255054
        ],
        [
          -112.148962125457,
          40.3055162741409
        ],
        [
          -112.139442395422,
          40.3055807376346
        ],
        [
          -112.139475872938,
          40.2983616566216
        ]
      ]
    ]
  }
}