{
  "type": "Feature",
  "properties": {
    "parcel_id": "600720035",
    "owner_name_raw": "UNITED STATES OF AMERICA",
    "owner_class": "UNCLASSIFIED",
    "epsg": "EPSG:4326"
  },
  "geometry": {
    "type": "Polygon",
    "coordinates": [
      [
        [
          -112.157606097803,
          40.0791307215686
        ],
        [
          -112.157742980391,
          40.0864753318175
        ],
        [
          -112.148158878879,
          40.0865035170477
        ],
        [
          -112.138819376941,
          40.0865361022107
        ],
        [
          -112.138810880675,
          40.0791865172873
        ],
        [
          -112.138802387104,
          40.0718369192097
        ],
        [
          -112.146391576509,
          40.0717956805762
        ],
        [
          -112.155789672858,
          40.0717648956005
        ],
        [
          -112.157584251674,
          40.0717553273222
        ],
        [
          -112.1575842912,
          40.0717553142611
        ],
        [
          -112.157606097803,
          40.0791307215686
        ]
      ]
    ]
  }
}