{
  "type": "Feature",
  "properties": {
    "parcel_id": "610290008",
    "owner_name_raw": "JASPERSON CATTLE LC",
    "owner_class": "UNCLASSIFIED",
    "epsg": "EPSG:4326"
  },
  "geometry": {
    "type": "Polygon",
    "coordinates": [
      [
        [
          -111.918947583372,
          39.9904026867989
        ],
        [
          -111.91893793277,
          39.9888177579861
        ],
        [
          -111.919503095255,
          39.9888157207303
        ],
        [
          -111.919512759331,
          39.9904006489021
        ],
        [
          -111.918947583372,
          39.9904026867989
        ]
      ]
    ]
  }
}