{
  "type": "Feature",
  "properties": {
    "parcel_id": "610290005",
    "owner_name_raw": "Federal",
    "owner_class": "UNCLASSIFIED",
    "epsg": "EPSG:4326"
  },
  "geometry": {
    "type": "Polygon",
    "coordinates": [
      [
        [
          -111.919128417832,
          39.9923721408166
        ],
        [
          -111.91911655468,
          39.9904249446756
        ],
        [
          -111.919681730639,
          39.9904229054029
        ],
        [
          -111.919693609062,
          39.9923701022903
        ],
        [
          -111.919128417832,
          39.9923721408166
        ]
      ]
    ]
  }
}