{
  "type": "Feature",
  "properties": {
    "parcel_id": "610340004",
    "owner_name_raw": "UNITED STATES OF AMERICA",
    "owner_class": "UNCLASSIFIED",
    "epsg": "EPSG:4326"
  },
  "geometry": {
    "type": "Polygon",
    "coordinates": [
      [
        [
          -112.058265878753,
          40.054106009184
        ],
        [
          -112.058291313652,
          40.0572374364234
        ],
        [
          -112.058321032616,
          40.0608959376561
        ],
        [
          -112.053441869083,
          40.0609192375371
        ],
        [
          -112.053500219152,
          40.0681642759351
        ],
        [
          -112.050961738263,
          40.0681763175182
        ],
        [
          -112.052975647044,
          40.0638420109977
        ],
        [
          -112.053295462556,
          40.062011460105
        ],
        [
          -112.053047195161,
          40.0587567128222
        ],
        [
          -112.053173235982,
          40.0572366580917
        ],
        [
          -112.052891170373,
          40.0541316347993
        ],
        [
          -112.058265858091,
          40.054105979617
        ],
        [
          -112.058265878753,
          40.054106009184
        ]
      ]
    ]
  }
}