{
  "type": "Feature",
  "properties": {
    "parcel_id": "610370001",
    "owner_name_raw": "UNITED STATES OF AMERICA FOR THE BUREAU OF LAND MANAGEMENT (ET AL)",
    "owner_class": "UNCLASSIFIED",
    "epsg": "EPSG:4326"
  },
  "geometry": {
    "type": "Polygon",
    "coordinates": [
      [
        [
          -112.100928297222,
          40.0644485910558
        ],
        [
          -112.100910453087,
          40.0571550961589
        ],
        [
          -112.110416236777,
          40.0571678203851
        ],
        [
          -112.110408734048,
          40.0644481503686
        ],
        [
          -112.115149455518,
          40.064447637494
        ],
        [
          -112.119890178784,
          40.0644469293695
        ],
        [
          -112.119871636658,
          40.071747956743
        ],
        [
          -112.11040124659,
          40.0717315396376
        ],
        [
          -112.100952209476,
          40.0717435661542
        ],
        [
          -112.100928297222,
          40.0644485910558
        ]
      ]
    ]
  }
}