{
  "type": "Feature",
  "properties": {
    "parcel_id": "610300052",
    "owner_name_raw": "UNITED STATES OF AMERICA",
    "owner_class": "UNCLASSIFIED",
    "epsg": "EPSG:4326"
  },
  "geometry": {
    "type": "Polygon",
    "coordinates": [
      [
        [
          -111.903632323772,
          39.9890016352213
        ],
        [
          -111.900056312984,
          39.9890139922449
        ],
        [
          -111.900034962725,
          39.9853419176705
        ],
        [
          -111.903695494201,
          39.985329266768
        ],
        [
          -111.903632323772,
          39.9890016352213
        ]
      ]
    ]
  }
}