{
  "type": "Feature",
  "properties": {
    "parcel_id": "610380002",
    "owner_name_raw": "UNITED STATES OF AMERICA",
    "owner_class": "UNCLASSIFIED",
    "epsg": "EPSG:4326"
  },
  "geometry": {
    "type": "Polygon",
    "coordinates": [
      [
        [
          -112.100890187992,
          40.0498560194051
        ],
        [
          -112.100879856468,
          40.0462061741345
        ],
        [
          -112.105628909812,
          40.0462202750841
        ],
        [
          -112.105617337715,
          40.0425843994303
        ],
        [
          -112.110365145096,
          40.0426122988526
        ],
        [
          -112.119810465879,
          40.0426248126009
        ],
        [
          -112.119919228504,
          40.0498553455113
        ],
        [
          -112.11991667639,
          40.0571580307207
        ],
        [
          -112.110416674257,
          40.0571684577653
        ],
        [
          -112.100910854634,
          40.0571557294137
        ],
        [
          -112.100890187992,
          40.0498560194051
        ]
      ]
    ]
  }
}