{
  "type": "Feature",
  "properties": {
    "parcel_id": "610540001",
    "owner_name_raw": "UNITED STATES OF AMERICA",
    "owner_class": "UNCLASSIFIED",
    "epsg": "EPSG:4326"
  },
  "geometry": {
    "type": "Polygon",
    "coordinates": [
      [
        [
          -112.14132946478,
          40.0276958221786
        ],
        [
          -112.136615104372,
          40.0277128916763
        ],
        [
          -112.13661286577,
          40.0204803601127
        ],
        [
          -112.136610628965,
          40.0132478159015
        ],
        [
          -112.146036441934,
          40.0132089189114
        ],
        [
          -112.155462243225,
          40.0131692602646
        ],
        [
          -112.155467378893,
          40.0204063312156
        ],
        [
          -112.155472516358,
          40.0276433913135
        ],
        [
          -112.150758162239,
          40.0276610689019
        ],
        [
          -112.150753750613,
          40.0204251354671
        ],
        [
          -112.150751546147,
          40.0168071637199
        ],
        [
          -112.141325019916,
          40.0168453177052
        ],
        [
          -112.141326501238,
          40.0204621653941
        ],
        [
          -112.14132946478,
          40.0276958221786
        ]
      ]
    ]
  }
}