{
  "type": "Feature",
  "properties": {
    "parcel_id": "610510002",
    "owner_name_raw": "UNITED STATES OF AMERICA",
    "owner_class": "UNCLASSIFIED",
    "epsg": "EPSG:4326"
  },
  "geometry": {
    "type": "Polygon",
    "coordinates": [
      [
        [
          -112.155514729092,
          40.0348456831014
        ],
        [
          -112.155519854879,
          40.0420826865323
        ],
        [
          -112.146088282811,
          40.0421133239925
        ],
        [
          -112.141372494082,
          40.0421283569679
        ],
        [
          -112.13665670176,
          40.0421432008157
        ],
        [
          -112.136652216471,
          40.0276781728018
        ],
        [
          -112.141366573286,
          40.0276610661504
        ],
        [
          -112.141368058201,
          40.031277903161
        ],
        [
          -112.155512158114,
          40.0312271746887
        ],
        [
          -112.155514729092,
          40.0348456831014
        ]
      ]
    ]
  }
}