{
  "type": "Feature",
  "properties": {
    "parcel_id": "610850002",
    "owner_name_raw": "UNITED STATES OF AMERICA",
    "owner_class": "UNCLASSIFIED",
    "epsg": "EPSG:4326"
  },
  "geometry": {
    "type": "Polygon",
    "coordinates": [
      [
        [
          -111.885395465289,
          39.9526488742848
        ],
        [
          -111.880625947424,
          39.9526777890126
        ],
        [
          -111.880572594683,
          39.9493263240822
        ],
        [
          -111.885372955305,
          39.9492926809742
        ],
        [
          -111.885395465289,
          39.9526488742848
        ]
      ]
    ]
  }
}