{
  "type": "Feature",
  "properties": {
    "parcel_id": "610870020",
    "owner_name_raw": "UTAH POWER AND LIGHT",
    "owner_class": "UNCLASSIFIED",
    "epsg": "EPSG:4326"
  },
  "geometry": {
    "type": "Polygon",
    "coordinates": [
      [
        [
          -111.900514614577,
          39.9416638668562
        ],
        [
          -111.90087115771,
          39.941662078895
        ],
        [
          -111.900872755813,
          39.9419365269544
        ],
        [
          -111.900516210883,
          39.9419383149085
        ],
        [
          -111.900514614577,
          39.9416638668562
        ]
      ]
    ]
  }
}