{
  "type": "Feature",
  "properties": {
    "parcel_id": "611300007",
    "owner_name_raw": "UTAH DEPARTMENT OF TRANSPORTATION",
    "owner_class": "STATE",
    "epsg": "EPSG:4326"
  },
  "geometry": {
    "type": "Polygon",
    "coordinates": [
      [
        [
          -112.102088006982,
          39.9598009432041
        ],
        [
          -112.101681675623,
          39.9600691215296
        ],
        [
          -112.100614239012,
          39.9590402013627
        ],
        [
          -112.101932588557,
          39.9582302623747
        ],
        [
          -112.102189972055,
          39.9584783585889
        ],
        [
          -112.101289706529,
          39.9590314497385
        ],
        [
          -112.102088006982,
          39.9598009432041
        ]
      ]
    ]
  }
}