{
  "type": "Feature",
  "properties": {
    "parcel_id": "611470007",
    "owner_name_raw": "UNITED STATES OF AMERICA",
    "owner_class": "UNCLASSIFIED",
    "epsg": "EPSG:4326"
  },
  "geometry": {
    "type": "Polygon",
    "coordinates": [
      [
        [
          -111.97369077036,
          39.8566713900959
        ],
        [
          -111.973719915302,
          39.8490524859658
        ],
        [
          -111.983047092354,
          39.8489963972901
        ],
        [
          -111.987710673693,
          39.8489680718948
        ],
        [
          -111.987717421838,
          39.8508380939425
        ],
        [
          -111.987724169982,
          39.8527080864269
        ],
        [
          -111.983047029472,
          39.8527596356771
        ],
        [
          -111.983046956708,
          39.8565228546327
        ],
        [
          -111.983046812978,
          39.8640145665319
        ],
        [
          -111.973661549063,
          39.8642903042065
        ],
        [
          -111.97369077036,
          39.8566713900959
        ]
      ]
    ]
  }
}