{
  "type": "Feature",
  "properties": {
    "parcel_id": "611840003",
    "owner_name_raw": "UNITED STATES OF AMERICA",
    "owner_class": "UNCLASSIFIED",
    "epsg": "EPSG:4326"
  },
  "geometry": {
    "type": "Polygon",
    "coordinates": [
      [
        [
          -112.155766838581,
          40.0640339368548
        ],
        [
          -112.155737567876,
          40.0567875591653
        ],
        [
          -112.165168109577,
          40.0567142324992
        ],
        [
          -112.174598630616,
          40.0566401411671
        ],
        [
          -112.174641817123,
          40.0638699553448
        ],
        [
          -112.174656509968,
          40.0663294371814
        ],
        [
          -112.17447682625,
          40.066384676905
        ],
        [
          -112.174083376732,
          40.066345430726
        ],
        [
          -112.173733062517,
          40.0663296145514
        ],
        [
          -112.173410446956,
          40.0663146666612
        ],
        [
          -112.173187157217,
          40.0663190466003
        ],
        [
          -112.173134139547,
          40.0663780344734
        ],
        [
          -112.173172528153,
          40.066467371755
        ],
        [
          -112.173199715665,
          40.0665066831743
        ],
        [
          -112.173282927508,
          40.0667021667789
        ],
        [
          -112.173284740308,
          40.0667958512325
        ],
        [
          -112.173092421786,
          40.0670440584169
        ],
        [
          -112.172984802716,
          40.0671840154608
        ],
        [
          -112.172829119288,
          40.0674330379444
        ],
        [
          -112.172698481788,
          40.0675947525463
        ],
        [
          -112.172521972716,
          40.0678154080201
        ],
        [
          -112.172275015064,
          40.0681390653245
        ],
        [
          -112.172147926808,
          40.0683889408916
        ],
        [
          -112.172059180444,
          40.0687226660197
        ],
        [
          -112.171966936041,
          40.0689733760773
        ],
        [
          -112.172010632791,
          40.069239430498
        ],
        [
          -112.172155255264,
          40.0695028488896
        ],
        [
          -112.172287826837,
          40.0697217163217
        ],
        [
          -112.17248244325,
          40.0699810721187
        ],
        [
          -112.172682450453,
          40.0701521951893
        ],
        [
          -112.172942236047,
          40.0704080667795
        ],
        [
          -112.173458820336,
          40.0707046687116
        ],
        [
          -112.173602193252,
          40.0708410999422
        ],
        [
          -112.173967026038,
          40.0711495526898
        ],
        [
          -112.174039700643,
          40.0712730091526
        ],
        [
          -112.174096115741,
          40.0716579073385
        ],
        [
          -112.16524316292,
          40.0717060931853
        ],
        [
          -112.157592553904,
          40.0717471916381
        ],
        [
          -112.155797953528,
          40.07175675923
        ],
        [
          -112.155798040664,
          40.0717567427318
        ],
        [
          -112.155766838581,
          40.0640339368548
        ]
      ]
    ]
  }
}