{
  "type": "Feature",
  "properties": {
    "parcel_id": "611900014",
    "owner_name_raw": "UNITED STATES OF AMERICA",
    "owner_class": "UNCLASSIFIED",
    "epsg": "EPSG:4326"
  },
  "geometry": {
    "type": "Polygon",
    "coordinates": [
      [
        [
          -112.014368268683,
          40.0249163337034
        ],
        [
          -112.023796944583,
          40.0249068097513
        ],
        [
          -112.033374214407,
          40.0249020632525
        ],
        [
          -112.033373890115,
          40.032229906387
        ],
        [
          -112.033390957207,
          40.0395630220782
        ],
        [
          -112.023906427656,
          40.0395309687684
        ],
        [
          -112.014443702014,
          40.0394959278523
        ],
        [
          -112.014407522366,
          40.0322100571444
        ],
        [
          -112.014368268683,
          40.0249163337034
        ]
      ]
    ]
  }
}