{
  "type": "Feature",
  "properties": {
    "parcel_id": "650560006",
    "owner_name_raw": "UTAH DEPARTMENT OF TRANSPORTATION",
    "owner_class": "STATE",
    "epsg": "EPSG:4326"
  },
  "geometry": {
    "type": "Polygon",
    "coordinates": [
      [
        [
          -111.72429526287,
          40.3094395239228
        ],
        [
          -111.724240920185,
          40.3094397972461
        ],
        [
          -111.724259922248,
          40.3093827877293
        ],
        [
          -111.724279062652,
          40.3093826644253
        ],
        [
          -111.724278601816,
          40.3093267632259
        ],
        [
          -111.724325227973,
          40.3091868665124
        ],
        [
          -111.724348458406,
          40.3091867493734
        ],
        [
          -111.724348707239,
          40.3093983082587
        ],
        [
          -111.724347704376,
          40.3094062944312
        ],
        [
          -111.724344686239,
          40.3094139799233
        ],
        [
          -111.724339767809,
          40.3094210719399
        ],
        [
          -111.724333136465,
          40.3094273002955
        ],
        [
          -111.724325044842,
          40.3094324277076
        ],
        [
          -111.724315801209,
          40.3094362588369
        ],
        [
          -111.72430575772,
          40.3094386477284
        ],
        [
          -111.724295297006,
          40.3094395033722
        ],
        [
          -111.72429526287,
          40.3094395239228
        ]
      ]
    ]
  }
}