{
  "type": "Feature",
  "properties": {
    "parcel_id": "650840068",
    "owner_name_raw": "UTAH TRANSIT AUTHORITY",
    "owner_class": "UTA",
    "epsg": "EPSG:4326"
  },
  "geometry": {
    "type": "Polygon",
    "coordinates": [
      [
        [
          -111.88591277362,
          40.4157212031878
        ],
        [
          -111.885916196201,
          40.4157077322703
        ],
        [
          -111.886140998703,
          40.4158974807287
        ],
        [
          -111.886133537296,
          40.4159075278056
        ],
        [
          -111.88591277362,
          40.4157212031878
        ]
      ]
    ]
  }
}