{
  "type": "Feature",
  "properties": {
    "parcel_id": "651410704",
    "owner_name_raw": "UTAH TRANSIT AUTHORITY",
    "owner_class": "UTA",
    "epsg": "EPSG:4326"
  },
  "geometry": {
    "type": "Polygon",
    "coordinates": [
      [
        [
          -111.79956048588,
          40.3677721411491
        ],
        [
          -111.799443119192,
          40.3676551974761
        ],
        [
          -111.79951520001,
          40.3676553870632
        ],
        [
          -111.799540783131,
          40.3676797630356
        ],
        [
          -111.799635529343,
          40.3677723403179
        ],
        [
          -111.799634577128,
          40.3677723362114
        ],
        [
          -111.79956048588,
          40.3677721411491
        ]
      ]
    ]
  }
}