{
  "type": "Feature",
  "properties": {
    "parcel_id": "651620026",
    "owner_name_raw": "UTAH DEPARTMENT OF TRANSPORTATION",
    "owner_class": "STATE",
    "epsg": "EPSG:4326"
  },
  "geometry": {
    "type": "Polygon",
    "coordinates": [
      [
        [
          -111.863192396604,
          40.4109056188015
        ],
        [
          -111.863031381675,
          40.4108955340423
        ],
        [
          -111.863038711029,
          40.4108271568179
        ],
        [
          -111.863199725061,
          40.4108372415873
        ],
        [
          -111.863192396604,
          40.4109056188015
        ]
      ]
    ]
  }
}