{
  "type": "Feature",
  "properties": {
    "parcel_id": "653480001",
    "owner_name_raw": "UTAH CAPITAL GROUP LLC",
    "owner_class": "UNCLASSIFIED",
    "epsg": "EPSG:4326"
  },
  "geometry": {
    "type": "Polygon",
    "coordinates": [
      [
        [
          -111.792429361813,
          40.3640872765626
        ],
        [
          -111.792224596234,
          40.3642740828989
        ],
        [
          -111.791488662217,
          40.3638027713857
        ],
        [
          -111.792712226024,
          40.3627762945646
        ],
        [
          -111.793213888398,
          40.3631261845739
        ],
        [
          -111.793214193825,
          40.3635088247685
        ],
        [
          -111.793075100483,
          40.3635088904778
        ],
        [
          -111.792849624245,
          40.363551532396
        ],
        [
          -111.792306181228,
          40.3640074465267
        ],
        [
          -111.792429361813,
          40.3640872765626
        ]
      ]
    ]
  }
}