{
  "type": "Feature",
  "properties": {
    "parcel_id": "654520048",
    "owner_name_raw": "Federal",
    "owner_class": "UNCLASSIFIED",
    "epsg": "EPSG:4326"
  },
  "geometry": {
    "type": "Polygon",
    "coordinates": [
      [
        [
          -111.680222192062,
          40.3382980147021
        ],
        [
          -111.679796995184,
          40.3384853012706
        ],
        [
          -111.679557244716,
          40.3383818972652
        ],
        [
          -111.679462255061,
          40.3382882073409
        ],
        [
          -111.679681188869,
          40.3377437715948
        ],
        [
          -111.679704584062,
          40.3377481938099
        ],
        [
          -111.679728482269,
          40.3377505884136
        ],
        [
          -111.679752582027,
          40.3377509251991
        ],
        [
          -111.679776579326,
          40.3377491999181
        ],
        [
          -111.679800171454,
          40.3377454343342
        ],
        [
          -111.679823060807,
          40.3377396759479
        ],
        [
          -111.679844958647,
          40.3377319973981
        ],
        [
          -111.679865588742,
          40.3377224955453
        ],
        [
          -111.680339197628,
          40.3380811568578
        ],
        [
          -111.680222192062,
          40.3382980147021
        ]
      ]
    ]
  }
}