{
  "type": "Feature",
  "properties": {
    "parcel_id": "654670015",
    "owner_name_raw": "UTAH DEPARTMENT OF TRANSPORTATION",
    "owner_class": "STATE",
    "epsg": "EPSG:4326"
  },
  "geometry": {
    "type": "Polygon",
    "coordinates": [
      [
        [
          -111.918746479326,
          40.3730904707013
        ],
        [
          -111.918795905531,
          40.3730974889652
        ],
        [
          -111.918779310054,
          40.3731588150786
        ],
        [
          -111.918730302464,
          40.3731502467134
        ],
        [
          -111.918746479326,
          40.3730904707013
        ]
      ]
    ]
  }
}