{
  "type": "Feature",
  "properties": {
    "parcel_id": "657430239",
    "owner_name_raw": "RICHMOND AMERICAN HOMES OF UTAH INC",
    "owner_class": "UNCLASSIFIED",
    "epsg": "EPSG:4326"
  },
  "geometry": {
    "type": "Polygon",
    "coordinates": [
      [
        [
          -111.937615572106,
          40.3389844449623
        ],
        [
          -111.937862179414,
          40.3389835246971
        ],
        [
          -111.937880078573,
          40.3389858097531
        ],
        [
          -111.937895964817,
          40.3389924980307
        ],
        [
          -111.937908033136,
          40.3390028296005
        ],
        [
          -111.937914912318,
          40.3390156305789
        ],
        [
          -111.937956123783,
          40.3391620686423
        ],
        [
          -111.937993637076,
          40.339309082793
        ],
        [
          -111.937685390068,
          40.3393102372272
        ],
        [
          -111.937617645417,
          40.3393104905728
        ],
        [
          -111.937615572106,
          40.3389844449623
        ]
      ]
    ]
  }
}