{
  "type": "Feature",
  "properties": {
    "parcel_id": "657590312",
    "owner_name_raw": "RICHMOND AMERICAN HOMES OF UTAH INC",
    "owner_class": "UNCLASSIFIED",
    "epsg": "EPSG:4326"
  },
  "geometry": {
    "type": "Polygon",
    "coordinates": [
      [
        [
          -111.603401247778,
          40.0962304274339
        ],
        [
          -111.603758609276,
          40.0962285019593
        ],
        [
          -111.603762370522,
          40.0966401709028
        ],
        [
          -111.603405007227,
          40.0966420963657
        ],
        [
          -111.603401247778,
          40.0962304274339
        ]
      ]
    ]
  }
}