{
  "type": "Feature",
  "properties": {
    "parcel_id": "657590318",
    "owner_name_raw": "RICHMOND AMERICAN HOMES OF UTAH INC",
    "owner_class": "UNCLASSIFIED",
    "epsg": "EPSG:4326"
  },
  "geometry": {
    "type": "Polygon",
    "coordinates": [
      [
        [
          -111.602537338867,
          40.0960583164509
        ],
        [
          -111.603037613344,
          40.0960533075928
        ],
        [
          -111.603040653243,
          40.0962323721495
        ],
        [
          -111.603042609773,
          40.0963476332112
        ],
        [
          -111.602542332602,
          40.0963526420475
        ],
        [
          -111.602537338867,
          40.0960583164509
        ]
      ]
    ]
  }
}