{
  "type": "Feature",
  "properties": {
    "parcel_id": "660580004",
    "owner_name_raw": "UTAH DEPARTMENT OF TRANSPORTATION",
    "owner_class": "STATE",
    "epsg": "EPSG:4326"
  },
  "geometry": {
    "type": "Polygon",
    "coordinates": [
      [
        [
          -111.916347797854,
          40.3546923158693
        ],
        [
          -111.916164673588,
          40.3546931304977
        ],
        [
          -111.916168139289,
          40.3538389721549
        ],
        [
          -111.916198836519,
          40.3533451178744
        ],
        [
          -111.916203457452,
          40.3522062384167
        ],
        [
          -111.916215780541,
          40.3517871241001
        ],
        [
          -111.91629216429,
          40.3517884391998
        ],
        [
          -111.916328504737,
          40.3505524437082
        ],
        [
          -111.916252120988,
          40.3505511292691
        ],
        [
          -111.916270024412,
          40.3499422673516
        ],
        [
          -111.916387528542,
          40.3499425473571
        ],
        [
          -111.916347797854,
          40.3546923158693
        ]
      ]
    ]
  }
}