{
  "type": "Feature",
  "properties": {
    "parcel_id": "661020004",
    "owner_name_raw": "UTAH COUNTY",
    "owner_class": "UNCLASSIFIED",
    "epsg": "EPSG:4326"
  },
  "geometry": {
    "type": "Polygon",
    "coordinates": [
      [
        [
          -111.769140184136,
          40.1286903583234
        ],
        [
          -111.769042222854,
          40.1286896426249
        ],
        [
          -111.769059299828,
          40.1261852918976
        ],
        [
          -111.769145461738,
          40.1261850927036
        ],
        [
          -111.769143911246,
          40.1269212893602
        ],
        [
          -111.769142074191,
          40.1277940204172
        ],
        [
          -111.769140184136,
          40.1286903583234
        ]
      ]
    ]
  }
}