{
  "type": "Feature",
  "properties": {
    "parcel_id": "661700023",
    "owner_name_raw": "UTAH DEPARTMENT OF TRANSPORTATION",
    "owner_class": "STATE",
    "epsg": "EPSG:4326"
  },
  "geometry": {
    "type": "Polygon",
    "coordinates": [
      [
        [
          -111.916401298817,
          40.3905226246996
        ],
        [
          -111.9163957625,
          40.3905056641183
        ],
        [
          -111.916460876884,
          40.39044116885
        ],
        [
          -111.916415746615,
          40.3902792122987
        ],
        [
          -111.916373513552,
          40.3901168026866
        ],
        [
          -111.916334185513,
          40.3899539700747
        ],
        [
          -111.916297769777,
          40.3897907446023
        ],
        [
          -111.916290347897,
          40.3897168394494
        ],
        [
          -111.916234191513,
          40.3893717750144
        ],
        [
          -111.916215568428,
          40.3892359577882
        ],
        [
          -111.916199127487,
          40.3890999769746
        ],
        [
          -111.916184871149,
          40.3889638529111
        ],
        [
          -111.916172801545,
          40.3888276059569
        ],
        [
          -111.916156096515,
          40.3885761192834
        ],
        [
          -111.916145340945,
          40.388324443301
        ],
        [
          -111.916181805359,
          40.3883245760397
        ],
        [
          -111.916198028449,
          40.3885928736637
        ],
        [
          -111.916220198239,
          40.3888609232686
        ],
        [
          -111.916248308406,
          40.3891286483976
        ],
        [
          -111.91628235093,
          40.3893959726876
        ],
        [
          -111.916322316101,
          40.3896628198906
        ],
        [
          -111.91636819252,
          40.3899291138955
        ],
        [
          -111.916419967101,
          40.3901947787501
        ],
        [
          -111.916477625074,
          40.3904597386823
        ],
        [
          -111.916463744306,
          40.3905093587872
        ],
        [
          -111.916401279953,
          40.3905226944878
        ],
        [
          -111.916401298817,
          40.3905226246996
        ]
      ]
    ]
  }
}