{
  "type": "Feature",
  "properties": {
    "parcel_id": "661700028",
    "owner_name_raw": "UTAH DEPARTMENT OF TRANSPORTATION",
    "owner_class": "STATE",
    "epsg": "EPSG:4326"
  },
  "geometry": {
    "type": "Polygon",
    "coordinates": [
      [
        [
          -111.916178843614,
          40.3883221894798
        ],
        [
          -111.916132905567,
          40.3883220238985
        ],
        [
          -111.916129675225,
          40.3880252105945
        ],
        [
          -111.91613115475,
          40.3877566292016
        ],
        [
          -111.916013057731,
          40.3876655354094
        ],
        [
          -111.915062253885,
          40.3876622326464
        ],
        [
          -111.914950671449,
          40.3876561526062
        ],
        [
          -111.914950693907,
          40.3876529415293
        ],
        [
          -111.916037440703,
          40.3876572309479
        ],
        [
          -111.916164959253,
          40.3877851490994
        ],
        [
          -111.916168827765,
          40.3880536991754
        ],
        [
          -111.916178844512,
          40.388322155953
        ],
        [
          -111.916178843614,
          40.3883221894798
        ]
      ]
    ]
  }
}