{
  "type": "Feature",
  "properties": {
    "parcel_id": "661700021",
    "owner_name_raw": "UTAH DEPARTMENT OF TRANSPORTATION",
    "owner_class": "STATE",
    "epsg": "EPSG:4326"
  },
  "geometry": {
    "type": "Polygon",
    "coordinates": [
      [
        [
          -111.914477112869,
          40.3876272323809
        ],
        [
          -111.916012490894,
          40.3876214739244
        ],
        [
          -111.916048173774,
          40.3876573021075
        ],
        [
          -111.914865194054,
          40.3876526322587
        ],
        [
          -111.914477142513,
          40.3876314848529
        ],
        [
          -111.914477112869,
          40.3876272323809
        ]
      ]
    ]
  }
}