{
  "type": "Feature",
  "properties": {
    "parcel_id": "662540026",
    "owner_name_raw": "UTAH LIFESTYLE PROPERTY MANAGEMENT LLC",
    "owner_class": "UNCLASSIFIED",
    "epsg": "EPSG:4326"
  },
  "geometry": {
    "type": "Polygon",
    "coordinates": [
      [
        [
          -111.668797875521,
          40.0808226906863
        ],
        [
          -111.669028400291,
          40.0810743067823
        ],
        [
          -111.669000335125,
          40.0810870237919
        ],
        [
          -111.668931536751,
          40.0811543630051
        ],
        [
          -111.668907796074,
          40.0811973156722
        ],
        [
          -111.668559282982,
          40.0810628317791
        ],
        [
          -111.668572958077,
          40.0809864984869
        ],
        [
          -111.66858011132,
          40.08090964597
        ],
        [
          -111.6685814969,
          40.0809007494625
        ],
        [
          -111.668584756681,
          40.08089214418
        ],
        [
          -111.668589803708,
          40.0808840596654
        ],
        [
          -111.668596503354,
          40.0808767115705
        ],
        [
          -111.668604676909,
          40.0808702959033
        ],
        [
          -111.668614106346,
          40.0808649837998
        ],
        [
          -111.668624540138,
          40.0808609169586
        ],
        [
          -111.668635699968,
          40.0808582038614
        ],
        [
          -111.668717374825,
          40.080842016814
        ],
        [
          -111.668797875521,
          40.0808226906863
        ]
      ]
    ]
  }
}