{
  "type": "Feature",
  "properties": {
    "parcel_id": "662540035",
    "owner_name_raw": "UTAH LIFESTYLE PROPERTY MANAGEMENT LLC",
    "owner_class": "UNCLASSIFIED",
    "epsg": "EPSG:4326"
  },
  "geometry": {
    "type": "Polygon",
    "coordinates": [
      [
        [
          -111.671215757584,
          40.0811810121924
        ],
        [
          -111.671183906534,
          40.0811817470147
        ],
        [
          -111.671152391832,
          40.0811781390875
        ],
        [
          -111.67112221682,
          40.0811703032768
        ],
        [
          -111.671094342188,
          40.0811584890522
        ],
        [
          -111.671451297648,
          40.0808752937283
        ],
        [
          -111.671580992815,
          40.0810090494197
        ],
        [
          -111.671523565316,
          40.0811295599788
        ],
        [
          -111.671403307849,
          40.0812364983071
        ],
        [
          -111.671385040464,
          40.0812221785494
        ],
        [
          -111.671364623963,
          40.081209673138
        ],
        [
          -111.671342364063,
          40.0811991693304
        ],
        [
          -111.671318594086,
          40.0811908244122
        ],
        [
          -111.671293669964,
          40.0811847633414
        ],
        [
          -111.671267964912,
          40.0811810768775
        ],
        [
          -111.671241863839,
          40.081179820222
        ],
        [
          -111.671215757584,
          40.0811810121924
        ]
      ]
    ]
  }
}