{
  "type": "Feature",
  "properties": {
    "parcel_id": "662510061",
    "owner_name_raw": "TOWN OF VINEYARD",
    "owner_class": "UNCLASSIFIED",
    "epsg": "EPSG:4326"
  },
  "geometry": {
    "type": "Polygon",
    "coordinates": [
      [
        [
          -111.76186123061,
          40.2939637734656
        ],
        [
          -111.761786069468,
          40.2939637241328
        ],
        [
          -111.761654429448,
          40.2936428107436
        ],
        [
          -111.76165335686,
          40.293631396311
        ],
        [
          -111.761647489963,
          40.2935689591458
        ],
        [
          -111.761546609156,
          40.2933269175462
        ],
        [
          -111.761416790021,
          40.293015437535
        ],
        [
          -111.761285282952,
          40.2926999059264
        ],
        [
          -111.761258739532,
          40.2926362187967
        ],
        [
          -111.76109393461,
          40.2924290584311
        ],
        [
          -111.760898162963,
          40.2921829714636
        ],
        [
          -111.760702393114,
          40.2919368815443
        ],
        [
          -111.760506625959,
          40.291690794155
        ],
        [
          -111.760282889757,
          40.2914095501312
        ],
        [
          -111.76000928538,
          40.2910656098769
        ],
        [
          -111.760030680555,
          40.2910654940768
        ],
        [
          -111.760093000279,
          40.2910653529242
        ],
        [
          -111.76132446477,
          40.2926133423114
        ],
        [
          -111.761718424531,
          40.2935585806958
        ],
        [
          -111.761725375695,
          40.2936325686561
        ],
        [
          -111.76186123061,
          40.2939637734656
        ]
      ]
    ]
  }
}