{
  "type": "Feature",
  "properties": {
    "parcel_id": "666080313",
    "owner_name_raw": "UTAH DEPARTMENT OF TRANSPORTATION",
    "owner_class": "STATE",
    "epsg": "EPSG:4326"
  },
  "geometry": {
    "type": "Polygon",
    "coordinates": [
      [
        [
          -111.734595098881,
          40.0528591712268
        ],
        [
          -111.734340201021,
          40.0530407897359
        ],
        [
          -111.734161995031,
          40.0528871936532
        ],
        [
          -111.734173659885,
          40.0528776736751
        ],
        [
          -111.734184229139,
          40.0528674314726
        ],
        [
          -111.734193626798,
          40.0528565406901
        ],
        [
          -111.73420178529,
          40.052845079635
        ],
        [
          -111.734208645953,
          40.0528331307158
        ],
        [
          -111.734214159455,
          40.0528207798483
        ],
        [
          -111.734218286155,
          40.0528081158389
        ],
        [
          -111.734220996379,
          40.0527952297455
        ],
        [
          -111.734310744364,
          40.052795047527
        ],
        [
          -111.734595098881,
          40.0528591712268
        ]
      ]
    ]
  }
}