{
  "type": "Feature",
  "properties": {
    "parcel_id": "669560001",
    "owner_name_raw": "UTAH DEPARTMENT OF TRANSPORTATION",
    "owner_class": "STATE",
    "epsg": "EPSG:4326"
  },
  "geometry": {
    "type": "Polygon",
    "coordinates": [
      [
        [
          -111.886725316862,
          40.3757542349908
        ],
        [
          -111.88670828211,
          40.375343976123
        ],
        [
          -111.887569181664,
          40.3753447549156
        ],
        [
          -111.887572903384,
          40.3759877703311
        ],
        [
          -111.886723742116,
          40.3759825850454
        ],
        [
          -111.886725316862,
          40.3757542349908
        ]
      ]
    ]
  }
}