{
  "type": "Feature",
  "properties": {
    "parcel_id": "670790003",
    "owner_name_raw": "UTAH DEPARTMENT OF TRANSPORTATION (ET AL)",
    "owner_class": "STATE",
    "epsg": "EPSG:4326"
  },
  "geometry": {
    "type": "Polygon",
    "coordinates": [
      [
        [
          -111.995290567331,
          40.3802637165055
        ],
        [
          -111.995052650175,
          40.3803073736943
        ],
        [
          -111.994813229518,
          40.3803459676601
        ],
        [
          -111.994572491012,
          40.3803794684852
        ],
        [
          -111.99433062133,
          40.3804078501999
        ],
        [
          -111.994156565483,
          40.3804251915737
        ],
        [
          -111.993982095817,
          40.3804399235671
        ],
        [
          -111.993807279739,
          40.38045204049
        ],
        [
          -111.99363218479,
          40.3804615376623
        ],
        [
          -111.993251791386,
          40.3804793150898
        ],
        [
          -111.993159272099,
          40.3805303084089
        ],
        [
          -111.993154707226,
          40.3804800277098
        ],
        [
          -111.993148043881,
          40.3804298831197
        ],
        [
          -111.993139288816,
          40.3803799254465
        ],
        [
          -111.993128450901,
          40.3803302053091
        ],
        [
          -111.993100222242,
          40.3803342016288
        ],
        [
          -111.993137951484,
          40.3801117458589
        ],
        [
          -111.993354974042,
          40.3800778889721
        ],
        [
          -111.993571507991,
          40.3800422628952
        ],
        [
          -111.993787528476,
          40.3800048717145
        ],
        [
          -111.994003010704,
          40.3799657197187
        ],
        [
          -111.994217929943,
          40.3799248113985
        ],
        [
          -111.994432261523,
          40.3798821514459
        ],
        [
          -111.994645980846,
          40.3798377447542
        ],
        [
          -111.994859063381,
          40.3797915964167
        ],
        [
          -111.995046511238,
          40.3797501999479
        ],
        [
          -111.995290567331,
          40.3802637165055
        ]
      ]
    ]
  }
}