{
  "type": "Feature",
  "properties": {
    "parcel_id": "670860332",
    "owner_name_raw": "MALLARD BAY HOA INC",
    "owner_class": "STATE",
    "epsg": "EPSG:4326"
  },
  "geometry": {
    "type": "Polygon",
    "coordinates": [
      [
        [
          -111.883016133528,
          40.3079720384314
        ],
        [
          -111.882783311766,
          40.3080656060321
        ],
        [
          -111.882730676878,
          40.3080193193369
        ],
        [
          -111.88267599402,
          40.3079744344682
        ],
        [
          -111.882619327356,
          40.3079310040949
        ],
        [
          -111.882560743375,
          40.3078890791788
        ],
        [
          -111.8823297946,
          40.3077153570964
        ],
        [
          -111.88219826148,
          40.3075312644287
        ],
        [
          -111.882157223743,
          40.3072124308782
        ],
        [
          -111.883327656693,
          40.307208805628
        ],
        [
          -111.883321337954,
          40.3072547228777
        ],
        [
          -111.883317556934,
          40.3073008021134
        ],
        [
          -111.882664665877,
          40.3073996564249
        ],
        [
          -111.882730282419,
          40.3076239119473
        ],
        [
          -111.882749280722,
          40.3076723736703
        ],
        [
          -111.8827739091,
          40.3077193385392
        ],
        [
          -111.882982505096,
          40.3079589350659
        ],
        [
          -111.883016133528,
          40.3079720384314
        ]
      ]
    ]
  }
}