{
  "type": "Feature",
  "properties": {
    "parcel_id": "672270458",
    "owner_name_raw": "WOODSIDE HOMES OF UTAH LLC",
    "owner_class": "UNCLASSIFIED",
    "epsg": "EPSG:4326"
  },
  "geometry": {
    "type": "Polygon",
    "coordinates": [
      [
        [
          -111.818821315091,
          40.3664617085585
        ],
        [
          -111.818833996608,
          40.3662999459293
        ],
        [
          -111.818836494823,
          40.3662995667474
        ],
        [
          -111.818902126636,
          40.3663478864114
        ],
        [
          -111.818892945854,
          40.3664649959343
        ],
        [
          -111.818821315091,
          40.3664617085585
        ]
      ]
    ]
  }
}