{
  "type": "Feature",
  "properties": {
    "parcel_id": "672400909",
    "owner_name_raw": "LENNAR HOMES OF UTAH LLC",
    "owner_class": "UNCLASSIFIED",
    "epsg": "EPSG:4326"
  },
  "geometry": {
    "type": "Polygon",
    "coordinates": [
      [
        [
          -111.628607002673,
          40.1297034041276
        ],
        [
          -111.628699883222,
          40.1297100746394
        ],
        [
          -111.628792905428,
          40.1297154691671
        ],
        [
          -111.628774329166,
          40.1299957606007
        ],
        [
          -111.628559872562,
          40.1299959975597
        ],
        [
          -111.628561882991,
          40.1298886708635
        ],
        [
          -111.628607002673,
          40.1297034041276
        ]
      ]
    ]
  }
}