{
  "type": "Feature",
  "properties": {
    "parcel_id": "672400913",
    "owner_name_raw": "LENNAR HOMES OF UTAH LLC",
    "owner_class": "UNCLASSIFIED",
    "epsg": "EPSG:4326"
  },
  "geometry": {
    "type": "Polygon",
    "coordinates": [
      [
        [
          -111.629431001232,
          40.1297239859876
        ],
        [
          -111.629648243512,
          40.1297237263619
        ],
        [
          -111.62964877801,
          40.1299947736151
        ],
        [
          -111.629431533933,
          40.1299950146951
        ],
        [
          -111.629431001232,
          40.1297239859876
        ]
      ]
    ]
  }
}