{
  "type": "Feature",
  "properties": {
    "parcel_id": "680160005",
    "owner_name_raw": "ETERNA UTAH PROPERTY COMPANY",
    "owner_class": "UNCLASSIFIED",
    "epsg": "EPSG:4326"
  },
  "geometry": {
    "type": "Polygon",
    "coordinates": [
      [
        [
          -111.598998388975,
          40.1237837466531
        ],
        [
          -111.59880541019,
          40.1237844514129
        ],
        [
          -111.598804406772,
          40.123622587279
        ],
        [
          -111.59899738376,
          40.1236218818307
        ],
        [
          -111.598998388975,
          40.1237837466531
        ]
      ]
    ]
  }
}