{
  "type": "Feature",
  "properties": {
    "parcel_id": "680190002",
    "owner_name_raw": "HABITAT FOR HUMANITY OF UTAH COUNTY",
    "owner_class": "UNCLASSIFIED",
    "epsg": "EPSG:4326"
  },
  "geometry": {
    "type": "Polygon",
    "coordinates": [
      [
        [
          -111.694819167744,
          40.2906933556454
        ],
        [
          -111.695026314757,
          40.2906520257618
        ],
        [
          -111.695134581511,
          40.2906521696562
        ],
        [
          -111.695136865927,
          40.2908147913678
        ],
        [
          -111.695503141408,
          40.2908184222942
        ],
        [
          -111.695520791506,
          40.2921194044413
        ],
        [
          -111.695444849729,
          40.2921179579915
        ],
        [
          -111.694871662594,
          40.2908121848298
        ],
        [
          -111.694819167744,
          40.2906933556454
        ]
      ]
    ]
  }
}