{
  "type": "Feature",
  "properties": {
    "parcel_id": "680250601",
    "owner_name_raw": "RICHMOND AMERICAN HOMES OF UTAH INC",
    "owner_class": "UNCLASSIFIED",
    "epsg": "EPSG:4326"
  },
  "geometry": {
    "type": "Polygon",
    "coordinates": [
      [
        [
          -111.885116557258,
          40.3031192186949
        ],
        [
          -111.884664701077,
          40.3032086215412
        ],
        [
          -111.884657603488,
          40.3031862186031
        ],
        [
          -111.884613018303,
          40.3030446889433
        ],
        [
          -111.884611563081,
          40.3030368348551
        ],
        [
          -111.884612108743,
          40.303028913668
        ],
        [
          -111.884614635054,
          40.3030212190981
        ],
        [
          -111.884619048342,
          40.3030140364588
        ],
        [
          -111.88462518496,
          40.303007632081
        ],
        [
          -111.884632817366,
          40.3030022434381
        ],
        [
          -111.88464166255,
          40.3029980703401
        ],
        [
          -111.884651392536,
          40.302995267525
        ],
        [
          -111.885049810636,
          40.3029136579473
        ],
        [
          -111.885116557258,
          40.3031192186949
        ]
      ]
    ]
  }
}