{
  "type": "Feature",
  "properties": {
    "parcel_id": "682100612",
    "owner_name_raw": "EDGE HOMES UTAH LLC",
    "owner_class": "UNCLASSIFIED",
    "epsg": "EPSG:4326"
  },
  "geometry": {
    "type": "Polygon",
    "coordinates": [
      [
        [
          -111.955227327118,
          40.3786533519154
        ],
        [
          -111.955325717795,
          40.3785386073664
        ],
        [
          -111.955625793727,
          40.3786891006975
        ],
        [
          -111.955527403949,
          40.3788038443058
        ],
        [
          -111.955227327118,
          40.3786533519154
        ]
      ]
    ]
  }
}