{
  "type": "Feature",
  "properties": {
    "parcel_id": "682100633",
    "owner_name_raw": "EDGE HOMES UTAH LLC",
    "owner_class": "UNCLASSIFIED",
    "epsg": "EPSG:4326"
  },
  "geometry": {
    "type": "Polygon",
    "coordinates": [
      [
        [
          -111.955871367973,
          40.3777659747026
        ],
        [
          -111.955892484131,
          40.3777049261778
        ],
        [
          -111.955910522841,
          40.377643307539
        ],
        [
          -111.956260469645,
          40.3776979046235
        ],
        [
          -111.956243454655,
          40.3777626098648
        ],
        [
          -111.956214986146,
          40.377840128377
        ],
        [
          -111.955871367973,
          40.3777659747026
        ]
      ]
    ]
  }
}