{
  "type": "Feature",
  "properties": {
    "parcel_id": "682190718",
    "owner_name_raw": "EDGE HOMES UTAH LLC",
    "owner_class": "UNCLASSIFIED",
    "epsg": "EPSG:4326"
  },
  "geometry": {
    "type": "Polygon",
    "coordinates": [
      [
        [
          -111.95643616664,
          40.3762556780369
        ],
        [
          -111.95647000438,
          40.3761856047275
        ],
        [
          -111.956514907568,
          40.3761122615487
        ],
        [
          -111.956837672249,
          40.3762283522265
        ],
        [
          -111.956805792864,
          40.3762900202733
        ],
        [
          -111.956770546538,
          40.3763506154672
        ],
        [
          -111.95643616664,
          40.3762556780369
        ]
      ]
    ]
  }
}