{
  "type": "Feature",
  "properties": {
    "parcel_id": "682100631",
    "owner_name_raw": "EDGE HOMES UTAH LLC",
    "owner_class": "UNCLASSIFIED",
    "epsg": "EPSG:4326"
  },
  "geometry": {
    "type": "Polygon",
    "coordinates": [
      [
        [
          -111.955124977566,
          40.3779920357153
        ],
        [
          -111.955144647976,
          40.3779690731831
        ],
        [
          -111.955232725095,
          40.3778486475587
        ],
        [
          -111.955365677989,
          40.3779070898598
        ],
        [
          -111.955499712482,
          40.3779640803454
        ],
        [
          -111.955508398466,
          40.3779686160317
        ],
        [
          -111.95551576768,
          40.3779743467376
        ],
        [
          -111.955521541381,
          40.377981055696
        ],
        [
          -111.955525501174,
          40.3779884891367
        ],
        [
          -111.955527497279,
          40.3779963658856
        ],
        [
          -111.955527454192,
          40.3780043880005
        ],
        [
          -111.955525373543,
          40.3780122520407
        ],
        [
          -111.955521334033,
          40.3780196605447
        ],
        [
          -111.955478974645,
          40.3780770036171
        ],
        [
          -111.955433342254,
          40.3781328703552
        ],
        [
          -111.955428227247,
          40.3781388369729
        ],
        [
          -111.955124977566,
          40.3779920357153
        ]
      ]
    ]
  }
}