{
  "type": "Feature",
  "properties": {
    "parcel_id": "682100638",
    "owner_name_raw": "EDGE HOMES UTAH LLC",
    "owner_class": "UNCLASSIFIED",
    "epsg": "EPSG:4326"
  },
  "geometry": {
    "type": "Polygon",
    "coordinates": [
      [
        [
          -111.955943456876,
          40.377151713485
        ],
        [
          -111.956301152548,
          40.3771301857145
        ],
        [
          -111.956307497349,
          40.3771971354295
        ],
        [
          -111.955950336175,
          40.3772186180127
        ],
        [
          -111.955943616776,
          40.3771529555506
        ],
        [
          -111.955943456876,
          40.377151713485
        ]
      ]
    ]
  }
}