{
  "type": "Feature",
  "properties": {
    "parcel_id": "682100663",
    "owner_name_raw": "EDGE HOMES UTAH LLC",
    "owner_class": "UNCLASSIFIED",
    "epsg": "EPSG:4326"
  },
  "geometry": {
    "type": "Polygon",
    "coordinates": [
      [
        [
          -111.9554102295,
          40.3772127703874
        ],
        [
          -111.95574569636,
          40.3771852992021
        ],
        [
          -111.955750294485,
          40.377235830421
        ],
        [
          -111.955752648422,
          40.3772864511127
        ],
        [
          -111.955415399305,
          40.377291242807
        ],
        [
          -111.955413630647,
          40.3772519754015
        ],
        [
          -111.9554102295,
          40.3772127703874
        ]
      ]
    ]
  }
}