{
  "type": "Feature",
  "properties": {
    "parcel_id": "682190727",
    "owner_name_raw": "EDGE HOMES UTAH LLC",
    "owner_class": "UNCLASSIFIED",
    "epsg": "EPSG:4326"
  },
  "geometry": {
    "type": "Polygon",
    "coordinates": [
      [
        [
          -111.956295388059,
          40.3775312849024
        ],
        [
          -111.956302181119,
          40.3774904235596
        ],
        [
          -111.956308599581,
          40.3774045578597
        ],
        [
          -111.956668439531,
          40.3774175170357
        ],
        [
          -111.956662397655,
          40.3774900623957
        ],
        [
          -111.956653218477,
          40.3775624164249
        ],
        [
          -111.956295388059,
          40.3775312849024
        ]
      ]
    ]
  }
}