{
  "type": "Feature",
  "properties": {
    "parcel_id": "682111501",
    "owner_name_raw": "MERITAGE HOMES OF UTAH INC",
    "owner_class": "UNCLASSIFIED",
    "epsg": "EPSG:4326"
  },
  "geometry": {
    "type": "Polygon",
    "coordinates": [
      [
        [
          -112.023014211034,
          40.2959824347771
        ],
        [
          -112.023016942811,
          40.2963515465362
        ],
        [
          -112.022801898709,
          40.2963524804006
        ],
        [
          -112.022799166932,
          40.2959833686466
        ],
        [
          -112.023014211034,
          40.2959824347771
        ]
      ]
    ]
  }
}