{
  "type": "Feature",
  "properties": {
    "parcel_id": "682100641",
    "owner_name_raw": "EDGE HOMES UTAH LLC",
    "owner_class": "UNCLASSIFIED",
    "epsg": "EPSG:4326"
  },
  "geometry": {
    "type": "Polygon",
    "coordinates": [
      [
        [
          -111.955931202059,
          40.3768888357922
        ],
        [
          -111.955934900423,
          40.3768217639589
        ],
        [
          -111.95628625848,
          40.3768276882638
        ],
        [
          -111.956284744819,
          40.376894804573
        ],
        [
          -111.955931202059,
          40.3768888357922
        ]
      ]
    ]
  }
}