{
  "type": "Feature",
  "properties": {
    "parcel_id": "682100662",
    "owner_name_raw": "EDGE HOMES UTAH LLC",
    "owner_class": "UNCLASSIFIED",
    "epsg": "EPSG:4326"
  },
  "geometry": {
    "type": "Polygon",
    "coordinates": [
      [
        [
          -111.955402361156,
          40.3771527044001
        ],
        [
          -111.955738635602,
          40.3771251592823
        ],
        [
          -111.955743613167,
          40.3771679657222
        ],
        [
          -111.955745712529,
          40.3771853176791
        ],
        [
          -111.95541025106,
          40.3772127861271
        ],
        [
          -111.955405906807,
          40.3771783689586
        ],
        [
          -111.955402361156,
          40.3771527044001
        ]
      ]
    ]
  }
}