{
  "type": "Feature",
  "properties": {
    "parcel_id": "682360125",
    "owner_name_raw": "WOODSIDE HOMES OF UTAH LLC",
    "owner_class": "UNCLASSIFIED",
    "epsg": "EPSG:4326"
  },
  "geometry": {
    "type": "Polygon",
    "coordinates": [
      [
        [
          -111.695770489019,
          40.0801063904992
        ],
        [
          -111.695770074896,
          40.0799609303351
        ],
        [
          -111.696141649539,
          40.0799603048531
        ],
        [
          -111.69614206456,
          40.0801057657058
        ],
        [
          -111.695770489019,
          40.0801063904992
        ]
      ]
    ]
  }
}