{
  "type": "Feature",
  "properties": {
    "parcel_id": "682331686",
    "owner_name_raw": "MERITAGE HOMES OF UTAH INC",
    "owner_class": "UNCLASSIFIED",
    "epsg": "EPSG:4326"
  },
  "geometry": {
    "type": "Polygon",
    "coordinates": [
      [
        [
          -112.027217919627,
          40.2972510513224
        ],
        [
          -112.027287992711,
          40.2969564364928
        ],
        [
          -112.027333731332,
          40.2969633804621
        ],
        [
          -112.027438958188,
          40.2969793539869
        ],
        [
          -112.027364816634,
          40.297272189397
        ],
        [
          -112.027217919627,
          40.2972510513224
        ]
      ]
    ]
  }
}