{
  "type": "Feature",
  "properties": {
    "parcel_id": "682360100",
    "owner_name_raw": "WOODSIDE HOMES OF UTAH LLC",
    "owner_class": "UNCLASSIFIED",
    "epsg": "EPSG:4326"
  },
  "geometry": {
    "type": "Polygon",
    "coordinates": [
      [
        [
          -111.695168801934,
          40.080214428117
        ],
        [
          -111.695168601609,
          40.0801458163932
        ],
        [
          -111.695168406675,
          40.0800772032256
        ],
        [
          -111.695168306962,
          40.0800419900117
        ],
        [
          -111.695471961783,
          40.0800414813786
        ],
        [
          -111.695472258227,
          40.0801456088162
        ],
        [
          -111.695474461932,
          40.0801865253439
        ],
        [
          -111.695480828154,
          40.0802271858402
        ],
        [
          -111.695168846849,
          40.0802277102808
        ],
        [
          -111.695168801934,
          40.080214428117
        ]
      ]
    ]
  }
}