{
  "type": "Feature",
  "properties": {
    "parcel_id": "682331671",
    "owner_name_raw": "MERITAGE HOMES OF UTAH INC",
    "owner_class": "UNCLASSIFIED",
    "epsg": "EPSG:4326"
  },
  "geometry": {
    "type": "Polygon",
    "coordinates": [
      [
        [
          -112.025823123452,
          40.2968160153708
        ],
        [
          -112.025812615858,
          40.2968154617704
        ],
        [
          -112.025840826551,
          40.2965104752668
        ],
        [
          -112.025987924781,
          40.2965190506287
        ],
        [
          -112.025955604295,
          40.2968229442813
        ],
        [
          -112.025823123452,
          40.2968160153708
        ]
      ]
    ]
  }
}