{
  "type": "Feature",
  "properties": {
    "parcel_id": "682360194",
    "owner_name_raw": "WOODSIDE HOMES OF UTAH LLC",
    "owner_class": "UNCLASSIFIED",
    "epsg": "EPSG:4326"
  },
  "geometry": {
    "type": "Polygon",
    "coordinates": [
      [
        [
          -111.694854061903,
          40.080095102977
        ],
        [
          -111.694952316035,
          40.0800949387023
        ],
        [
          -111.694952246865,
          40.0800707037218
        ],
        [
          -111.695132675286,
          40.0800704012914
        ],
        [
          -111.695132695049,
          40.0800772630244
        ],
        [
          -111.69516838781,
          40.0800772025383
        ],
        [
          -111.695168582745,
          40.0801458163932
        ],
        [
          -111.69485420743,
          40.0801463428965
        ],
        [
          -111.694854061903,
          40.080095102977
        ]
      ]
    ]
  }
}