{
  "type": "Feature",
  "properties": {
    "parcel_id": "682360188",
    "owner_name_raw": "WOODSIDE HOMES OF UTAH LLC",
    "owner_class": "UNCLASSIFIED",
    "epsg": "EPSG:4326"
  },
  "geometry": {
    "type": "Polygon",
    "coordinates": [
      [
        [
          -111.694855499207,
          40.0806019330118
        ],
        [
          -111.69485535368,
          40.0805506927478
        ],
        [
          -111.695169767623,
          40.0805501655604
        ],
        [
          -111.695169962557,
          40.080618779626
        ],
        [
          -111.695134232965,
          40.0806188394243
        ],
        [
          -111.695134252728,
          40.0806257004146
        ],
        [
          -111.69495382251,
          40.0806260028425
        ],
        [
          -111.69495375334,
          40.0806017687384
        ],
        [
          -111.694855499207,
          40.0806019330118
        ]
      ]
    ]
  }
}