{
  "type": "Feature",
  "properties": {
    "parcel_id": "682360204",
    "owner_name_raw": "WOODSIDE HOMES OF UTAH LLC",
    "owner_class": "UNCLASSIFIED",
    "epsg": "EPSG:4326"
  },
  "geometry": {
    "type": "Polygon",
    "coordinates": [
      [
        [
          -111.694851082191,
          40.0790581544167
        ],
        [
          -111.695165488049,
          40.0790576272176
        ],
        [
          -111.695165682983,
          40.0791262414126
        ],
        [
          -111.694851278024,
          40.0791267672365
        ],
        [
          -111.694851082191,
          40.0790581544167
        ]
      ]
    ]
  }
}