{
  "type": "Feature",
  "properties": {
    "parcel_id": "682380160",
    "owner_name_raw": "WOODSIDE HOMES OF UTAH LLC",
    "owner_class": "UNCLASSIFIED",
    "epsg": "EPSG:4326"
  },
  "geometry": {
    "type": "Polygon",
    "coordinates": [
      [
        [
          -111.695718357089,
          40.0781186325647
        ],
        [
          -111.695854122172,
          40.0781184036733
        ],
        [
          -111.69585407546,
          40.0781019372388
        ],
        [
          -111.696057721738,
          40.078101593558
        ],
        [
          -111.696057909486,
          40.0781674633965
        ],
        [
          -111.695718497226,
          40.0781680339061
        ],
        [
          -111.695718357089,
          40.0781186325647
        ]
      ]
    ]
  }
}