{
  "type": "Feature",
  "properties": {
    "parcel_id": "682360177",
    "owner_name_raw": "WOODSIDE HOMES OF UTAH LLC",
    "owner_class": "UNCLASSIFIED",
    "epsg": "EPSG:4326"
  },
  "geometry": {
    "type": "Polygon",
    "coordinates": [
      [
        [
          -111.695291951976,
          40.0796118059776
        ],
        [
          -111.69529243527,
          40.0797819679994
        ],
        [
          -111.69522812398,
          40.0797820752251
        ],
        [
          -111.695228085353,
          40.0797683523864
        ],
        [
          -111.695206647957,
          40.0797683881284
        ],
        [
          -111.695206203291,
          40.0796119496331
        ],
        [
          -111.695291951976,
          40.0796118059776
        ]
      ]
    ]
  }
}