{
  "type": "Feature",
  "properties": {
    "parcel_id": "682360178",
    "owner_name_raw": "WOODSIDE HOMES OF UTAH LLC",
    "owner_class": "UNCLASSIFIED",
    "epsg": "EPSG:4326"
  },
  "geometry": {
    "type": "Polygon",
    "coordinates": [
      [
        [
          -111.695367782362,
          40.0798422185491
        ],
        [
          -111.695432093652,
          40.0798421106361
        ],
        [
          -111.695432132279,
          40.0798558327727
        ],
        [
          -111.695453569675,
          40.0798557970308
        ],
        [
          -111.695454014342,
          40.0800122356531
        ],
        [
          -111.695368267453,
          40.0800123793077
        ],
        [
          -111.695367782362,
          40.0798422185491
        ]
      ]
    ]
  }
}