{
  "type": "Feature",
  "properties": {
    "parcel_id": "682331619",
    "owner_name_raw": "MERITAGE HOMES OF UTAH INC",
    "owner_class": "UNCLASSIFIED",
    "epsg": "EPSG:4326"
  },
  "geometry": {
    "type": "Polygon",
    "coordinates": [
      [
        [
          -112.025666982781,
          40.2982948855593
        ],
        [
          -112.025694543992,
          40.2979937418154
        ],
        [
          -112.025842321348,
          40.2980023690595
        ],
        [
          -112.025809928099,
          40.2983032298047
        ],
        [
          -112.025666982781,
          40.2982948855593
        ]
      ]
    ]
  }
}