{
  "type": "Feature",
  "properties": {
    "parcel_id": "682331668",
    "owner_name_raw": "MERITAGE HOMES OF UTAH INC",
    "owner_class": "UNCLASSIFIED",
    "epsg": "EPSG:4326"
  },
  "geometry": {
    "type": "Polygon",
    "coordinates": [
      [
        [
          -112.025499851222,
          40.2963550723366
        ],
        [
          -112.025489739348,
          40.2963539628967
        ],
        [
          -112.025480083685,
          40.2963514179094
        ],
        [
          -112.025471231237,
          40.296347528836
        ],
        [
          -112.025463500142,
          40.2963424354412
        ],
        [
          -112.025457168239,
          40.2963363207703
        ],
        [
          -112.025452463082,
          40.2963294045711
        ],
        [
          -112.025449553765,
          40.2963219353969
        ],
        [
          -112.025448544843,
          40.2963141816735
        ],
        [
          -112.025446408649,
          40.2960270426173
        ],
        [
          -112.025447425503,
          40.2960187679421
        ],
        [
          -112.025450605228,
          40.2960108187229
        ],
        [
          -112.025455817669,
          40.2960035203395
        ],
        [
          -112.02546284947,
          40.2959971715321
        ],
        [
          -112.025471412803,
          40.2959920321723
        ],
        [
          -112.025481157151,
          40.2959883126263
        ],
        [
          -112.025491683654,
          40.2959861651439
        ],
        [
          -112.025502561439,
          40.2959856776268
        ],
        [
          -112.025759680833,
          40.2959961536815
        ],
        [
          -112.025729837901,
          40.2963645644536
        ],
        [
          -112.025499851222,
          40.2963550723366
        ]
      ]
    ]
  }
}