{
  "type": "Feature",
  "properties": {
    "parcel_id": "682331706",
    "owner_name_raw": "MERITAGE HOMES OF UTAH INC",
    "owner_class": "UNCLASSIFIED",
    "epsg": "EPSG:4326"
  },
  "geometry": {
    "type": "Polygon",
    "coordinates": [
      [
        [
          -112.026858579141,
          40.2976531744464
        ],
        [
          -112.026762953479,
          40.2976406343202
        ],
        [
          -112.026822622275,
          40.2973422296049
        ],
        [
          -112.026973729685,
          40.2973606421506
        ],
        [
          -112.026909198309,
          40.297659814827
        ],
        [
          -112.026858579141,
          40.2976531744464
        ]
      ]
    ]
  }
}