{
  "type": "Feature",
  "properties": {
    "parcel_id": "682360162",
    "owner_name_raw": "WOODSIDE HOMES OF UTAH LLC",
    "owner_class": "UNCLASSIFIED",
    "epsg": "EPSG:4326"
  },
  "geometry": {
    "type": "Polygon",
    "coordinates": [
      [
        [
          -111.695197822907,
          40.0781799486209
        ],
        [
          -111.695575640841,
          40.0781793148742
        ],
        [
          -111.695575835775,
          40.0782479285795
        ],
        [
          -111.695198017842,
          40.0782485623256
        ],
        [
          -111.695197822907,
          40.0781799486209
        ]
      ]
    ]
  }
}