{
  "type": "Feature",
  "properties": {
    "parcel_id": "682331674",
    "owner_name_raw": "MERITAGE HOMES OF UTAH INC",
    "owner_class": "UNCLASSIFIED",
    "epsg": "EPSG:4326"
  },
  "geometry": {
    "type": "Polygon",
    "coordinates": [
      [
        [
          -112.026282937808,
          40.2968466935912
        ],
        [
          -112.026241065536,
          40.2968429951589
        ],
        [
          -112.026281748439,
          40.2965396901418
        ],
        [
          -112.026472395197,
          40.2965556952837
        ],
        [
          -112.026426172384,
          40.2968592797696
        ],
        [
          -112.026282930622,
          40.2968466291872
        ],
        [
          -112.026282937808,
          40.2968466935912
        ]
      ]
    ]
  }
}