{
  "type": "Feature",
  "properties": {
    "parcel_id": "682331688",
    "owner_name_raw": "MERITAGE HOMES OF UTAH INC",
    "owner_class": "UNCLASSIFIED",
    "epsg": "EPSG:4326"
  },
  "geometry": {
    "type": "Polygon",
    "coordinates": [
      [
        [
          -112.026923254248,
          40.2972126085391
        ],
        [
          -112.026984566961,
          40.2969170281685
        ],
        [
          -112.027051420483,
          40.2969250505646
        ],
        [
          -112.027136615806,
          40.2969352736541
        ],
        [
          -112.02707072977,
          40.2972312115904
        ],
        [
          -112.026923254248,
          40.2972126085391
        ]
      ]
    ]
  }
}