{
  "type": "Feature",
  "properties": {
    "parcel_id": "682331721",
    "owner_name_raw": "MERITAGE HOMES OF UTAH INC",
    "owner_class": "UNCLASSIFIED",
    "epsg": "EPSG:4326"
  },
  "geometry": {
    "type": "Polygon",
    "coordinates": [
      [
        [
          -112.025662192065,
          40.2978517271619
        ],
        [
          -112.025688142597,
          40.2975522620947
        ],
        [
          -112.025797032783,
          40.2975579008085
        ],
        [
          -112.025843163069,
          40.2975602898965
        ],
        [
          -112.025812340974,
          40.2978600632403
        ],
        [
          -112.025662192065,
          40.2978517271619
        ]
      ]
    ]
  }
}