{
  "type": "Feature",
  "properties": {
    "parcel_id": "682331629",
    "owner_name_raw": "MERITAGE HOMES OF UTAH INC",
    "owner_class": "UNCLASSIFIED",
    "epsg": "EPSG:4326"
  },
  "geometry": {
    "type": "Polygon",
    "coordinates": [
      [
        [
          -112.026434468325,
          40.2989921865879
        ],
        [
          -112.026433650858,
          40.2988824134215
        ],
        [
          -112.02682791425,
          40.2988806903247
        ],
        [
          -112.026828719141,
          40.298988541713
        ],
        [
          -112.026828733514,
          40.2989904634939
        ],
        [
          -112.026434468325,
          40.2989921865879
        ]
      ]
    ]
  }
}