{
  "type": "Feature",
  "properties": {
    "parcel_id": "682331718",
    "owner_name_raw": "MERITAGE HOMES OF UTAH INC",
    "owner_class": "UNCLASSIFIED",
    "epsg": "EPSG:4326"
  },
  "geometry": {
    "type": "Polygon",
    "coordinates": [
      [
        [
          -112.026112151005,
          40.2978809887316
        ],
        [
          -112.026152681194,
          40.2975812600147
        ],
        [
          -112.026240390901,
          40.2975878901252
        ],
        [
          -112.026307089015,
          40.297594621636
        ],
        [
          -112.02626179506,
          40.2978935651254
        ],
        [
          -112.026112151005,
          40.2978809887316
        ]
      ]
    ]
  }
}