{
  "type": "Feature",
  "properties": {
    "parcel_id": "682481028",
    "owner_name_raw": "EDGE HOMES UTAH LLC",
    "owner_class": "UNCLASSIFIED",
    "epsg": "EPSG:4326"
  },
  "geometry": {
    "type": "Polygon",
    "coordinates": [
      [
        [
          -111.579305814167,
          40.0892329844624
        ],
        [
          -111.579429218432,
          40.0892328470125
        ],
        [
          -111.579484962489,
          40.0892327851601
        ],
        [
          -111.579485554479,
          40.0895467872714
        ],
        [
          -111.579306387292,
          40.0895469858855
        ],
        [
          -111.579305814167,
          40.0892329844624
        ]
      ]
    ]
  }
}