{
  "type": "Feature",
  "properties": {
    "parcel_id": "682481009",
    "owner_name_raw": "EDGE HOMES UTAH LLC",
    "owner_class": "UNCLASSIFIED",
    "epsg": "EPSG:4326"
  },
  "geometry": {
    "type": "Polygon",
    "coordinates": [
      [
        [
          -111.57809957976,
          40.0907769068867
        ],
        [
          -111.578503373378,
          40.0907764306337
        ],
        [
          -111.57850370306,
          40.0909414043256
        ],
        [
          -111.578099907645,
          40.0909418798902
        ],
        [
          -111.57809957976,
          40.0907769068867
        ]
      ]
    ]
  }
}