{
  "type": "Feature",
  "properties": {
    "parcel_id": "682440806",
    "owner_name_raw": "EDGE HOMES UTAH LLC",
    "owner_class": "UNCLASSIFIED",
    "epsg": "EPSG:4326"
  },
  "geometry": {
    "type": "Polygon",
    "coordinates": [
      [
        [
          -111.954103328085,
          40.3750746515997
        ],
        [
          -111.954219177519,
          40.3750273565129
        ],
        [
          -111.954360270511,
          40.3752341649146
        ],
        [
          -111.954249475897,
          40.3752793944799
        ],
        [
          -111.954103328085,
          40.3750746515997
        ]
      ]
    ]
  }
}