{
  "type": "Feature",
  "properties": {
    "parcel_id": "682481016",
    "owner_name_raw": "EDGE HOMES UTAH LLC",
    "owner_class": "UNCLASSIFIED",
    "epsg": "EPSG:4326"
  },
  "geometry": {
    "type": "Polygon",
    "coordinates": [
      [
        [
          -111.577848393738,
          40.0891632609225
        ],
        [
          -111.578166767455,
          40.0896224763957
        ],
        [
          -111.578131971085,
          40.0896375454326
        ],
        [
          -111.57809816525,
          40.0896538808967
        ],
        [
          -111.578065428639,
          40.089671444763
        ],
        [
          -111.578033837454,
          40.089690196147
        ],
        [
          -111.57764947709,
          40.0893266289888
        ],
        [
          -111.577848393738,
          40.0891632609225
        ]
      ]
    ]
  }
}