{
  "type": "Feature",
  "properties": {
    "parcel_id": "682440821",
    "owner_name_raw": "EDGE HOMES UTAH LLC",
    "owner_class": "UNCLASSIFIED",
    "epsg": "EPSG:4326"
  },
  "geometry": {
    "type": "Polygon",
    "coordinates": [
      [
        [
          -111.952580786985,
          40.3759305809268
        ],
        [
          -111.952609334546,
          40.3759121857031
        ],
        [
          -111.952645892385,
          40.3758855160417
        ],
        [
          -111.952858401442,
          40.3760528823468
        ],
        [
          -111.95279503518,
          40.3760993288112
        ],
        [
          -111.952580786985,
          40.3759305809268
        ]
      ]
    ]
  }
}