{
  "type": "Feature",
  "properties": {
    "parcel_id": "682481014",
    "owner_name_raw": "EDGE HOMES UTAH LLC",
    "owner_class": "UNCLASSIFIED",
    "epsg": "EPSG:4326"
  },
  "geometry": {
    "type": "Polygon",
    "coordinates": [
      [
        [
          -111.578097928656,
          40.0899520454925
        ],
        [
          -111.57850171958,
          40.0899515692338
        ],
        [
          -111.57850205016,
          40.0901165428633
        ],
        [
          -111.578098259236,
          40.0901170191208
        ],
        [
          -111.578097928656,
          40.0899520454925
        ]
      ]
    ]
  }
}