{
  "type": "Feature",
  "properties": {
    "parcel_id": "682510007",
    "owner_name_raw": "RICHMOND AMERICAN HOMES OF UTAH INC",
    "owner_class": "UNCLASSIFIED",
    "epsg": "EPSG:4326"
  },
  "geometry": {
    "type": "Polygon",
    "coordinates": [
      [
        [
          -111.699241991604,
          40.2485432961087
        ],
        [
          -111.699076341367,
          40.2485433715289
        ],
        [
          -111.699076167992,
          40.2483155850116
        ],
        [
          -111.69935664538,
          40.2483154602251
        ],
        [
          -111.699356819654,
          40.2485432453715
        ],
        [
          -111.699241991604,
          40.2485432961087
        ]
      ]
    ]
  }
}