{
  "type": "Feature",
  "properties": {
    "parcel_id": "682621134",
    "owner_name_raw": "EDGE HOMES UTAH LLC",
    "owner_class": "UNCLASSIFIED",
    "epsg": "EPSG:4326"
  },
  "geometry": {
    "type": "Polygon",
    "coordinates": [
      [
        [
          -111.576460724796,
          40.0921426966676
        ],
        [
          -111.576464096448,
          40.0921296467215
        ],
        [
          -111.576465218169,
          40.0921163720159
        ],
        [
          -111.576462577781,
          40.0920962505811
        ],
        [
          -111.576454787617,
          40.092076926085
        ],
        [
          -111.576442155429,
          40.0920591619501
        ],
        [
          -111.576425180257,
          40.0920436599571
        ],
        [
          -111.576410091629,
          40.0920298929663
        ],
        [
          -111.576398844059,
          40.0920141217098
        ],
        [
          -111.576391878417,
          40.0919969643697
        ],
        [
          -111.576389467733,
          40.0919790934585
        ],
        [
          -111.57638942641,
          40.0919711615465
        ],
        [
          -111.576846077799,
          40.091969755491
        ],
        [
          -111.57684615685,
          40.0920094975089
        ],
        [
          -111.576846465871,
          40.0921660999383
        ],
        [
          -111.576840454345,
          40.0922207132654
        ],
        [
          -111.576460724796,
          40.0921426966676
        ]
      ]
    ]
  }
}