{
  "type": "Feature",
  "properties": {
    "parcel_id": "682621140",
    "owner_name_raw": "EDGE HOMES UTAH LLC",
    "owner_class": "UNCLASSIFIED",
    "epsg": "EPSG:4326"
  },
  "geometry": {
    "type": "Polygon",
    "coordinates": [
      [
        [
          -111.576846111935,
          40.0919697781693
        ],
        [
          -111.57684592239,
          40.0918742673466
        ],
        [
          -111.576845897237,
          40.0918606555264
        ],
        [
          -111.577301191271,
          40.0918601229288
        ],
        [
          -111.577301487715,
          40.0920089862163
        ],
        [
          -111.576846190986,
          40.0920095181256
        ],
        [
          -111.576846111935,
          40.0919697781693
        ]
      ]
    ]
  }
}