{
  "type": "Feature",
  "properties": {
    "parcel_id": "682621135",
    "owner_name_raw": "EDGE HOMES UTAH LLC",
    "owner_class": "UNCLASSIFIED",
    "epsg": "EPSG:4326"
  },
  "geometry": {
    "type": "Polygon",
    "coordinates": [
      [
        [
          -111.576453489765,
          40.0916801981453
        ],
        [
          -111.576845905322,
          40.0918742481044
        ],
        [
          -111.576846093968,
          40.0919697575527
        ],
        [
          -111.576389443478,
          40.091971162921
        ],
        [
          -111.576388687097,
          40.0918262263438
        ],
        [
          -111.576391617324,
          40.0917931444086
        ],
        [
          -111.576400703119,
          40.0917607233121
        ],
        [
          -111.576415757614,
          40.0917296298636
        ],
        [
          -111.576436471182,
          40.0917005035675
        ],
        [
          -111.576453489765,
          40.0916801981453
        ]
      ]
    ]
  }
}