{
  "type": "Feature",
  "properties": {
    "parcel_id": "682621131",
    "owner_name_raw": "EDGE HOMES UTAH LLC",
    "owner_class": "UNCLASSIFIED",
    "epsg": "EPSG:4326"
  },
  "geometry": {
    "type": "Polygon",
    "coordinates": [
      [
        [
          -111.576255665468,
          40.0921988775609
        ],
        [
          -111.576273977042,
          40.0922073745783
        ],
        [
          -111.576293844611,
          40.0922134927699
        ],
        [
          -111.576314744487,
          40.0922170708672
        ],
        [
          -111.576336125771,
          40.0922180145558
        ],
        [
          -111.576348554862,
          40.0926206612608
        ],
        [
          -111.576095088018,
          40.0926215635743
        ],
        [
          -111.575895735686,
          40.0923618459398
        ],
        [
          -111.576255665468,
          40.0921988775609
        ]
      ]
    ]
  }
}