{
  "type": "Feature",
  "properties": {
    "parcel_id": "690632190",
    "owner_name_raw": "EDGE HOMES UTAH LLC",
    "owner_class": "UNCLASSIFIED",
    "epsg": "EPSG:4326"
  },
  "geometry": {
    "type": "Polygon",
    "coordinates": [
      [
        [
          -111.939364184129,
          40.416381072398
        ],
        [
          -111.939576265587,
          40.4163799315944
        ],
        [
          -111.939578539223,
          40.4166269089705
        ],
        [
          -111.939366455968,
          40.4166280497699
        ],
        [
          -111.939364184129,
          40.416381072398
        ]
      ]
    ]
  }
}