{
  "type": "Feature",
  "properties": {
    "parcel_id": "690793078",
    "owner_name_raw": "MILLROSE PROPERTIES UTAH LLC",
    "owner_class": "UNCLASSIFIED",
    "epsg": "EPSG:4326"
  },
  "geometry": {
    "type": "Polygon",
    "coordinates": [
      [
        [
          -111.959014544406,
          40.3963332727293
        ],
        [
          -111.95902984002,
          40.3962103342502
        ],
        [
          -111.959030178685,
          40.3962076024791
        ],
        [
          -111.959084814221,
          40.3962115759644
        ],
        [
          -111.959083794633,
          40.3962197712769
        ],
        [
          -111.959125638159,
          40.3962228143312
        ],
        [
          -111.95911871125,
          40.3962784916641
        ],
        [
          -111.959122284748,
          40.3962787509529
        ],
        [
          -111.959118334856,
          40.3963104963779
        ],
        [
          -111.959089748667,
          40.3963084179636
        ],
        [
          -111.959086010777,
          40.3963384701312
        ],
        [
          -111.959014544406,
          40.3963332727293
        ]
      ]
    ]
  }
}