{
  "type": "Feature",
  "properties": {
    "parcel_id": "690712235",
    "owner_name_raw": "EDGE HOMES UTAH LLC",
    "owner_class": "UNCLASSIFIED",
    "epsg": "EPSG:4326"
  },
  "geometry": {
    "type": "Polygon",
    "coordinates": [
      [
        [
          -111.939967740608,
          40.4143327461282
        ],
        [
          -111.939987880837,
          40.4141482275858
        ],
        [
          -111.940345669933,
          40.4141710437272
        ],
        [
          -111.940325530603,
          40.4143555581034
        ],
        [
          -111.939967740608,
          40.4143327461282
        ]
      ]
    ]
  }
}