{
  "type": "Feature",
  "properties": {
    "parcel_id": "690712215",
    "owner_name_raw": "EDGE HOMES UTAH LLC",
    "owner_class": "UNCLASSIFIED",
    "epsg": "EPSG:4326"
  },
  "geometry": {
    "type": "Polygon",
    "coordinates": [
      [
        [
          -111.940433345505,
          40.4153152038971
        ],
        [
          -111.940453345597,
          40.4151319745543
        ],
        [
          -111.940811139184,
          40.4151547889944
        ],
        [
          -111.940791141788,
          40.4153380182749
        ],
        [
          -111.940433345505,
          40.4153152038971
        ]
      ]
    ]
  }
}