{
  "type": "Feature",
  "properties": {
    "parcel_id": "690813184",
    "owner_name_raw": "LENNAR HOMES OF UTAH LLC",
    "owner_class": "UNCLASSIFIED",
    "epsg": "EPSG:4326"
  },
  "geometry": {
    "type": "Polygon",
    "coordinates": [
      [
        [
          -111.962485513391,
          40.3957790879514
        ],
        [
          -111.962488390695,
          40.3956274827521
        ],
        [
          -111.962804219485,
          40.3956309869474
        ],
        [
          -111.962812623919,
          40.3956317244874
        ],
        [
          -111.96282067801,
          40.3956336963934
        ],
        [
          -111.962828072336,
          40.3956368269086
        ],
        [
          -111.962834522821,
          40.3956409957647
        ],
        [
          -111.962839781651,
          40.3956460428024
        ],
        [
          -111.962843646792,
          40.3956517741243
        ],
        [
          -111.962845969752,
          40.3956579695443
        ],
        [
          -111.962846661288,
          40.3956643910466
        ],
        [
          -111.962844409212,
          40.3957830683033
        ],
        [
          -111.962485513391,
          40.3957790879514
        ]
      ]
    ]
  }
}