{
  "type": "Feature",
  "properties": {
    "parcel_id": "690803015",
    "owner_name_raw": "LENNAR HOMES OF UTAH LLC",
    "owner_class": "UNCLASSIFIED",
    "epsg": "EPSG:4326"
  },
  "geometry": {
    "type": "Polygon",
    "coordinates": [
      [
        [
          -111.960769197599,
          40.3969066066184
        ],
        [
          -111.960833842164,
          40.3967581954451
        ],
        [
          -111.960908763455,
          40.3967772718471
        ],
        [
          -111.960844118891,
          40.3969256822943
        ],
        [
          -111.960769197599,
          40.3969066066184
        ]
      ]
    ]
  }
}