{
  "type": "Feature",
  "properties": {
    "parcel_id": "690803006",
    "owner_name_raw": "MILLROSE PROPERTIES UTAH LLC",
    "owner_class": "UNCLASSIFIED",
    "epsg": "EPSG:4326"
  },
  "geometry": {
    "type": "Polygon",
    "coordinates": [
      [
        [
          -111.961685099202,
          40.396904592531
        ],
        [
          -111.961760819994,
          40.3969217252704
        ],
        [
          -111.961699704012,
          40.3970796133531
        ],
        [
          -111.961696647943,
          40.3970875075423
        ],
        [
          -111.961620927151,
          40.3970703748451
        ],
        [
          -111.961685099202,
          40.396904592531
        ]
      ]
    ]
  }
}