{
  "type": "Feature",
  "properties": {
    "parcel_id": "690803003",
    "owner_name_raw": "MILLROSE PROPERTIES UTAH LLC",
    "owner_class": "UNCLASSIFIED",
    "epsg": "EPSG:4326"
  },
  "geometry": {
    "type": "Polygon",
    "coordinates": [
      [
        [
          -111.961854201664,
          40.3971059866048
        ],
        [
          -111.961912260679,
          40.3969559927885
        ],
        [
          -111.961987983268,
          40.3969731268831
        ],
        [
          -111.961929922456,
          40.3971231192929
        ],
        [
          -111.961854201664,
          40.3971059866048
        ]
      ]
    ]
  }
}