{
  "type": "Feature",
  "properties": {
    "parcel_id": "690984082",
    "owner_name_raw": "MILLROSE PROPERTIES UTAH LLC",
    "owner_class": "UNCLASSIFIED",
    "epsg": "EPSG:4326"
  },
  "geometry": {
    "type": "Polygon",
    "coordinates": [
      [
        [
          -111.956127726494,
          40.3979992859801
        ],
        [
          -111.956026771127,
          40.3979809029398
        ],
        [
          -111.956056121783,
          40.3977241931885
        ],
        [
          -111.956242064962,
          40.3977366203112
        ],
        [
          -111.956210314008,
          40.3980143257127
        ],
        [
          -111.956127726494,
          40.3979992859801
        ]
      ]
    ]
  }
}