{
  "type": "Feature",
  "properties": {
    "parcel_id": "690984066",
    "owner_name_raw": "MILLROSE PROPERTIES UTAH LLC",
    "owner_class": "UNCLASSIFIED",
    "epsg": "EPSG:4326"
  },
  "geometry": {
    "type": "Polygon",
    "coordinates": [
      [
        [
          -111.956010150498,
          40.3975586143016
        ],
        [
          -111.956046095686,
          40.39724422127
        ],
        [
          -111.956232037068,
          40.397256647113
        ],
        [
          -111.95619609188,
          40.397571042139
        ],
        [
          -111.956010150498,
          40.3975586143016
        ]
      ]
    ]
  }
}