{
  "type": "Feature",
  "properties": {
    "parcel_id": "690993274",
    "owner_name_raw": "MILLROSE PROPERTIES UTAH LLC",
    "owner_class": "UNCLASSIFIED",
    "epsg": "EPSG:4326"
  },
  "geometry": {
    "type": "Polygon",
    "coordinates": [
      [
        [
          -111.965258179686,
          40.3966549553738
        ],
        [
          -111.965260014045,
          40.3965582014425
        ],
        [
          -111.965260671612,
          40.3965234630358
        ],
        [
          -111.965619571924,
          40.3965274358182
        ],
        [
          -111.965617083591,
          40.3966589267802
        ],
        [
          -111.965258179686,
          40.3966549553738
        ]
      ]
    ]
  }
}