{
  "type": "Feature",
  "properties": {
    "parcel_id": "690953226",
    "owner_name_raw": "MILLROSE PROPERTIES UTAH LLC",
    "owner_class": "UNCLASSIFIED",
    "epsg": "EPSG:4326"
  },
  "geometry": {
    "type": "Polygon",
    "coordinates": [
      [
        [
          -111.963405584973,
          40.3962888228511
        ],
        [
          -111.963407953831,
          40.39616397075
        ],
        [
          -111.963766852346,
          40.3961679490268
        ],
        [
          -111.963764486184,
          40.3962928004364
        ],
        [
          -111.963405584973,
          40.3962888228511
        ]
      ]
    ]
  }
}