{
  "type": "Feature",
  "properties": {
    "parcel_id": "690984002",
    "owner_name_raw": "MILLROSE PROPERTIES UTAH LLC",
    "owner_class": "UNCLASSIFIED",
    "epsg": "EPSG:4326"
  },
  "geometry": {
    "type": "Polygon",
    "coordinates": [
      [
        [
          -111.962308706079,
          40.3980028543594
        ],
        [
          -111.962490756858,
          40.3977288144503
        ],
        [
          -111.962561229043,
          40.3977555370593
        ],
        [
          -111.962632360093,
          40.3977812272662
        ],
        [
          -111.962464117318,
          40.3980603780319
        ],
        [
          -111.962386050199,
          40.3980321826392
        ],
        [
          -111.962308706079,
          40.3980028543594
        ]
      ]
    ]
  }
}