{
  "type": "Feature",
  "properties": {
    "parcel_id": "690984055",
    "owner_name_raw": "MILLROSE PROPERTIES UTAH LLC",
    "owner_class": "UNCLASSIFIED",
    "epsg": "EPSG:4326"
  },
  "geometry": {
    "type": "Polygon",
    "coordinates": [
      [
        [
          -111.958177450207,
          40.3976740283634
        ],
        [
          -111.958179495671,
          40.3973584400144
        ],
        [
          -111.958267472178,
          40.3973585029542
        ],
        [
          -111.958340624687,
          40.3973583319221
        ],
        [
          -111.958341891311,
          40.3976739230081
        ],
        [
          -111.958268738803,
          40.3976740940394
        ],
        [
          -111.958177450207,
          40.3976740283634
        ]
      ]
    ]
  }
}