{
  "type": "Feature",
  "properties": {
    "parcel_id": "690984086",
    "owner_name_raw": "MILLROSE PROPERTIES UTAH LLC",
    "owner_class": "UNCLASSIFIED",
    "epsg": "EPSG:4326"
  },
  "geometry": {
    "type": "Polygon",
    "coordinates": [
      [
        [
          -111.956111663718,
          40.3983197682462
        ],
        [
          -111.956310928913,
          40.3980326300698
        ],
        [
          -111.956393859583,
          40.3980477306818
        ],
        [
          -111.956473717117,
          40.3980622709952
        ],
        [
          -111.956314628175,
          40.3983894101128
        ],
        [
          -111.956262781391,
          40.3983739248717
        ],
        [
          -111.956211634635,
          40.3983571437026
        ],
        [
          -111.956161243742,
          40.3983390849232
        ],
        [
          -111.956111663718,
          40.3983197682462
        ]
      ]
    ]
  }
}