{
  "type": "Feature",
  "properties": {
    "parcel_id": "690984094",
    "owner_name_raw": "MILLROSE PROPERTIES UTAH LLC",
    "owner_class": "UNCLASSIFIED",
    "epsg": "EPSG:4326"
  },
  "geometry": {
    "type": "Polygon",
    "coordinates": [
      [
        [
          -111.956700724983,
          40.3989273312109
        ],
        [
          -111.956735524819,
          40.3986266344064
        ],
        [
          -111.956822101189,
          40.3986309714344
        ],
        [
          -111.956908847566,
          40.3986322831475
        ],
        [
          -111.95700834856,
          40.3986320505483
        ],
        [
          -111.957009554099,
          40.3989339205812
        ],
        [
          -111.956700724983,
          40.3989273312109
        ]
      ]
    ]
  }
}