{
  "type": "Feature",
  "properties": {
    "parcel_id": "690953240",
    "owner_name_raw": "MILLROSE PROPERTIES UTAH LLC",
    "owner_class": "UNCLASSIFIED",
    "epsg": "EPSG:4326"
  },
  "geometry": {
    "type": "Polygon",
    "coordinates": [
      [
        [
          -111.963980308228,
          40.3960797488995
        ],
        [
          -111.963982844172,
          40.3959459792954
        ],
        [
          -111.964341742687,
          40.3959499555327
        ],
        [
          -111.964339207641,
          40.3960837258129
        ],
        [
          -111.963980308228,
          40.3960797488995
        ]
      ]
    ]
  }
}