{
  "type": "Feature",
  "properties": {
    "parcel_id": "690993270",
    "owner_name_raw": "MILLROSE PROPERTIES UTAH LLC",
    "owner_class": "UNCLASSIFIED",
    "epsg": "EPSG:4326"
  },
  "geometry": {
    "type": "Polygon",
    "coordinates": [
      [
        [
          -111.965268138409,
          40.3961289885858
        ],
        [
          -111.965269467915,
          40.3960587963837
        ],
        [
          -111.965270628539,
          40.3959974959048
        ],
        [
          -111.965629527054,
          40.3960014680341
        ],
        [
          -111.965627037823,
          40.3961329613915
        ],
        [
          -111.965268138409,
          40.3961289885858
        ]
      ]
    ]
  }
}