{
  "type": "Feature",
  "properties": {
    "parcel_id": "690984057",
    "owner_name_raw": "MILLROSE PROPERTIES UTAH LLC",
    "owner_class": "UNCLASSIFIED",
    "epsg": "EPSG:4326"
  },
  "geometry": {
    "type": "Polygon",
    "coordinates": [
      [
        [
          -111.957743615129,
          40.3976660384655
        ],
        [
          -111.957761451179,
          40.3973507415177
        ],
        [
          -111.957945620185,
          40.3973556412452
        ],
        [
          -111.957934741587,
          40.3976711249363
        ],
        [
          -111.957743615129,
          40.3976660384655
        ]
      ]
    ]
  }
}