{
  "type": "Feature",
  "properties": {
    "parcel_id": "690953212",
    "owner_name_raw": "MILLROSE PROPERTIES UTAH LLC",
    "owner_class": "UNCLASSIFIED",
    "epsg": "EPSG:4326"
  },
  "geometry": {
    "type": "Polygon",
    "coordinates": [
      [
        [
          -111.964411890331,
          40.3954869015629
        ],
        [
          -111.964415009282,
          40.3953222612996
        ],
        [
          -111.964759549126,
          40.3953260774827
        ],
        [
          -111.964756430175,
          40.3954907170526
        ],
        [
          -111.964411890331,
          40.3954869015629
        ]
      ]
    ]
  }
}