{
  "type": "Feature",
  "properties": {
    "parcel_id": "691034574",
    "owner_name_raw": "MILLROSE PROPERTIES UTAH LLC",
    "owner_class": "UNCLASSIFIED",
    "epsg": "EPSG:4326"
  },
  "geometry": {
    "type": "Polygon",
    "coordinates": [
      [
        [
          -111.965903482673,
          40.3963827304703
        ],
        [
          -111.965904734925,
          40.3963165174848
        ],
        [
          -111.966077618396,
          40.3963184296531
        ],
        [
          -111.966076364348,
          40.3963846426367
        ],
        [
          -111.965903482673,
          40.3963827304703
        ]
      ]
    ]
  }
}