{
  "type": "Feature",
  "properties": {
    "parcel_id": "691034600",
    "owner_name_raw": "MILLROSE PROPERTIES UTAH LLC",
    "owner_class": "UNCLASSIFIED",
    "epsg": "EPSG:4326"
  },
  "geometry": {
    "type": "Polygon",
    "coordinates": [
      [
        [
          -111.967783941329,
          40.3967467929754
        ],
        [
          -111.967786439544,
          40.3966146153125
        ],
        [
          -111.967873005696,
          40.3966155717345
        ],
        [
          -111.96787050838,
          40.3967477493954
        ],
        [
          -111.967783941329,
          40.3967467929754
        ]
      ]
    ]
  }
}