{
  "type": "Feature",
  "properties": {
    "parcel_id": "691024519",
    "owner_name_raw": "MILLROSE PROPERTIES UTAH LLC",
    "owner_class": "UNCLASSIFIED",
    "epsg": "EPSG:4326"
  },
  "geometry": {
    "type": "Polygon",
    "coordinates": [
      [
        [
          -111.968030874726,
          40.3977487012647
        ],
        [
          -111.968023383675,
          40.3975841445224
        ],
        [
          -111.968102303367,
          40.3975820435713
        ],
        [
          -111.968110169914,
          40.3977548296506
        ],
        [
          -111.968031249323,
          40.3977569292281
        ],
        [
          -111.968030874726,
          40.3977487012647
        ]
      ]
    ]
  }
}