{
  "type": "Feature",
  "properties": {
    "parcel_id": "691024538",
    "owner_name_raw": "MILLROSE PROPERTIES UTAH LLC",
    "owner_class": "UNCLASSIFIED",
    "epsg": "EPSG:4326"
  },
  "geometry": {
    "type": "Polygon",
    "coordinates": [
      [
        [
          -111.966370355093,
          40.3977573992215
        ],
        [
          -111.966371880432,
          40.3975927467228
        ],
        [
          -111.96645084504,
          40.3975931736174
        ],
        [
          -111.966449396058,
          40.3977495947312
        ],
        [
          -111.966449320599,
          40.3977578267992
        ],
        [
          -111.966370355093,
          40.3977573992215
        ]
      ]
    ]
  }
}