{
  "type": "Feature",
  "properties": {
    "parcel_id": "691034609",
    "owner_name_raw": "MILLROSE PROPERTIES UTAH LLC",
    "owner_class": "UNCLASSIFIED",
    "epsg": "EPSG:4326"
  },
  "geometry": {
    "type": "Polygon",
    "coordinates": [
      [
        [
          -111.966870604417,
          40.3967367013057
        ],
        [
          -111.966873104428,
          40.3966045229389
        ],
        [
          -111.966959707411,
          40.3966054807293
        ],
        [
          -111.9669572074,
          40.3967376584101
        ],
        [
          -111.966870604417,
          40.3967367013057
        ]
      ]
    ]
  }
}