{
  "type": "Feature",
  "properties": {
    "parcel_id": "691034602",
    "owner_name_raw": "MILLROSE PROPERTIES UTAH LLC",
    "owner_class": "UNCLASSIFIED",
    "epsg": "EPSG:4326"
  },
  "geometry": {
    "type": "Polygon",
    "coordinates": [
      [
        [
          -111.967557364655,
          40.3967442904111
        ],
        [
          -111.967559862869,
          40.3966121134275
        ],
        [
          -111.967645998729,
          40.3966130643764
        ],
        [
          -111.967643500514,
          40.3967452427264
        ],
        [
          -111.967557364655,
          40.3967442904111
        ]
      ]
    ]
  }
}