{
  "type": "Feature",
  "properties": {
    "parcel_id": "691034628",
    "owner_name_raw": "MILLROSE PROPERTIES UTAH LLC",
    "owner_class": "UNCLASSIFIED",
    "epsg": "EPSG:4326"
  },
  "geometry": {
    "type": "Polygon",
    "coordinates": [
      [
        [
          -111.967636057972,
          40.3970694690552
        ],
        [
          -111.967638555288,
          40.3969372906576
        ],
        [
          -111.967725124136,
          40.396938247075
        ],
        [
          -111.967722625022,
          40.3970704247866
        ],
        [
          -111.967636057972,
          40.3970694690552
        ]
      ]
    ]
  }
}