{
  "type": "Feature",
  "properties": {
    "parcel_id": "691080019",
    "owner_name_raw": "UTAH COUNTY",
    "owner_class": "UNCLASSIFIED",
    "epsg": "EPSG:4326"
  },
  "geometry": {
    "type": "Polygon",
    "coordinates": [
      [
        [
          -111.783930865339,
          40.0315336139542
        ],
        [
          -111.78489942259,
          40.0315253585997
        ],
        [
          -111.78697854906,
          40.0315076097903
        ],
        [
          -111.786988952572,
          40.0315067245887
        ],
        [
          -111.786998933745,
          40.0315043098348
        ],
        [
          -111.787008112822,
          40.031500457403
        ],
        [
          -111.787016140566,
          40.0314953138677
        ],
        [
          -111.787022711542,
          40.0314890749256
        ],
        [
          -111.787027575744,
          40.0314819779511
        ],
        [
          -111.787030548102,
          40.0314742929641
        ],
        [
          -111.787031515526,
          40.031466312357
        ],
        [
          -111.787032104821,
          40.0315133586883
        ],
        [
          -111.78359900252,
          40.0315364395661
        ],
        [
          -111.783930865339,
          40.0315336139542
        ]
      ]
    ]
  }
}