{
  "type": "Feature",
  "properties": {
    "parcel_id": "691034610",
    "owner_name_raw": "MILLROSE PROPERTIES UTAH LLC",
    "owner_class": "UNCLASSIFIED",
    "epsg": "EPSG:4326"
  },
  "geometry": {
    "type": "Polygon",
    "coordinates": [
      [
        [
          -111.966784469456,
          40.3967357503585
        ],
        [
          -111.966786970365,
          40.3966035713057
        ],
        [
          -111.966873105326,
          40.3966045236231
        ],
        [
          -111.966870606213,
          40.3967367019899
        ],
        [
          -111.966784469456,
          40.3967357503585
        ]
      ]
    ]
  }
}