{
  "type": "Feature",
  "properties": {
    "parcel_id": "691034626",
    "owner_name_raw": "MILLROSE PROPERTIES UTAH LLC",
    "owner_class": "UNCLASSIFIED",
    "epsg": "EPSG:4326"
  },
  "geometry": {
    "type": "Polygon",
    "coordinates": [
      [
        [
          -111.967463786253,
          40.3970675637496
        ],
        [
          -111.967466286265,
          40.3969353860323
        ],
        [
          -111.967552422124,
          40.396936338345
        ],
        [
          -111.967549923909,
          40.3970685153762
        ],
        [
          -111.967463786253,
          40.3970675637496
        ]
      ]
    ]
  }
}