{
  "type": "Feature",
  "properties": {
    "parcel_id": "700093193",
    "owner_name_raw": "LENNAR HOMES OF UTAH LLC",
    "owner_class": "UNCLASSIFIED",
    "epsg": "EPSG:4326"
  },
  "geometry": {
    "type": "Polygon",
    "coordinates": [
      [
        [
          -112.006027248675,
          40.290485269768
        ],
        [
          -112.00594840983,
          40.2904847250237
        ],
        [
          -112.005950024103,
          40.2903475116463
        ],
        [
          -112.006028865642,
          40.2903480557067
        ],
        [
          -112.006027248675,
          40.290485269768
        ]
      ]
    ]
  }
}