{
  "type": "Feature",
  "properties": {
    "parcel_id": "700240140",
    "owner_name_raw": "CENTURY LAND HOLDINGS OF UTAH LLC",
    "owner_class": "UNCLASSIFIED",
    "epsg": "EPSG:4326"
  },
  "geometry": {
    "type": "Polygon",
    "coordinates": [
      [
        [
          -112.036145184681,
          40.3225615440302
        ],
        [
          -112.036015442802,
          40.3225626288924
        ],
        [
          -112.036010728443,
          40.3222333258343
        ],
        [
          -112.036311999135,
          40.322230799271
        ],
        [
          -112.036298663644,
          40.3225627090243
        ],
        [
          -112.036163436651,
          40.3225614275993
        ],
        [
          -112.036145184681,
          40.3225615440302
        ]
      ]
    ]
  }
}