{
  "type": "Feature",
  "properties": {
    "parcel_id": "700294137",
    "owner_name_raw": "LENNAR HOMES OF UTAH LLC",
    "owner_class": "UNCLASSIFIED",
    "epsg": "EPSG:4326"
  },
  "geometry": {
    "type": "Polygon",
    "coordinates": [
      [
        [
          -112.003008185278,
          40.2953594148947
        ],
        [
          -112.003011172176,
          40.2950712639011
        ],
        [
          -112.003219041435,
          40.2950725273483
        ],
        [
          -112.003216055435,
          40.2953606769662
        ],
        [
          -112.003008185278,
          40.2953594148947
        ]
      ]
    ]
  }
}