{
  "type": "Feature",
  "properties": {
    "parcel_id": "700240135",
    "owner_name_raw": "CENTURY LAND HOLDINGS OF UTAH LLC",
    "owner_class": "UNCLASSIFIED",
    "epsg": "EPSG:4326"
  },
  "geometry": {
    "type": "Polygon",
    "coordinates": [
      [
        [
          -112.03494705218,
          40.3220989466416
        ],
        [
          -112.034949641124,
          40.3218793793482
        ],
        [
          -112.03535483342,
          40.3218784335086
        ],
        [
          -112.03535224717,
          40.3220980001202
        ],
        [
          -112.03494705218,
          40.3220989466416
        ]
      ]
    ]
  }
}