{
  "type": "Feature",
  "properties": {
    "parcel_id": "700294079",
    "owner_name_raw": "LENNAR HOMES OF UTAH LLC",
    "owner_class": "UNCLASSIFIED",
    "epsg": "EPSG:4326"
  },
  "geometry": {
    "type": "Polygon",
    "coordinates": [
      [
        [
          -112.002785750736,
          40.2966753760792
        ],
        [
          -112.002789591932,
          40.2963048978363
        ],
        [
          -112.002993882302,
          40.2963061400207
        ],
        [
          -112.003011800997,
          40.2963062475898
        ],
        [
          -112.003007960699,
          40.2966767265104
        ],
        [
          -112.002785750736,
          40.2966753760792
        ]
      ]
    ]
  }
}