{
  "type": "Feature",
  "properties": {
    "parcel_id": "700240150",
    "owner_name_raw": "CENTURY LAND HOLDINGS OF UTAH LLC",
    "owner_class": "UNCLASSIFIED",
    "epsg": "EPSG:4326"
  },
  "geometry": {
    "type": "Polygon",
    "coordinates": [
      [
        [
          -112.039092195108,
          40.3215128898326
        ],
        [
          -112.039090862008,
          40.3211835686408
        ],
        [
          -112.039338257139,
          40.3211829830498
        ],
        [
          -112.039339588442,
          40.3215123042444
        ],
        [
          -112.039092195108,
          40.3215128898326
        ]
      ]
    ]
  }
}