{
  "type": "Feature",
  "properties": {
    "parcel_id": "700330531",
    "owner_name_raw": "RICHMOND AMERICAN HOMES OF UTAH INC",
    "owner_class": "UNCLASSIFIED",
    "epsg": "EPSG:4326"
  },
  "geometry": {
    "type": "Polygon",
    "coordinates": [
      [
        [
          -112.023242747833,
          40.326580988926
        ],
        [
          -112.023300319063,
          40.3262300717297
        ],
        [
          -112.023328376132,
          40.3262313032054
        ],
        [
          -112.023356403903,
          40.3262297310916
        ],
        [
          -112.023383922435,
          40.3262253823087
        ],
        [
          -112.023410460505,
          40.326218331324
        ],
        [
          -112.023435563679,
          40.3262086988764
        ],
        [
          -112.023458802096,
          40.3261966499091
        ],
        [
          -112.023479777825,
          40.3261823907453
        ],
        [
          -112.023498131681,
          40.326166165555
        ],
        [
          -112.023874099984,
          40.3263685059089
        ],
        [
          -112.023533186639,
          40.3265830537396
        ],
        [
          -112.023242747833,
          40.326580988926
        ]
      ]
    ]
  }
}