{
  "type": "Feature",
  "properties": {
    "parcel_id": "700420272",
    "owner_name_raw": "CENTURY LAND HOLDINGS OF UTAH LLC",
    "owner_class": "UNCLASSIFIED",
    "epsg": "EPSG:4326"
  },
  "geometry": {
    "type": "Polygon",
    "coordinates": [
      [
        [
          -112.040311681462,
          40.3240607261727
        ],
        [
          -112.040526804616,
          40.3240589139999
        ],
        [
          -112.040530750017,
          40.3243333322975
        ],
        [
          -112.040315625964,
          40.3243351437781
        ],
        [
          -112.040311681462,
          40.3240607261727
        ]
      ]
    ]
  }
}