{
  "type": "Feature",
  "properties": {
    "parcel_id": "700420311",
    "owner_name_raw": "CENTURY LAND HOLDINGS OF UTAH LLC",
    "owner_class": "UNCLASSIFIED",
    "epsg": "EPSG:4326"
  },
  "geometry": {
    "type": "Polygon",
    "coordinates": [
      [
        [
          -112.039438111171,
          40.3232921968449
        ],
        [
          -112.039514980928,
          40.3232820050976
        ],
        [
          -112.039591338203,
          40.3232697774184
        ],
        [
          -112.039667090254,
          40.3232555286573
        ],
        [
          -112.03974214508,
          40.3232392761187
        ],
        [
          -112.039747983231,
          40.3236455256983
        ],
        [
          -112.039732709176,
          40.3236456544552
        ],
        [
          -112.039514002642,
          40.3236474954039
        ],
        [
          -112.039443227974,
          40.3236480905618
        ],
        [
          -112.039438111171,
          40.3232921968449
        ]
      ]
    ]
  }
}