{
  "type": "Feature",
  "properties": {
    "parcel_id": "700420305",
    "owner_name_raw": "CENTURY LAND HOLDINGS OF UTAH LLC",
    "owner_class": "UNCLASSIFIED",
    "epsg": "EPSG:4326"
  },
  "geometry": {
    "type": "Polygon",
    "coordinates": [
      [
        [
          -112.03863915315,
          40.3236548633076
        ],
        [
          -112.038833695003,
          40.3236532271372
        ],
        [
          -112.038857858786,
          40.323653023044
        ],
        [
          -112.038861799695,
          40.3239274423067
        ],
        [
          -112.038643092263,
          40.3239292825629
        ],
        [
          -112.03863915315,
          40.3236548633076
        ]
      ]
    ]
  }
}