{
  "type": "Feature",
  "properties": {
    "parcel_id": "700420223",
    "owner_name_raw": "CENTURY LAND HOLDINGS OF UTAH LLC",
    "owner_class": "UNCLASSIFIED",
    "epsg": "EPSG:4326"
  },
  "geometry": {
    "type": "Polygon",
    "coordinates": [
      [
        [
          -112.036728233522,
          40.3236709585926
        ],
        [
          -112.036979207541,
          40.3236688519124
        ],
        [
          -112.036983141263,
          40.3239432704259
        ],
        [
          -112.036732164549,
          40.3239453770975
        ],
        [
          -112.036728233522,
          40.3236709585926
        ]
      ]
    ]
  }
}