{
  "type": "Feature",
  "properties": {
    "parcel_id": "700420204",
    "owner_name_raw": "CENTURY LAND HOLDINGS OF UTAH LLC",
    "owner_class": "UNCLASSIFIED",
    "epsg": "EPSG:4326"
  },
  "geometry": {
    "type": "Polygon",
    "coordinates": [
      [
        [
          -112.034379695111,
          40.3236437559767
        ],
        [
          -112.034382549058,
          40.3234022625082
        ],
        [
          -112.034741627237,
          40.3234047438256
        ],
        [
          -112.034738780476,
          40.3236462372853
        ],
        [
          -112.034379695111,
          40.3236437559767
        ]
      ]
    ]
  }
}