{
  "type": "Feature",
  "properties": {
    "parcel_id": "700420308",
    "owner_name_raw": "CENTURY LAND HOLDINGS OF UTAH LLC",
    "owner_class": "UNCLASSIFIED",
    "epsg": "EPSG:4326"
  },
  "geometry": {
    "type": "Polygon",
    "coordinates": [
      [
        [
          -112.038469246696,
          40.3233021145967
        ],
        [
          -112.038472513244,
          40.3232936262458
        ],
        [
          -112.038477620277,
          40.3232856830712
        ],
        [
          -112.038484419901,
          40.3232785151002
        ],
        [
          -112.038492715205,
          40.3232723299112
        ],
        [
          -112.038502265963,
          40.3232673066222
        ],
        [
          -112.038512795595,
          40.3232635907034
        ],
        [
          -112.03852399917,
          40.3232612897648
        ],
        [
          -112.038535552245,
          40.3232604704396
        ],
        [
          -112.038552373199,
          40.3232620052572
        ],
        [
          -112.038620814706,
          40.3232741339036
        ],
        [
          -112.038689721816,
          40.3232846187667
        ],
        [
          -112.038759026627,
          40.3232934495154
        ],
        [
          -112.038828660844,
          40.3233006174484
        ],
        [
          -112.038831360282,
          40.3234885668261
        ],
        [
          -112.038423277208,
          40.3234919987515
        ],
        [
          -112.038445049518,
          40.3233968861289
        ],
        [
          -112.038469246696,
          40.3233021145967
        ]
      ]
    ]
  }
}