{
  "type": "Feature",
  "properties": {
    "parcel_id": "700420228",
    "owner_name_raw": "CENTURY LAND HOLDINGS OF UTAH LLC",
    "owner_class": "UNCLASSIFIED",
    "epsg": "EPSG:4326"
  },
  "geometry": {
    "type": "Polygon",
    "coordinates": [
      [
        [
          -112.035473351748,
          40.3236814796649
        ],
        [
          -112.035724325767,
          40.3236793764094
        ],
        [
          -112.0357282541,
          40.3239537935103
        ],
        [
          -112.035477278284,
          40.323955898127
        ],
        [
          -112.035473351748,
          40.3236814796649
        ]
      ]
    ]
  }
}