{
  "type": "Feature",
  "properties": {
    "parcel_id": "700420310",
    "owner_name_raw": "CENTURY LAND HOLDINGS OF UTAH LLC",
    "owner_class": "UNCLASSIFIED",
    "epsg": "EPSG:4326"
  },
  "geometry": {
    "type": "Polygon",
    "coordinates": [
      [
        [
          -112.03913361373,
          40.3233123021898
        ],
        [
          -112.039210032791,
          40.3233102544907
        ],
        [
          -112.039286315471,
          40.3233062173908
        ],
        [
          -112.039362372698,
          40.3233001956036
        ],
        [
          -112.039438115662,
          40.32329219616
        ],
        [
          -112.039443228873,
          40.323648089192
        ],
        [
          -112.039295297007,
          40.323649334298
        ],
        [
          -112.039138472718,
          40.3236506540554
        ],
        [
          -112.03913361373,
          40.3233123021898
        ]
      ]
    ]
  }
}