{
  "type": "Feature",
  "properties": {
    "parcel_id": "700420212",
    "owner_name_raw": "CENTURY LAND HOLDINGS OF UTAH LLC",
    "owner_class": "UNCLASSIFIED",
    "epsg": "EPSG:4326"
  },
  "geometry": {
    "type": "Polygon",
    "coordinates": [
      [
        [
          -112.035583370218,
          40.3241004405513
        ],
        [
          -112.035794906399,
          40.3240986667324
        ],
        [
          -112.035798834732,
          40.3243730855532
        ],
        [
          -112.035587296754,
          40.3243748579951
        ],
        [
          -112.035583370218,
          40.3241004405513
        ]
      ]
    ]
  }
}