{
  "type": "Feature",
  "properties": {
    "parcel_id": "700420261",
    "owner_name_raw": "CENTURY LAND HOLDINGS OF UTAH LLC",
    "owner_class": "UNCLASSIFIED",
    "epsg": "EPSG:4326"
  },
  "geometry": {
    "type": "Polygon",
    "coordinates": [
      [
        [
          -112.037719230689,
          40.3240654812428
        ],
        [
          -112.038116504335,
          40.3239970384733
        ],
        [
          -112.038121664391,
          40.3240113038133
        ],
        [
          -112.038128631994,
          40.324025115334
        ],
        [
          -112.038137340162,
          40.3240383402655
        ],
        [
          -112.038147705184,
          40.3240508514768
        ],
        [
          -112.038159627422,
          40.3240625286981
        ],
        [
          -112.038172992266,
          40.3240732596768
        ],
        [
          -112.038187671241,
          40.3240829412563
        ],
        [
          -112.038203523238,
          40.3240914803682
        ],
        [
          -112.037986075244,
          40.3243547413239
        ],
        [
          -112.037717027121,
          40.3243570007087
        ],
        [
          -112.037716940883,
          40.3242444827104
        ],
        [
          -112.037719230689,
          40.3240654812428
        ]
      ]
    ]
  }
}