{
  "type": "Feature",
  "properties": {
    "parcel_id": "700420265",
    "owner_name_raw": "CENTURY LAND HOLDINGS OF UTAH LLC",
    "owner_class": "UNCLASSIFIED",
    "epsg": "EPSG:4326"
  },
  "geometry": {
    "type": "Polygon",
    "coordinates": [
      [
        [
          -112.038805816687,
          40.3240733976837
        ],
        [
          -112.039020938943,
          40.3240715889356
        ],
        [
          -112.039024878953,
          40.3243460071816
        ],
        [
          -112.038809754901,
          40.3243478159224
        ],
        [
          -112.038805816687,
          40.3240733976837
        ]
      ]
    ]
  }
}