{
  "type": "Feature",
  "properties": {
    "parcel_id": "700420291",
    "owner_name_raw": "CENTURY LAND HOLDINGS OF UTAH LLC",
    "owner_class": "UNCLASSIFIED",
    "epsg": "EPSG:4326"
  },
  "geometry": {
    "type": "Polygon",
    "coordinates": [
      [
        [
          -112.041161837165,
          40.3234711873504
        ],
        [
          -112.041161595519,
          40.323411607
        ],
        [
          -112.04116118948,
          40.3233120159099
        ],
        [
          -112.041519742144,
          40.3233111591248
        ],
        [
          -112.041520391626,
          40.3234703305673
        ],
        [
          -112.041161837165,
          40.3234711873504
        ]
      ]
    ]
  }
}