{
  "type": "Feature",
  "properties": {
    "parcel_id": "710170003",
    "owner_name_raw": "STEELE RIDGE UTAH LLC",
    "owner_class": "UNCLASSIFIED",
    "epsg": "EPSG:4326"
  },
  "geometry": {
    "type": "Polygon",
    "coordinates": [
      [
        [
          -111.909670415531,
          40.38660448078
        ],
        [
          -111.910067694567,
          40.3866030815141
        ],
        [
          -111.910068081741,
          40.3866676550397
        ],
        [
          -111.910314994477,
          40.3866667887957
        ],
        [
          -111.910318529347,
          40.3872561742574
        ],
        [
          -111.909683900142,
          40.3872337499517
        ],
        [
          -111.909670415531,
          40.38660448078
        ]
      ]
    ]
  }
}