{
  "type": "Feature",
  "properties": {
    "parcel_id": "710670223",
    "owner_name_raw": "MERITAGE HOMES OF UTAH INC",
    "owner_class": "UNCLASSIFIED",
    "epsg": "EPSG:4326"
  },
  "geometry": {
    "type": "Polygon",
    "coordinates": [
      [
        [
          -111.779818385155,
          39.9899341168936
        ],
        [
          -111.779814030122,
          39.9897145548794
        ],
        [
          -111.780315853294,
          39.989713346307
        ],
        [
          -111.780311803689,
          39.9899329193371
        ],
        [
          -111.779818385155,
          39.9899341168936
        ]
      ]
    ]
  }
}