{
  "type": "Feature",
  "properties": {
    "parcel_id": "710710712",
    "owner_name_raw": "CENTURY LAND HOLDINGS OF UTAH LLC",
    "owner_class": "UNCLASSIFIED",
    "epsg": "EPSG:4326"
  },
  "geometry": {
    "type": "Polygon",
    "coordinates": [
      [
        [
          -111.999555373041,
          40.3184876785026
        ],
        [
          -111.999554981376,
          40.3184821696176
        ],
        [
          -111.999556305363,
          40.3184712775091
        ],
        [
          -111.999560441507,
          40.3184608031757
        ],
        [
          -111.999567224857,
          40.3184511643355
        ],
        [
          -111.999576384893,
          40.3184427453875
        ],
        [
          -111.999587556311,
          40.318435882081
        ],
        [
          -111.999600293593,
          40.3184308481263
        ],
        [
          -111.999614088774,
          40.3184278442786
        ],
        [
          -111.999628391701,
          40.3184269903322
        ],
        [
          -111.999741582737,
          40.3184308221845
        ],
        [
          -111.999854472505,
          40.3184381896171
        ],
        [
          -111.999962546122,
          40.3184466341137
        ],
        [
          -111.999922144392,
          40.3187613228781
        ],
        [
          -111.999582431196,
          40.3187453428601
        ],
        [
          -111.999571075428,
          40.3186163781267
        ],
        [
          -111.999555373041,
          40.3184876785026
        ]
      ]
    ]
  }
}