{
  "type": "Feature",
  "properties": {
    "parcel_id": "710920812",
    "owner_name_raw": "CENTURY LAND HOLDINGS OF UTAH LLC",
    "owner_class": "UNCLASSIFIED",
    "epsg": "EPSG:4326"
  },
  "geometry": {
    "type": "Polygon",
    "coordinates": [
      [
        [
          -111.99958917934,
          40.3195646743519
        ],
        [
          -111.999868505986,
          40.3195708214923
        ],
        [
          -111.99991326724,
          40.3195718050347
        ],
        [
          -111.999912500977,
          40.3199263204547
        ],
        [
          -111.999659017065,
          40.3199257964951
        ],
        [
          -111.999644997238,
          40.3199246904397
        ],
        [
          -111.999631530364,
          40.3199215188828
        ],
        [
          -111.99961913467,
          40.3199164038704
        ],
        [
          -111.999608287162,
          40.3199095422356
        ],
        [
          -111.999599405267,
          40.319901198024
        ],
        [
          -111.999592830775,
          40.3198916923332
        ],
        [
          -111.999588816682,
          40.3198813909563
        ],
        [
          -111.999587517457,
          40.3198706903056
        ],
        [
          -111.99958917934,
          40.3195646743519
        ]
      ]
    ]
  }
}