{
  "type": "Feature",
  "properties": {
    "parcel_id": "710920817",
    "owner_name_raw": "CENTURY LAND HOLDINGS OF UTAH LLC",
    "owner_class": "UNCLASSIFIED",
    "epsg": "EPSG:4326"
  },
  "geometry": {
    "type": "Polygon",
    "coordinates": [
      [
        [
          -112.000844238082,
          40.3195922738092
        ],
        [
          -112.000834931535,
          40.3195920779226
        ],
        [
          -112.000850516407,
          40.3192655808801
        ],
        [
          -112.00101274957,
          40.3192694181807
        ],
        [
          -112.00117502921,
          40.3192718588677
        ],
        [
          -112.001166240992,
          40.3195993284631
        ],
        [
          -112.000844238082,
          40.3195922738092
        ]
      ]
    ]
  }
}