{
  "type": "Feature",
  "properties": {
    "parcel_id": "710920818",
    "owner_name_raw": "CENTURY LAND HOLDINGS OF UTAH LLC",
    "owner_class": "UNCLASSIFIED",
    "epsg": "EPSG:4326"
  },
  "geometry": {
    "type": "Polygon",
    "coordinates": [
      [
        [
          -112.001166245483,
          40.3195993510655
        ],
        [
          -112.001175032804,
          40.3192718746208
        ],
        [
          -112.001495345084,
          40.3192725910484
        ],
        [
          -112.001494636314,
          40.3196065790029
        ],
        [
          -112.001166245483,
          40.3195993510655
        ]
      ]
    ]
  }
}