{
  "type": "Feature",
  "properties": {
    "parcel_id": "710920806",
    "owner_name_raw": "CENTURY LAND HOLDINGS OF UTAH LLC",
    "owner_class": "UNCLASSIFIED",
    "epsg": "EPSG:4326"
  },
  "geometry": {
    "type": "Polygon",
    "coordinates": [
      [
        [
          -112.001493967967,
          40.3199295916063
        ],
        [
          -112.001494634517,
          40.3196065755783
        ],
        [
          -112.001822381255,
          40.3195993832566
        ],
        [
          -112.001821705722,
          40.3199302696716
        ],
        [
          -112.001493967967,
          40.3199295916063
        ]
      ]
    ]
  }
}