{
  "geometry": {
    "coordinates": [
      [
        [
          0,
          0
        ],
        [
          500,
          0
        ],
        [
          500,
          400
        ],
        [
          0,
          400
        ],
        [
          0,
          0
        ]
      ]
    ],
    "type": "Polygon"
  },
  "properties": {
    "crs": "local-feet",
    "parcel_id": "syn-mu11-003",
    "source": "SYNTHETIC fixture for screener testing. NOT a real parcel, NOT real zoning."
  },
  "type": "Feature"
}
