{"type": "Feature", "geometry": {"type": "Polygon", "coordinates": [[[1529150.854878977, 7455484.472692109], [1529150.7653059799, 7455464.642953423], [1529112.2651033818, 7455464.8181574475], [1529112.3552048441, 7455484.647893796], [1529150.854878977, 7455484.472692109]]]}, "properties": {"parcel_id": "08253770300000", "crs": "local-feet", "address": "365 W 800 N # 2", "city": "Salt Lake City", "county": "SaltLake", "source_srid": "EPSG:4326", "district": "MU-5", "zone_label": "Mixed Use 5", "district_provenance": "centroid-contains"}}