{"type": "Feature", "geometry": {"type": "Polygon", "coordinates": [[[1529072.1137934583, 7454941.058264959], [1529071.7674927372, 7454854.776057231], [1529001.343312947, 7454855.090738535], [1529001.6891732248, 7454941.331066236], [1529072.1137934583, 7454941.058264959]]]}, "properties": {"parcel_id": "08253780250000", "crs": "local-feet", "address": "376 W 700 N", "city": "Salt Lake City", "county": "SaltLake", "source_srid": "EPSG:4326", "district": "MU-5", "zone_label": "Mixed Use 5", "district_provenance": "centroid-contains"}}