{"type": "Feature", "geometry": {"type": "Polygon", "coordinates": [[[1518153.8725926294, 7460137.336918676], [1518153.2744641253, 7460051.701812946], [1518119.355807019, 7460051.544211238], [1518098.1241863456, 7460051.445646294], [1518093.9246067822, 7460140.071032507], [1518109.3774134994, 7460138.003114108], [1518124.953209504, 7460137.3184082275], [1518153.8725926294, 7460137.336918676]]]}, "properties": {"parcel_id": "08223810650000", "crs": "local-feet", "address": "1769 W MIAMI CIR", "city": "Salt Lake City", "county": "SaltLake", "source_srid": "EPSG:4326", "district": "R-1-7000", "zone_label": "Single Family Residential", "district_provenance": "centroid-contains"}}