{"type": "Feature", "geometry": {"type": "Polygon", "coordinates": [[[1517250.3332137433, 7460439.776344399], [1517256.6830760238, 7460439.7504631], [1517256.2432035543, 7460348.401264972], [1517180.2435531998, 7460348.711206687], [1517180.68320846, 7460440.060406195], [1517250.3332137433, 7460439.776344399]]]}, "properties": {"parcel_id": "08223580150000", "crs": "local-feet", "address": "1888 W SPRINGFIELD RD", "city": "Salt Lake City", "county": "SaltLake", "source_srid": "EPSG:4326", "district": "R-1-7000", "zone_label": "Single Family Residential", "district_provenance": "centroid-contains"}}