{"type": "Feature", "geometry": {"type": "Polygon", "coordinates": [[[1516865.5969196525, 7460095.885334363], [1516783.5968321776, 7460095.839403532], [1516783.520029741, 7460197.340122255], [1516865.520022364, 7460197.384563148], [1516865.5969196525, 7460095.885334363]]]}, "properties": {"parcel_id": "08223550100000", "crs": "local-feet", "address": "1938 W MORTON DR", "city": "Salt Lake City", "county": "SaltLake", "source_srid": "EPSG:4326", "district": "R-1-7000", "zone_label": "Single Family Residential", "district_provenance": "centroid-contains"}}