{"type": "Feature", "geometry": {"type": "Polygon", "coordinates": [[[1528762.0561178273, 7455285.725410703], [1528761.919821454, 7455252.895082146], [1528742.249591207, 7455252.976818141], [1528742.3861623358, 7455285.807145468], [1528742.3906705086, 7455286.807078074], [1528754.060096462, 7455286.758434604], [1528754.055837445, 7455285.758500868], [1528762.0561178273, 7455285.725410703]]]}, "properties": {"parcel_id": "08253760460000", "crs": "local-feet", "address": "765 N 400 W # 302", "city": "Salt Lake City", "county": "SaltLake", "source_srid": "EPSG:4326", "district": "MU-5", "zone_label": "Mixed Use 5", "district_provenance": "centroid-contains"}}