{"type": "Feature", "geometry": {"type": "Polygon", "coordinates": [[[1520347.7603791824, 7460130.109279335], [1520348.0581991712, 7460010.388080528], [1520337.5584261552, 7460010.417432446], [1520273.5574157329, 7460010.596270181], [1520273.3076947064, 7460010.597233891], [1520273.009648383, 7460130.299854214], [1520273.2596204407, 7460130.299632598], [1520337.2606437127, 7460130.135906026], [1520347.7603791824, 7460130.109279335]]]}, "properties": {"parcel_id": "08224770020000", "crs": "local-feet", "address": "1462 W SUNSET DR", "city": "Salt Lake City", "county": "SaltLake", "source_srid": "EPSG:4326", "district": "R-1-7000", "zone_label": "Single Family Residential", "district_provenance": "centroid-contains"}}