{"type": "Feature", "geometry": {"type": "Polygon", "coordinates": [[[1516452.642924, 7460442.815942152], [1516452.3564492369, 7460372.815868902], [1516352.3559705263, 7460373.237353976], [1516352.6429740973, 7460443.236929554], [1516452.642924, 7460442.815942152]]]}, "properties": {"parcel_id": "08223520100000", "crs": "local-feet", "address": "1394 N GENERAL DR", "city": "Salt Lake City", "county": "SaltLake", "source_srid": "EPSG:4326", "district": "R-1-7000", "zone_label": "Single Family Residential", "district_provenance": "centroid-contains"}}