{"type": "Feature", "geometry": {"type": "Polygon", "coordinates": [[[1523471.7035199874, 7460003.2203202145], [1523471.6126695229, 7459953.220011306], [1523331.6119435835, 7459953.475163013], [1523331.7025782547, 7460003.475226819], [1523331.7934631307, 7460053.475437047], [1523331.8845990994, 7460103.476041462], [1523331.9754850923, 7460153.476299145], [1523332.0663714812, 7460203.476456674], [1523472.0666801317, 7460203.221546562], [1523471.9758265978, 7460153.221142713], [1523471.884974344, 7460103.220886499], [1523471.79437084, 7460053.2205289705], [1523471.7035199874, 7460003.2203202145]]]}, "properties": {"parcel_id": "08233810010000", "crs": "local-feet", "address": "1400 N 1200 W", "city": "Salt Lake City", "county": "SaltLake", "source_srid": "EPSG:4326", "district": "OS", "zone_label": "Open Space", "district_provenance": "centroid-contains"}}