{"type": "Feature", "geometry": {"type": "Polygon", "coordinates": [[[1529056.7654812224, 7455700.475519514], [1529056.7005443838, 7455684.150453036], [1529029.8004506258, 7455684.263228784], [1529029.8661503978, 7455700.588044001], [1529056.7654812224, 7455700.475519514]]]}, "properties": {"parcel_id": "08253300020000", "crs": "local-feet", "address": "370 W 800 N # 2", "city": "Salt Lake City", "county": "SaltLake", "source_srid": "EPSG:4326", "district": "MU-5", "zone_label": "Mixed Use 5", "district_provenance": "centroid-contains"}}