{"type": "Feature", "geometry": {"type": "Polygon", "coordinates": [[[1528870.574888606, 7455081.682157903], [1528869.9185868308, 7454919.25918313], [1528704.9165921207, 7454919.25955721], [1528560.6405350687, 7454919.260362443], [1528560.6407855854, 7454985.260620904], [1528540.1800959723, 7454985.260834811], [1528540.5844871954, 7455085.261014997], [1528705.5800540007, 7455083.471530884], [1528706.0084307664, 7455083.466872929], [1528870.574888606, 7455081.682157903]]]}, "properties": {"parcel_id": "08253760140000", "crs": "local-feet", "address": "741 N 400 W", "city": "Salt Lake City", "county": "SaltLake", "source_srid": "EPSG:4326", "district": "M-1", "zone_label": "Light Manufacturing", "district_provenance": "centroid-contains"}}