{"type": "Feature", "geometry": {"type": "Polygon", "coordinates": [[[1529208.583832822, 7455424.71925261], [1529208.4935605442, 7455404.889717613], [1529169.9940113963, 7455405.064828597], [1529170.0843144876, 7455424.894363423], [1529208.583832822, 7455424.71925261]]]}, "properties": {"parcel_id": "08253770400000", "crs": "local-feet", "address": "365 W 800 N # 12", "city": "Salt Lake City", "county": "SaltLake", "source_srid": "EPSG:4326", "district": "MU-5", "zone_label": "Mixed Use 5", "district_provenance": "centroid-contains"}}