{"type": "Feature", "geometry": {"type": "Polygon", "coordinates": [[[1522545.765746192, 7460167.975256795], [1522545.1456086445, 7459705.625806315], [1522514.2777080694, 7459705.76704302], [1522431.1705575346, 7459805.734607329], [1522415.8278759194, 7459824.190167072], [1522376.831592914, 7459871.098217798], [1522354.0218557853, 7459898.535512152], [1522330.3678410847, 7459926.987990659], [1522312.2631703152, 7459947.690380292], [1522293.1447384788, 7459967.461511721], [1522291.358736741, 7459969.210642464], [1522289.204988328, 7459971.298995386], [1522287.0397420505, 7459973.375510022], [1522284.498749425, 7459975.7828607205], [1522281.9432535805, 7459978.173927545], [1522279.7036087778, 7459980.2443550145], [1522251.8156212058, 7460004.21422573], [1522222.3873472284, 7460026.265514147], [1522196.2865992868, 7460043.411130189], [1522169.2546469576, 7460059.047067558], [1522364.6091414837, 7460270.783952996], [1522495.1052766095, 7460382.063258135], [1522545.765746192, 7460167.975256795]]]}, "properties": {"parcel_id": "08233510040000", "crs": "local-feet", "address": "1385 N 1200 W", "city": "Salt Lake City", "county": "SaltLake", "source_srid": "EPSG:4326", "district": "OS", "zone_label": "Open Space", "district_provenance": "centroid-contains"}}