{"type": "Feature", "geometry": {"type": "Polygon", "coordinates": [[[1520132.2581332494, 7460130.659497877], [1520132.5559127633, 7460010.990817279], [1520057.5551868821, 7460011.200846072], [1520057.2576791865, 7460130.850945777], [1520132.2581332494, 7460130.659497877]]]}, "properties": {"parcel_id": "08224520050000", "crs": "local-feet", "address": "1385 N 1500 W", "city": "Salt Lake City", "county": "SaltLake", "source_srid": "EPSG:4326", "district": "R-1-7000", "zone_label": "Single Family Residential", "district_provenance": "centroid-contains"}}