{"type": "Feature", "geometry": {"type": "Polygon", "coordinates": [[[1528946.0399115805, 7458664.584948473], [1528918.0288564684, 7458693.743146767], [1528832.2293570042, 7458783.0588033395], [1528841.1096253837, 7458805.789739309], [1528847.273406837, 7458824.498217296], [1528851.4293081486, 7458843.752428797], [1528853.5315909248, 7458863.337253005], [1528853.5566446115, 7458883.034992891], [1528851.5037288622, 7458902.625123791], [1528847.3962435538, 7458921.889739257], [1528841.2799871364, 7458940.613558694], [1528833.223172872, 7458958.587891705], [1528823.3154443218, 7458975.612624657], [1528879.14713509, 7458901.316453826], [1528882.9667802018, 7458897.27970089], [1528886.51547222, 7458893.391847329], [1528889.995732277, 7458889.442355854], [1528893.406325217, 7458885.432966438], [1528896.7465089858, 7458881.364673507], [1528900.0155429319, 7458877.238719245], [1528903.2114417583, 7458873.056103646], [1528906.3342140976, 7458868.818808952], [1528909.3826189183, 7458864.527336208], [1528912.3554188258, 7458860.183177674], [1528915.2523740714, 7458855.788316628], [1528918.0722430611, 7458851.343254176], [1528920.8135405728, 7458846.849483667], [1528923.4762738347, 7458842.308739531], [1528926.0592059828, 7458837.722513947], [1528928.5618416462, 7458833.091304683], [1528930.983444889, 7458828.417345009], [1528933.3230274867, 7458823.70212616], [1528935.5798470944, 7458818.946642474], [1528937.7531635733, 7458814.1521361945], [1528939.84248935, 7458809.320839467], [1528941.8475799225, 7458804.45374458], [1528943.7671975777, 7458799.5520959655], [1528945.6008541733, 7458794.618125818], [1528947.348304644, 7458789.652578591], [1528949.00881164, 7458784.657439814], [1528950.5818845038, 7458779.634198346], [1528952.0670309123, 7458774.584095344], [1528953.4637615953, 7458769.50886748], [1528954.7715861858, 7458764.410251436], [1528955.9907574514, 7458759.28898931], [1528957.1197946041, 7458754.147813465], [1528958.159198788, 7458748.987464932], [1528959.1084824046, 7458743.810176033], [1528959.9669014055, 7458738.616445549], [1528960.7347163768, 7458733.408998004], [1528961.4114349724, 7458728.188826723], [1528961.9970632736, 7458722.957418369], [1528962.4916104183, 7458717.716755147], [1528962.8940890061, 7458712.468576065], [1528963.205248545, 7458707.213621001], [1528963.424602831, 7458701.9543700535], [1528963.5519087277, 7458696.692063274], [1528963.5876710108, 7458691.428432803], [1528963.531148128, 7458686.164473191], [1528963.3833474368, 7458680.902905486], [1528963.1430284195, 7458675.6444787], [1528962.8119396605, 7458670.390919433], [1528962.3883491848, 7458665.144217796], [1528961.8735049313, 7458659.905359292], [1528961.2674182686, 7458654.676821775], [1528960.5700910843, 7458649.45910081], [1528946.0399115805, 7458664.584948473]]]}, "properties": {"parcel_id": "08251260070000", "crs": "local-feet", "address": "1206 N BECK ST", "city": "Salt Lake City", "county": "SaltLake", "source_srid": "EPSG:4326", "district": "M-1", "zone_label": "Light Manufacturing", "district_provenance": "centroid-contains"}}