{"type": "Feature", "geometry": {"type": "Polygon", "coordinates": [[[1516922.410610434, 7460440.99540373], [1516933.9704522842, 7460440.949901637], [1516933.9827679994, 7460346.697052346], [1516851.940830449, 7460347.01979541], [1516848.9621264501, 7460347.330496187], [1516846.1047441734, 7460348.227808446], [1516843.4826647171, 7460349.674741153], [1516841.2008181135, 7460351.614774264], [1516839.3500957887, 7460353.969406353], [1516838.0046505798, 7460356.645353165], [1516837.2179203935, 7460359.535310968], [1516837.012967335, 7460362.076973156], [1516837.3800967236, 7460441.330127061], [1516922.410610434, 7460440.99540373]]]}, "properties": {"parcel_id": "08223540060000", "crs": "local-feet", "address": "1928 W SPRINGFIELD RD", "city": "Salt Lake City", "county": "SaltLake", "source_srid": "EPSG:4326", "district": "R-1-7000", "zone_label": "Single Family Residential", "district_provenance": "centroid-contains"}}