{"type": "Feature", "geometry": {"type": "Polygon", "coordinates": [[[1530723.481653442, 7459841.310610254], [1530091.0028081292, 7459847.306016036], [1529430.9989408508, 7459853.562570665], [1529397.8959426675, 7459853.876209497], [1529400.1811950898, 7460448.599988963], [1529401.4491232138, 7460778.599961972], [1529402.9235065565, 7461162.309382275], [1530728.0856670926, 7461155.789361319], [1530723.481653442, 7459841.310610254]]]}, "properties": {"parcel_id": "08244000060000", "crs": "local-feet", "address": "1173 N SANDHURST DR", "city": "Salt Lake City", "county": "SaltLake", "source_srid": "EPSG:4326", "district": "OS", "zone_label": "Open Space", "district_provenance": "centroid-contains"}}