{"type": "Feature", "geometry": {"type": "Polygon", "coordinates": [[[1527671.785214569, 7459343.610059243], [1527592.6102137526, 7459349.586550503], [1527505.4019072272, 7459356.731278976], [1527424.1504617769, 7459371.033746452], [1527352.9157691654, 7459394.500942287], [1527286.4518555934, 7459427.037536138], [1527241.9018927764, 7459455.748516776], [1527193.5035453152, 7459497.450558845], [1527373.9156579296, 7459659.085339449], [1527472.6901312445, 7459553.039035557], [1527671.785214569, 7459343.610059243]]]}, "properties": {"parcel_id": "08251010020000", "crs": "local-feet", "address": "1335 N BECK ST", "city": "Salt Lake City", "county": "SaltLake", "source_srid": "EPSG:4326", "district": "M-1", "zone_label": "Light Manufacturing", "district_provenance": "centroid-contains"}}