{"type": "Feature", "geometry": {"type": "Polygon", "coordinates": [[[1529404.1942258207, 7455390.731503653], [1529404.1026177634, 7455370.901948316], [1529350.1033385887, 7455371.151702312], [1529350.1952388368, 7455390.981256312], [1529404.1942258207, 7455390.731503653]]]}, "properties": {"parcel_id": "08253770170000", "crs": "local-feet", "address": "775 N MARMALADE LN", "city": "Salt Lake City", "county": "SaltLake", "source_srid": "EPSG:4326", "district": "MU-5", "zone_label": "Mixed Use 5", "district_provenance": "centroid-contains"}}