{"type": "Feature", "geometry": {"type": "Polygon", "coordinates": [[[1518367.5334581803, 7460406.776187136], [1518428.7628040374, 7460406.42420616], [1518428.377444008, 7460344.804895776], [1518338.1060459416, 7460306.157444934], [1518334.168353425, 7460312.649624013], [1518329.3038737918, 7460318.479867408], [1518323.622394222, 7460323.516811867], [1518317.2509512168, 7460327.646600933], [1518310.333104487, 7460330.777348074], [1518346.1838475561, 7460406.899006278], [1518367.5334581803, 7460406.776187136]]]}, "properties": {"parcel_id": "08223810570000", "crs": "local-feet", "address": "1380 N MIAMI CIR", "city": "Salt Lake City", "county": "SaltLake", "source_srid": "EPSG:4326", "district": "R-1-7000", "zone_label": "Single Family Residential", "district_provenance": "centroid-contains"}}