{"type": "Feature", "geometry": {"type": "Polygon", "coordinates": [[[1520871.0263987079, 7460128.773095841], [1520871.3248888515, 7460008.924314637], [1520816.9740054188, 7460009.076475668], [1520796.5736430085, 7460009.133131008], [1520796.2754272406, 7460128.963826858], [1520816.675465044, 7460128.911879849], [1520871.0263987079, 7460128.773095841]]]}, "properties": {"parcel_id": "08224770090000", "crs": "local-feet", "address": "1404 W SUNSET DR", "city": "Salt Lake City", "county": "SaltLake", "source_srid": "EPSG:4326", "district": "R-1-7000", "zone_label": "Single Family Residential", "district_provenance": "centroid-contains"}}