{"type": "Feature", "geometry": {"type": "Polygon", "coordinates": [[[1528742.3861623358, 7455285.807145468], [1528742.249591207, 7455252.976818141], [1528722.5803560396, 7455253.058565275], [1528722.7167042757, 7455285.8888936145], [1528722.720964558, 7455286.888827341], [1528734.390390473, 7455286.8401746275], [1528734.3858830947, 7455285.840489814], [1528742.3861623358, 7455285.807145468]]]}, "properties": {"parcel_id": "08253760450000", "crs": "local-feet", "address": "765 N 400 W # 301", "city": "Salt Lake City", "county": "SaltLake", "source_srid": "EPSG:4326", "district": "MU-5", "zone_label": "Mixed Use 5", "district_provenance": "centroid-contains"}}