{"type": "Feature", "geometry": {"type": "Polygon", "coordinates": [[[1516581.5116133897, 7460123.907393613], [1516494.6906739692, 7460062.015313145], [1516482.4482489314, 7460092.650081592], [1516458.1148006255, 7460153.538435934], [1516560.5894246018, 7460184.974747075], [1516565.1357131724, 7460163.840311089], [1516572.1421304694, 7460143.389301326], [1516581.5116133897, 7460123.907393613]]]}, "properties": {"parcel_id": "08223520300000", "crs": "local-feet", "address": "1389 N MORTON DR", "city": "Salt Lake City", "county": "SaltLake", "source_srid": "EPSG:4326", "district": "R-1-7000", "zone_label": "Single Family Residential", "district_provenance": "centroid-contains"}}