{"type": "Feature", "geometry": {"type": "Polygon", "coordinates": [[[1525222.4227872896, 7460371.908466824], [1525221.8196641842, 7460246.899523205], [1525196.8222443743, 7460247.05421678], [1525171.8250736722, 7460247.208934433], [1525172.4100427132, 7460372.217714383], [1525197.4162900073, 7460372.062954685], [1525222.4227872896, 7460371.908466824]]]}, "properties": {"parcel_id": "08234560100000", "crs": "local-feet", "address": "878 W EVERETT AVE", "city": "Salt Lake City", "county": "SaltLake", "source_srid": "EPSG:4326", "district": "M-2", "zone_label": "Heavy Manufacturing", "district_provenance": "centroid-contains"}}