{"type": "Feature", "geometry": {"type": "Polygon", "coordinates": [[[1531465.1422180089, 7457464.0912657045], [1531348.036998395, 7457464.095226529], [1531356.4723955675, 7457485.812998433], [1531363.7482904291, 7457507.238750273], [1531369.1517188146, 7457529.211688951], [1531372.6426628698, 7457551.568441999], [1531374.1955202785, 7457574.142600846], [1531374.2198645645, 7457575.095520404], [1531466.8645493172, 7457567.000162397], [1531475.5678455075, 7457666.62164142], [1531383.3360536287, 7457674.680924338], [1531388.092766691, 7457696.675398828], [1531393.8590844593, 7457718.427031397], [1531427.133235434, 7457833.17909919], [1531432.3488864463, 7457849.816839578], [1531438.2749013945, 7457866.214305449], [1531481.3788606992, 7457977.766623306], [1531489.7741271418, 7458001.567360313], [1531496.7592104876, 7458025.819314049], [1531502.309371681, 7458050.439332713], [1531563.6710370257, 7458365.895876166], [1531577.6876513993, 7458427.7108272705], [1531654.1574770028, 7458732.442396674], [1531465.1422180089, 7457464.0912657045]]]}, "properties": {"parcel_id": "08252780190000", "crs": "local-feet", "address": "982 N SANDHURST DR", "city": "Salt Lake City", "county": "SaltLake", "source_srid": "EPSG:4326", "district": "FR-2", "zone_label": "FR-2/21780 Foothills Estates Residential", "district_provenance": "centroid-contains"}}