{"type": "Feature", "geometry": {"type": "Polygon", "coordinates": [[[1530091.0043395802, 7458615.950253184], [1530751.0072113757, 7458615.949055863], [1530751.008012828, 7458077.845447548], [1530751.8776669935, 7457625.94507296], [1530673.0673415621, 7457625.9556623], [1529492.5470045607, 7457629.77963462], [1529488.1283330175, 7457635.209316797], [1529482.7454145355, 7457641.787393308], [1529477.9801157578, 7457647.579418683], [1529472.5614995714, 7457654.128166338], [1529467.4443288837, 7457660.277850236], [1529462.3106789186, 7457666.413235364], [1529456.8373919933, 7457672.916879808], [1529451.669041613, 7457679.023427432], [1529446.4839641307, 7457685.115925211], [1529440.9569972623, 7457691.573471078], [1529436.0646216858, 7457697.25827133], [1529431.0025991094, 7457703.10960689], [1529431.0008160437, 7458615.951943857], [1530091.0043395802, 7458615.950253184]]]}, "properties": {"parcel_id": "08252000080000", "crs": "local-feet", "address": "1020 N VICTORY RD", "city": "Salt Lake City", "county": "SaltLake", "source_srid": "EPSG:4326", "district": "EI", "zone_label": "Extractive Industry", "district_provenance": "centroid-contains"}}