{"type": "Feature", "geometry": {"type": "Polygon", "coordinates": [[[1517423.1912973956, 7459933.204672498], [1517344.2029697883, 7459932.836168455], [1517343.1916023216, 7459932.831283555], [1517342.716215345, 7460034.570997542], [1517422.7158316572, 7460034.944628362], [1517423.1912973956, 7459933.204672498]]]}, "properties": {"parcel_id": "08223600040000", "crs": "local-feet", "address": "1865 W MORTON DR", "city": "Salt Lake City", "county": "SaltLake", "source_srid": "EPSG:4326", "district": "R-1-7000", "zone_label": "Single Family Residential", "district_provenance": "centroid-contains"}}