{"type": "Feature", "geometry": {"type": "Polygon", "coordinates": [[[1521345.6812964736, 7460127.560979538], [1521345.9802835837, 7460007.596507635], [1521289.979345921, 7460007.752838561], [1521289.6808143577, 7460127.703931133], [1521345.6812964736, 7460127.560979538]]]}, "properties": {"parcel_id": "08224770160000", "crs": "local-feet", "address": "1350 W SUNSET DR", "city": "Salt Lake City", "county": "SaltLake", "source_srid": "EPSG:4326", "district": "R-1-7000", "zone_label": "Single Family Residential", "district_provenance": "centroid-contains"}}