{"type": "Feature", "geometry": {"type": "Polygon", "coordinates": [[[1517332.0983834916, 7460292.099761855], [1517331.729709204, 7460197.103208494], [1517255.7295935145, 7460197.412670411], [1517256.0988116632, 7460292.409964922], [1517332.0983834916, 7460292.099761855]]]}, "properties": {"parcel_id": "08223590030000", "crs": "local-feet", "address": "1877 W SPRINGFIELD RD", "city": "Salt Lake City", "county": "SaltLake", "source_srid": "EPSG:4326", "district": "R-1-7000", "zone_label": "Single Family Residential", "district_provenance": "centroid-contains"}}