{"type": "Feature", "geometry": {"type": "Polygon", "coordinates": [[[1522771.7833400134, 7460050.258414211], [1522771.602300078, 7459950.259098897], [1522625.455415587, 7459950.2595264865], [1522625.592273106, 7460050.258560912], [1522771.7833400134, 7460050.258414211]]]}, "properties": {"parcel_id": "08233530060000", "crs": "local-feet", "address": "1380 N 1200 W", "city": "Salt Lake City", "county": "SaltLake", "source_srid": "EPSG:4326", "district": "OS", "zone_label": "Open Space", "district_provenance": "centroid-contains"}}