{"type": "Feature", "geometry": {"type": "Polygon", "coordinates": [[[1532018.7960852385, 7457278.061111517], [1531986.5335987788, 7457149.371650258], [1531874.0142030842, 7457177.572850311], [1531864.1439639279, 7457179.328162849], [1531896.6997422513, 7457309.188369664], [1532018.7960852385, 7457278.061111517]]]}, "properties": {"parcel_id": "08252770020000", "crs": "local-feet", "address": "16 E CHURCH HILL DR", "city": "Salt Lake City", "county": "SaltLake", "source_srid": "EPSG:4326", "district": "FR-3", "zone_label": "FR-3/12000 Foothills Estates Residential", "district_provenance": "centroid-contains"}}