{"type": "Feature", "geometry": {"type": "Polygon", "coordinates": [[[1528781.726319829, 7455285.643194774], [1528781.5898030759, 7455252.813362891], [1528761.919821454, 7455252.895082146], [1528762.0561178273, 7455285.725410703], [1528762.0606252062, 7455286.725343309], [1528773.7300511952, 7455286.676709137], [1528773.7255454045, 7455285.677024319], [1528781.726319829, 7455285.643194774]]]}, "properties": {"parcel_id": "08253760470000", "crs": "local-feet", "address": "765 N 400 W # 303", "city": "Salt Lake City", "county": "SaltLake", "source_srid": "EPSG:4326", "district": "MU-5", "zone_label": "Mixed Use 5", "district_provenance": "centroid-contains"}}