{"type": "Feature", "geometry": {"type": "Polygon", "coordinates": [[[1525121.0591031024, 7460070.609272585], [1525120.9977341094, 7460056.519218942], [1525118.716200808, 7460056.533061944], [1525096.0375213504, 7460065.720271377], [1525071.0815541395, 7460075.828916972], [1525071.1476851366, 7460090.828510374], [1525096.1036326156, 7460080.718879743], [1525121.0591031024, 7460070.609272585]]]}, "properties": {"parcel_id": "08234570070000", "crs": "local-feet", "city": "Salt Lake City", "county": "SaltLake", "source_srid": "EPSG:4326", "district": "M-2", "zone_label": "Heavy Manufacturing", "district_provenance": "centroid-contains"}}