{"type": "Feature", "geometry": {"type": "Polygon", "coordinates": [[[1528256.4388922802, 7458722.139667722], [1528220.7349235325, 7458687.620277478], [1528172.586298377, 7458737.421881366], [1528041.9299092595, 7458611.101482411], [1527997.3670821034, 7458657.166798798], [1528163.7391620837, 7458818.0174461575], [1528256.4388922802, 7458722.139667722]]]}, "properties": {"parcel_id": "08251760320000", "crs": "local-feet", "address": "1217 N BECK ST", "city": "Salt Lake City", "county": "SaltLake", "source_srid": "EPSG:4326", "district": "M-1", "zone_label": "Light Manufacturing", "district_provenance": "centroid-contains"}}