{"type": "Feature", "geometry": {"type": "Polygon", "coordinates": [[[1531300.6373687284, 7458254.769975682], [1531258.1465824621, 7458137.259107205], [1531066.3246233137, 7458206.705473193], [1531111.1067066437, 7458323.380441269], [1531300.6373687284, 7458254.769975682]]]}, "properties": {"parcel_id": "08252780050000", "crs": "local-feet", "address": "1121 N TWICKENHAM DR", "city": "Salt Lake City", "county": "SaltLake", "source_srid": "EPSG:4326", "district": "FR-2", "zone_label": "FR-2/21780 Foothills Estates Residential", "district_provenance": "centroid-contains"}}