{"type": "Feature", "geometry": {"type": "Polygon", "coordinates": [[[1531296.5286688893, 7457050.545384719], [1531303.662335745, 7457006.951553708], [1531312.4162642832, 7456963.653822257], [1531322.7787906637, 7456920.7132047685], [1531334.0213855247, 7456880.577497873], [1531346.6691313793, 7456840.862015023], [1531360.7060842721, 7456801.616639406], [1531375.531119093, 7456764.283025132], [1531391.6137607056, 7456727.473140619], [1531407.8395875227, 7456691.985616765], [1531409.9236205034, 7456687.4403624395], [1531411.932713564, 7456683.106815565], [1531420.7498297114, 7456664.668928319], [1531429.888055731, 7456646.387717988], [1531439.3436868591, 7456628.269149024], [1531449.114009197, 7456610.318190127], [1531459.1960620421, 7456592.540306845], [1531469.5871325056, 7456574.940715817], [1531480.2837665726, 7456557.525875946], [1531491.2822516921, 7456540.300017076], [1531502.5801260257, 7456523.268850443], [1531514.1734312954, 7456506.437350388], [1531526.0587081546, 7456489.81073688], [1531545.5095040537, 7456463.859060206], [1531547.9578776879, 7456460.695686488], [1531550.7252161573, 7456457.1468083365], [1531553.505537971, 7456453.608528677], [1531556.3003387128, 7456450.081584394], [1531558.7953966956, 7456446.955176018], [1531561.6151633481, 7456443.448194129], [1531564.8019867088, 7456439.5173339145], [1531622.5497109203, 7456368.622343608], [1531628.130292904, 7456361.771441835], [1531630.951830596, 7456358.833169697], [1531634.2128864976, 7456356.392797888], [1531637.8269197608, 7456354.51365014], [1531641.6981288313, 7456353.246452798], [1531645.723674607, 7456352.625359654], [1531649.796900708, 7456352.6652120855], [1531653.809346924, 7456353.366486388], [1531657.6547037978, 7456354.709576802], [1531661.2308244258, 7456356.6597427], [1531664.4431936594, 7456359.164119957], [1531666.8389884634, 7456361.3571175635], [1531669.0623493541, 7456363.371458638], [1531671.296105851, 7456365.373859266], [1531673.539764681, 7456367.365312846], [1531673.2549282627, 7456375.638172693], [1531674.33876176, 7456383.845051138], [1531676.7616649938, 7456391.760324837], [1531680.457509923, 7456399.16745226], [1531685.32465314, 7456405.863182142], [1531691.2301955887, 7456411.664473056], [1531698.0117401888, 7456416.411954998], [1531705.483135596, 7456419.975107998], [1531713.4404649674, 7456422.256695964], [1531721.6652892707, 7456423.194487325], [1531729.9316162628, 7456422.7624629205], [1531738.013617113, 7456420.9717738805], [1531740.3529502018, 7456420.448050846], [1531742.7456868084, 7456420.302744791], [1531745.1311468277, 7456420.540086849], [1531747.4486042075, 7456421.1539004855], [1531749.6387828453, 7456422.128338156], [1531750.4817852157, 7456422.623973356], [1531752.5979147449, 7456423.957562449], [1531755.1435307187, 7456425.544757752], [1531781.4954647617, 7456383.05045096], [1531780.147704717, 7456382.212078182], [1531778.336324348, 7456380.88136057], [1531776.743484706, 7456379.2954327315], [1531775.4054116725, 7456377.489572356], [1531774.3516362214, 7456375.504042628], [1531773.6062356043, 7456373.383343411], [1531773.185837147, 7456371.175228842], [1531773.1150412213, 7456370.347858061], [1531771.9556229028, 7456362.142789526], [1531769.4574332763, 7456354.241704929], [1531765.6880935202, 7456346.861884636], [1531760.7519789406, 7456340.206075244], [1531754.7842247565, 7456334.457063986], [1531747.9492101953, 7456329.772233303], [1531740.4343260843, 7456326.280862147], [1531732.4452249429, 7456324.078447023], [1531724.2030778073, 7456323.225474908], [1531715.933126837, 7456323.746234226], [1531707.861930914, 7456325.625109862], [1531705.411281837, 7456323.403352249], [1531702.8034141136, 7456321.068788098], [1531699.9084450894, 7456317.935307884], [1531697.58815633, 7456314.355230828], [1531695.9104205435, 7456310.4325863095], [1531694.924251942, 7456306.2823903775], [1531694.6577890827, 7456302.024211221], [1531695.1192930392, 7456297.783156354], [1531696.294876943, 7456293.6824481115], [1531698.150483854, 7456289.840936917], [1531700.6326254776, 7456286.371115687], [1531703.6681078288, 7456283.373420981], [1531718.6134009012, 7456271.439230778], [1531744.368937392, 7456252.995473019], [1531771.275652618, 7456236.274411367], [1531799.2166879815, 7456221.347687049], [1531828.0741505397, 7456208.2782718325], [1531839.0827918216, 7456203.720357841], [1531908.7743151344, 7456174.865938032], [1531922.690318405, 7456167.974818934], [1531935.5558368312, 7456159.278791777], [1531947.1389647806, 7456148.93573297], [1531957.2298134319, 7456137.132168193], [1531963.0165738254, 7456128.589065623], [1531968.0183485334, 7456119.562944998], [1531973.7157036376, 7456105.99560723], [1531977.6421241965, 7456091.813513987], [1531979.733191371, 7456077.247410269], [1531979.9558563158, 7456062.533852002], [1531978.3054378692, 7456047.911254533], [1531975.7698059005, 7456033.665976939], [1531975.306429895, 7456028.45701213], [1531975.7540455817, 7456023.247527163], [1531977.0994085425, 7456018.194197496], [1531979.3018981249, 7456013.451092592], [1531982.294731465, 7456009.162979932], [1531985.9861827206, 7456005.459371708], [1531990.2647990342, 7456002.45301547], [1531995.0001262405, 7456000.235182126], [1532000.048920214, 7455998.873408551], [1532014.2940763505, 7455996.337644209], [1532011.666118538, 7455981.569853081], [1532009.0374102374, 7455966.801808941], [1531987.692643359, 7455970.600782215], [1531913.5338717208, 7455983.79989301], [1531890.908034492, 7455988.352209733], [1531868.5087793996, 7455993.913637175], [1531848.3366701445, 7455999.849430907], [1531828.424143643, 7456006.603865089], [1531755.0935971865, 7456033.158861911], [1531658.092388934, 7456068.286199168], [1531652.1337571212, 7456051.831387242], [1531639.3315516692, 7456056.467914782], [1531630.507806294, 7456059.663047341], [1531646.9193664866, 7456104.983376922], [1531652.639514355, 7456120.779773938], [1531674.2656673288, 7456112.948151034], [1531668.3068103858, 7456096.493861417], [1531801.887078402, 7456048.120465166], [1531838.637650715, 7456034.81191761], [1531871.5747375435, 7456024.197492514], [1531905.18523103, 7456015.958659285], [1531910.3646715833, 7456015.346671513], [1531915.5719645754, 7456015.641060129], [1531920.649597996, 7456016.832602694], [1531925.4441723665, 7456018.8855423685], [1531929.8108803288, 7456021.737816619], [1531933.6169979738, 7456025.303024118], [1531936.7486162994, 7456029.4738648655], [1531939.1108977888, 7456034.123873933], [1531940.6320796465, 7456039.1126078], [1531940.819389963, 7456040.075280738], [1531943.322148698, 7456054.137562224], [1531944.6427281306, 7456068.534850601], [1531943.5187257074, 7456082.948783879], [1531939.98217527, 7456096.967607171], [1531934.1343138956, 7456110.19016791], [1531926.1419038132, 7456122.238074285], [1531916.2342961433, 7456132.767107002], [1531904.694019447, 7456141.476676769], [1531891.8515867442, 7456148.117033026], [1531850.3941960086, 7456165.281440947], [1531811.1521026446, 7456181.529206388], [1531787.2070607822, 7456192.164922426], [1531763.8350150317, 7456204.005971759], [1531741.0955382562, 7456217.0218569], [1531716.1304408882, 7456233.173401015], [1531692.1400392547, 7456250.74013717], [1531669.2041781084, 7456269.662730363], [1531647.3999542342, 7456289.879379159], [1531627.6441697124, 7456310.392582927], [1531609.0535790054, 7456331.967733563], [1531567.339087618, 7456383.180327405], [1531536.097991018, 7456421.534416763], [1531513.024930554, 7456450.774871357], [1531490.869472889, 7456480.717530309], [1531467.5198400577, 7456514.526513428], [1531445.3404019275, 7456549.11413864], [1531424.3575985513, 7456584.440634077], [1531398.6120351804, 7456631.977155845], [1531375.0314696475, 7456680.624165283], [1531368.6659714966, 7456694.546405917], [1531358.8054346472, 7456716.111975864], [1531338.9712603618, 7456761.962238213], [1531321.0401248003, 7456808.588847388], [1531307.737220167, 7456847.469703136], [1531295.7569159863, 7456886.778583164], [1531285.1141824676, 7456926.47056507], [1531275.8200039929, 7456966.49925777], [1531267.8851206515, 7457006.819510619], [1531261.3190264998, 7457047.38568343], [1531127.2121335985, 7457028.001979933], [1531148.4639627382, 7457464.102139822], [1531321.2169645135, 7457464.096387009], [1531348.036998395, 7457464.095226529], [1531465.1422180089, 7457464.0912657045], [1531497.512641679, 7457438.729737544], [1531494.3771816217, 7457426.026023712], [1531451.0847332864, 7457250.626679602], [1531427.9611838984, 7457156.940873271], [1531458.84660246, 7457074.006354364], [1531296.5286688893, 7457050.545384719]]]}, "properties": {"parcel_id": "08252760060000", "crs": "local-feet", "address": "982 N SANDHURST DR", "city": "Salt Lake City", "county": "SaltLake", "source_srid": "EPSG:4326", "district": "FR-2", "zone_label": "FR-2/21780 Foothills Estates Residential", "district_provenance": "centroid-contains"}}