{"type": "Feature", "geometry": {"type": "Polygon", "coordinates": [[[1526959.5484206935, 7455823.932087108], [1526959.5186410525, 7455816.507448079], [1526963.5835005187, 7455816.490563825], [1527053.2508633393, 7455651.126071435], [1527090.2085703681, 7455582.967703938], [1527120.6919944368, 7455526.749926403], [1527127.2281720391, 7455514.807933006], [1527241.584772557, 7455305.868131849], [1527119.3814022013, 7455306.35616045], [1526954.3816668119, 7455307.016008813], [1526789.3821796014, 7455307.6759638805], [1526624.383187828, 7455308.335776713], [1526626.5722108902, 7455516.833230089], [1526627.9998259386, 7455652.843284644], [1526628.407206534, 7455691.646947636], [1526629.7322416974, 7455817.839094768], [1526630.9131852416, 7455930.374757228], [1526896.9846454572, 7455939.312765258], [1526959.5484206935, 7455823.932087108]]]}, "properties": {"parcel_id": "08253510430000", "crs": "local-feet", "address": "780 N WARM SPRINGS RD", "city": "Salt Lake City", "county": "SaltLake", "source_srid": "EPSG:4326", "district": "M-1", "zone_label": "Light Manufacturing", "district_provenance": "centroid-contains"}}